<?xml version="1.0" encoding="UTF-8"?>
<gpx creator="https://gpx.studio" version="1.1" xmlns="http://www.topografix.com/GPX/1/1" xmlns:xsi="http://www.w3.org/2001/XMLSchema-instance" xsi:schemaLocation="http://www.topografix.com/GPX/1/1 http://www.topografix.com/GPX/1/1/gpx.xsd http://www.garmin.com/xmlschemas/GpxExtensions/v3 http://www.garmin.com/xmlschemas/GpxExtensionsv3.xsd http://www.garmin.com/xmlschemas/TrackPointExtension/v1 http://www.garmin.com/xmlschemas/TrackPointExtensionv1.xsd http://www.garmin.com/xmlschemas/PowerExtension/v1 http://www.garmin.com/xmlschemas/PowerExtensionv1.xsd http://www.topografix.com/GPX/gpx_style/0/2 http://www.topografix.com/GPX/gpx_style/0/2/gpx_style.xsd" xmlns:gpxtpx="http://www.garmin.com/xmlschemas/TrackPointExtension/v1" xmlns:gpxx="http://www.garmin.com/xmlschemas/GpxExtensions/v3" xmlns:gpxpx="http://www.garmin.com/xmlschemas/PowerExtension/v1" xmlns:gpx_style="http://www.topografix.com/GPX/gpx_style/0/2">
  <metadata>
    <name>IBK Ost</name>
    <author>
      <name>gpx.studio</name>
      <link href="https://gpx.studio"/>
    </author>
  </metadata>
  <trk>
    <trkseg>
      <trkpt lat="47.247597" lon="11.451711">
        <ele>830.25</ele>
      </trkpt>
      <trkpt lat="47.247534" lon="11.451768">
        <ele>832.25</ele>
      </trkpt>
      <trkpt lat="47.247504" lon="11.451676">
        <ele>832</ele>
      </trkpt>
      <trkpt lat="47.247498" lon="11.451649">
        <ele>832</ele>
      </trkpt>
      <trkpt lat="47.247499" lon="11.451615">
        <ele>831.75</ele>
      </trkpt>
      <trkpt lat="47.247545" lon="11.451541">
        <ele>830.5</ele>
      </trkpt>
      <trkpt lat="47.24765" lon="11.451418">
        <ele>828</ele>
      </trkpt>
      <trkpt lat="47.247667" lon="11.451444">
        <ele>827.75</ele>
      </trkpt>
      <trkpt lat="47.247808" lon="11.451778">
        <ele>826.25</ele>
      </trkpt>
      <trkpt lat="47.247869" lon="11.451899">
        <ele>826</ele>
      </trkpt>
      <trkpt lat="47.247929" lon="11.451992">
        <ele>825.25</ele>
      </trkpt>
      <trkpt lat="47.248017" lon="11.452081">
        <ele>823.75</ele>
      </trkpt>
      <trkpt lat="47.248107" lon="11.452147">
        <ele>822</ele>
      </trkpt>
      <trkpt lat="47.248032" lon="11.452584">
        <ele>827.25</ele>
      </trkpt>
      <trkpt lat="47.248088" lon="11.452921">
        <ele>828.5</ele>
      </trkpt>
      <trkpt lat="47.248102" lon="11.453008">
        <ele>829</ele>
      </trkpt>
      <trkpt lat="47.248108" lon="11.453128">
        <ele>829.75</ele>
      </trkpt>
      <trkpt lat="47.248116" lon="11.453249">
        <ele>830.5</ele>
      </trkpt>
      <trkpt lat="47.248233" lon="11.453708">
        <ele>829.5</ele>
      </trkpt>
      <trkpt lat="47.24836" lon="11.454356">
        <ele>830</ele>
      </trkpt>
      <trkpt lat="47.248491" lon="11.454353">
        <ele>830.5</ele>
      </trkpt>
      <trkpt lat="47.248795" lon="11.45431">
        <ele>831.75</ele>
      </trkpt>
      <trkpt lat="47.249122" lon="11.453852">
        <ele>830</ele>
      </trkpt>
      <trkpt lat="47.249344" lon="11.454522">
        <ele>834.5</ele>
      </trkpt>
      <trkpt lat="47.249411" lon="11.454704">
        <ele>835</ele>
      </trkpt>
      <trkpt lat="47.249383" lon="11.45566">
        <ele>835.75</ele>
      </trkpt>
      <trkpt lat="47.249433" lon="11.456329">
        <ele>837</ele>
      </trkpt>
      <trkpt lat="47.24941" lon="11.456878">
        <ele>839.5</ele>
      </trkpt>
      <trkpt lat="47.249478" lon="11.457208">
        <ele>842.25</ele>
      </trkpt>
      <trkpt lat="47.249497" lon="11.45729">
        <ele>842.5</ele>
      </trkpt>
      <trkpt lat="47.249501" lon="11.457303">
        <ele>842.75</ele>
      </trkpt>
      <trkpt lat="47.249667" lon="11.457605">
        <ele>843</ele>
      </trkpt>
      <trkpt lat="47.249787" lon="11.458194">
        <ele>840.25</ele>
      </trkpt>
      <trkpt lat="47.250126" lon="11.458489">
        <ele>833</ele>
      </trkpt>
      <trkpt lat="47.250809" lon="11.458533">
        <ele>825.25</ele>
      </trkpt>
      <trkpt lat="47.251179" lon="11.458397">
        <ele>826.75</ele>
      </trkpt>
      <trkpt lat="47.251452" lon="11.45836">
        <ele>827.5</ele>
      </trkpt>
      <trkpt lat="47.251713" lon="11.458415">
        <ele>826.25</ele>
      </trkpt>
      <trkpt lat="47.251782" lon="11.458474">
        <ele>825.25</ele>
      </trkpt>
      <trkpt lat="47.252042" lon="11.458694">
        <ele>822.25</ele>
      </trkpt>
      <trkpt lat="47.252353" lon="11.459073">
        <ele>820.25</ele>
      </trkpt>
      <trkpt lat="47.252531" lon="11.459378">
        <ele>818.5</ele>
      </trkpt>
      <trkpt lat="47.252624" lon="11.45965">
        <ele>815.75</ele>
      </trkpt>
      <trkpt lat="47.252638" lon="11.459672">
        <ele>815.5</ele>
      </trkpt>
      <trkpt lat="47.252715" lon="11.459792">
        <ele>815</ele>
      </trkpt>
      <trkpt lat="47.253057" lon="11.459909">
        <ele>816.75</ele>
      </trkpt>
      <trkpt lat="47.253376" lon="11.459906">
        <ele>818.5</ele>
      </trkpt>
      <trkpt lat="47.253748" lon="11.460004">
        <ele>813.75</ele>
      </trkpt>
      <trkpt lat="47.254348" lon="11.459922">
        <ele>807</ele>
      </trkpt>
      <trkpt lat="47.254712" lon="11.460117">
        <ele>799.75</ele>
      </trkpt>
      <trkpt lat="47.255028" lon="11.460001">
        <ele>797.0314206231546</ele>
      </trkpt>
      <trkpt lat="47.255263620743165" lon="11.459680490457828">
        <ele>803.1587894332599</ele>
      </trkpt>
      <trkpt lat="47.25546108303223" lon="11.459273190967735">
        <ele>805.870031282399</ele>
      </trkpt>
      <trkpt lat="47.25569803680702" lon="11.458943472332294">
        <ele>807.0305182442238</ele>
      </trkpt>
      <trkpt lat="47.2560008095318" lon="11.458768915408314">
        <ele>806.3512985228398</ele>
      </trkpt>
      <trkpt lat="47.256447864853655" lon="11.458840123349708">
        <ele>802.4845203886287</ele>
      </trkpt>
      <trkpt lat="47.256487875065574" lon="11.45884649626305">
        <ele>801.7921749127286</ele>
      </trkpt>
      <trkpt lat="47.25683013465195" lon="11.45874952019392">
        <ele>794.4410879290764</ele>
      </trkpt>
      <trkpt lat="47.257067082300495" lon="11.458555568055516">
        <ele>786.3584578276239</ele>
      </trkpt>
      <trkpt lat="47.257268176447404" lon="11.45914814676313">
        <ele>787.1602892575332</ele>
      </trkpt>
      <trkpt lat="47.25730402888939" lon="11.45925379575425">
        <ele>785.6832086023883</ele>
      </trkpt>
      <trkpt lat="47.25749931594002" lon="11.459850579184419">
        <ele>774.3810837725434</ele>
      </trkpt>
      <trkpt lat="47.25765944678332" lon="11.46033992772874">
        <ele>767.6386017979178</ele>
      </trkpt>
      <trkpt lat="47.25785690013828" lon="11.460766622433312">
        <ele>757.5955682745741</ele>
      </trkpt>
      <trkpt lat="47.258268859612265" lon="11.461032178607">
        <ele>756.260611202132</ele>
      </trkpt>
      <trkpt lat="47.258278131501385" lon="11.46103815542645">
        <ele>756.2709019278992</ele>
      </trkpt>
      <trkpt lat="47.258501909300094" lon="11.461426059703143">
        <ele>751.7771503002766</ele>
      </trkpt>
      <trkpt lat="47.25843609239868" lon="11.461794568766436">
        <ele>742.8659971747089</ele>
      </trkpt>
      <trkpt lat="47.25830445835041" lon="11.461969125691411">
        <ele>736.0934866370937</ele>
      </trkpt>
      <trkpt lat="47.25819915087638" lon="11.461891544835623">
        <ele>737.2848679927321</ele>
      </trkpt>
      <trkpt lat="47.25804118927218" lon="11.461891544835623">
        <ele>736.7516347178574</ele>
      </trkpt>
      <trkpt lat="47.25796220829375" lon="11.462007916118239">
        <ele>736.0787094194611</ele>
      </trkpt>
      <trkpt lat="47.25818598742694" lon="11.462201868256614">
        <ele>730.9844347422928</ele>
      </trkpt>
      <trkpt lat="47.258166" lon="11.462238">
        <ele>733.5</ele>
      </trkpt>
      <trkpt lat="47.258281" lon="11.462365">
        <ele>731.25</ele>
      </trkpt>
      <trkpt lat="47.258329" lon="11.462396">
        <ele>729.5</ele>
      </trkpt>
      <trkpt lat="47.258374" lon="11.462414">
        <ele>728.5</ele>
      </trkpt>
      <trkpt lat="47.258408" lon="11.462411">
        <ele>728.25</ele>
      </trkpt>
      <trkpt lat="47.258767" lon="11.462137">
        <ele>726.5</ele>
      </trkpt>
      <trkpt lat="47.259072" lon="11.46184">
        <ele>719.5</ele>
      </trkpt>
      <trkpt lat="47.259238" lon="11.461562">
        <ele>712.25</ele>
      </trkpt>
      <trkpt lat="47.259246" lon="11.461583">
        <ele>712.25</ele>
      </trkpt>
      <trkpt lat="47.259286" lon="11.461699">
        <ele>712</ele>
      </trkpt>
      <trkpt lat="47.259296" lon="11.461727">
        <ele>711.75</ele>
      </trkpt>
      <trkpt lat="47.259391" lon="11.461841">
        <ele>709.75</ele>
      </trkpt>
      <trkpt lat="47.259687" lon="11.462087">
        <ele>705.25</ele>
      </trkpt>
      <trkpt lat="47.25974" lon="11.462152">
        <ele>705.25</ele>
      </trkpt>
      <trkpt lat="47.259787" lon="11.462249">
        <ele>706.25</ele>
      </trkpt>
      <trkpt lat="47.259798" lon="11.462311">
        <ele>707.25</ele>
      </trkpt>
      <trkpt lat="47.259798" lon="11.462362">
        <ele>708.5</ele>
      </trkpt>
      <trkpt lat="47.25979" lon="11.462416">
        <ele>709.75</ele>
      </trkpt>
      <trkpt lat="47.259771" lon="11.462474">
        <ele>711</ele>
      </trkpt>
      <trkpt lat="47.259708" lon="11.462548">
        <ele>712.75</ele>
      </trkpt>
      <trkpt lat="47.259663" lon="11.462584">
        <ele>713.75</ele>
      </trkpt>
      <trkpt lat="47.259536" lon="11.46266">
        <ele>716</ele>
      </trkpt>
      <trkpt lat="47.259504" lon="11.462678">
        <ele>716.5</ele>
      </trkpt>
      <trkpt lat="47.25942" lon="11.462726">
        <ele>718</ele>
      </trkpt>
      <trkpt lat="47.259357" lon="11.462801">
        <ele>719.75</ele>
      </trkpt>
      <trkpt lat="47.259308" lon="11.462887">
        <ele>721.25</ele>
      </trkpt>
      <trkpt lat="47.259289" lon="11.462937">
        <ele>722</ele>
      </trkpt>
      <trkpt lat="47.259271" lon="11.463007">
        <ele>722.75</ele>
      </trkpt>
      <trkpt lat="47.259253" lon="11.463083">
        <ele>724</ele>
      </trkpt>
      <trkpt lat="47.259239" lon="11.463186">
        <ele>725.25</ele>
      </trkpt>
      <trkpt lat="47.259239" lon="11.46324">
        <ele>725.75</ele>
      </trkpt>
      <trkpt lat="47.259238" lon="11.463335">
        <ele>726.75</ele>
      </trkpt>
      <trkpt lat="47.259277" lon="11.463677">
        <ele>729.5</ele>
      </trkpt>
      <trkpt lat="47.2593" lon="11.463925">
        <ele>731.25</ele>
      </trkpt>
      <trkpt lat="47.2593" lon="11.464023">
        <ele>732</ele>
      </trkpt>
      <trkpt lat="47.259293" lon="11.464256">
        <ele>734.75</ele>
      </trkpt>
      <trkpt lat="47.259266" lon="11.464542">
        <ele>739.75</ele>
      </trkpt>
      <trkpt lat="47.259247" lon="11.464675">
        <ele>742.5</ele>
      </trkpt>
      <trkpt lat="47.259189" lon="11.464991">
        <ele>749.75</ele>
      </trkpt>
      <trkpt lat="47.259141" lon="11.465308">
        <ele>753.25</ele>
      </trkpt>
      <trkpt lat="47.259101" lon="11.46564">
        <ele>756.5</ele>
      </trkpt>
      <trkpt lat="47.2591" lon="11.465743">
        <ele>757</ele>
      </trkpt>
      <trkpt lat="47.259107" lon="11.465837">
        <ele>757.5</ele>
      </trkpt>
      <trkpt lat="47.259167" lon="11.466236">
        <ele>761.25</ele>
      </trkpt>
      <trkpt lat="47.259179" lon="11.466443">
        <ele>763.75</ele>
      </trkpt>
      <trkpt lat="47.259141" lon="11.467248">
        <ele>775.25</ele>
      </trkpt>
      <trkpt lat="47.259137" lon="11.46754">
        <ele>778.25</ele>
      </trkpt>
      <trkpt lat="47.25914" lon="11.467755">
        <ele>780.5</ele>
      </trkpt>
      <trkpt lat="47.259149" lon="11.467907">
        <ele>781.75</ele>
      </trkpt>
      <trkpt lat="47.259164" lon="11.46804">
        <ele>782.75</ele>
      </trkpt>
      <trkpt lat="47.259183" lon="11.468145">
        <ele>783.25</ele>
      </trkpt>
      <trkpt lat="47.259245" lon="11.468424">
        <ele>784.25</ele>
      </trkpt>
      <trkpt lat="47.259353" lon="11.468848">
        <ele>787.5</ele>
      </trkpt>
      <trkpt lat="47.259418" lon="11.469104">
        <ele>790.25</ele>
      </trkpt>
      <trkpt lat="47.259482" lon="11.469437">
        <ele>791</ele>
      </trkpt>
      <trkpt lat="47.259489" lon="11.469487">
        <ele>791</ele>
      </trkpt>
      <trkpt lat="47.259551" lon="11.469918">
        <ele>791.5</ele>
      </trkpt>
      <trkpt lat="47.25956" lon="11.470045">
        <ele>791.75</ele>
      </trkpt>
      <trkpt lat="47.259559" lon="11.470144">
        <ele>792</ele>
      </trkpt>
      <trkpt lat="47.259551" lon="11.470238">
        <ele>792.25</ele>
      </trkpt>
      <trkpt lat="47.259502" lon="11.470579">
        <ele>793.25</ele>
      </trkpt>
      <trkpt lat="47.259418" lon="11.470984">
        <ele>795.25</ele>
      </trkpt>
      <trkpt lat="47.259354" lon="11.471248">
        <ele>797.25</ele>
      </trkpt>
      <trkpt lat="47.259094" lon="11.471264">
        <ele>798.25</ele>
      </trkpt>
      <trkpt lat="47.258997" lon="11.471228">
        <ele>798</ele>
      </trkpt>
      <trkpt lat="47.258952" lon="11.471194">
        <ele>798</ele>
      </trkpt>
      <trkpt lat="47.258636" lon="11.470887">
        <ele>798</ele>
      </trkpt>
      <trkpt lat="47.258549" lon="11.470815">
        <ele>798.5</ele>
      </trkpt>
      <trkpt lat="47.25842" lon="11.470753">
        <ele>798.75</ele>
      </trkpt>
      <trkpt lat="47.258291" lon="11.470726">
        <ele>799.25</ele>
      </trkpt>
      <trkpt lat="47.258111" lon="11.470759">
        <ele>799.5</ele>
      </trkpt>
      <trkpt lat="47.257722" lon="11.470958">
        <ele>800.5</ele>
      </trkpt>
      <trkpt lat="47.257583" lon="11.471052">
        <ele>801.25</ele>
      </trkpt>
      <trkpt lat="47.257536" lon="11.47109">
        <ele>801.5</ele>
      </trkpt>
      <trkpt lat="47.257518" lon="11.471105">
        <ele>801.75</ele>
      </trkpt>
      <trkpt lat="47.257456" lon="11.471172">
        <ele>803</ele>
      </trkpt>
      <trkpt lat="47.257379" lon="11.471282">
        <ele>805</ele>
      </trkpt>
      <trkpt lat="47.257329" lon="11.471388">
        <ele>806.5</ele>
      </trkpt>
      <trkpt lat="47.257295" lon="11.47148">
        <ele>807.75</ele>
      </trkpt>
      <trkpt lat="47.257269" lon="11.471583">
        <ele>808.75</ele>
      </trkpt>
      <trkpt lat="47.257245" lon="11.471722">
        <ele>810</ele>
      </trkpt>
      <trkpt lat="47.257165" lon="11.472597">
        <ele>814.5</ele>
      </trkpt>
      <trkpt lat="47.257132" lon="11.472799">
        <ele>814.75</ele>
      </trkpt>
      <trkpt lat="47.257119" lon="11.472839">
        <ele>815</ele>
      </trkpt>
      <trkpt lat="47.257079" lon="11.472898">
        <ele>815.75</ele>
      </trkpt>
      <trkpt lat="47.25705" lon="11.472916">
        <ele>816.5</ele>
      </trkpt>
      <trkpt lat="47.257019" lon="11.472915">
        <ele>817.25</ele>
      </trkpt>
      <trkpt lat="47.256981" lon="11.472889">
        <ele>818.25</ele>
      </trkpt>
      <trkpt lat="47.256963" lon="11.472861">
        <ele>818.75</ele>
      </trkpt>
      <trkpt lat="47.256836" lon="11.472425">
        <ele>822.5</ele>
      </trkpt>
      <trkpt lat="47.25661" lon="11.471692">
        <ele>823.75</ele>
      </trkpt>
      <trkpt lat="47.256562" lon="11.471544">
        <ele>823.25</ele>
      </trkpt>
      <trkpt lat="47.25653" lon="11.47147">
        <ele>823.25</ele>
      </trkpt>
      <trkpt lat="47.256508" lon="11.471426">
        <ele>823.25</ele>
      </trkpt>
      <trkpt lat="47.256456" lon="11.47135">
        <ele>823.25</ele>
      </trkpt>
      <trkpt lat="47.256126" lon="11.471019">
        <ele>825.25</ele>
      </trkpt>
      <trkpt lat="47.25584" lon="11.470288">
        <ele>825.75</ele>
      </trkpt>
      <trkpt lat="47.255614" lon="11.469931">
        <ele>832.25</ele>
      </trkpt>
      <trkpt lat="47.255291" lon="11.469481">
        <ele>842</ele>
      </trkpt>
      <trkpt lat="47.255164" lon="11.469292">
        <ele>844.25</ele>
      </trkpt>
      <trkpt lat="47.254909" lon="11.468824">
        <ele>847</ele>
      </trkpt>
      <trkpt lat="47.254811" lon="11.468663">
        <ele>847.75</ele>
      </trkpt>
      <trkpt lat="47.25471" lon="11.468583">
        <ele>848.75</ele>
      </trkpt>
      <trkpt lat="47.254298" lon="11.468375">
        <ele>852</ele>
      </trkpt>
      <trkpt lat="47.253951" lon="11.468083">
        <ele>851.75</ele>
      </trkpt>
      <trkpt lat="47.253859" lon="11.468046">
        <ele>851.75</ele>
      </trkpt>
      <trkpt lat="47.253841" lon="11.468038">
        <ele>851.5</ele>
      </trkpt>
      <trkpt lat="47.253694" lon="11.468044">
        <ele>852</ele>
      </trkpt>
      <trkpt lat="47.253568" lon="11.46808">
        <ele>852.75</ele>
      </trkpt>
      <trkpt lat="47.253508" lon="11.468162">
        <ele>854</ele>
      </trkpt>
      <trkpt lat="47.253302" lon="11.468663">
        <ele>861</ele>
      </trkpt>
      <trkpt lat="47.253228" lon="11.468788">
        <ele>861.5</ele>
      </trkpt>
      <trkpt lat="47.253133" lon="11.468953">
        <ele>862</ele>
      </trkpt>
      <trkpt lat="47.253234" lon="11.468958">
        <ele>864</ele>
      </trkpt>
      <trkpt lat="47.253409" lon="11.469293">
        <ele>870.75</ele>
      </trkpt>
      <trkpt lat="47.253656" lon="11.469613">
        <ele>876.25</ele>
      </trkpt>
      <trkpt lat="47.253763" lon="11.4699">
        <ele>882.25</ele>
      </trkpt>
      <trkpt lat="47.25383" lon="11.470078">
        <ele>886.25</ele>
      </trkpt>
      <trkpt lat="47.254157" lon="11.470553">
        <ele>896</ele>
      </trkpt>
      <trkpt lat="47.254259" lon="11.470832">
        <ele>898</ele>
      </trkpt>
      <trkpt lat="47.254261" lon="11.470982">
        <ele>899.25</ele>
      </trkpt>
      <trkpt lat="47.254232" lon="11.47107">
        <ele>901.25</ele>
      </trkpt>
      <trkpt lat="47.253836" lon="11.471827">
        <ele>904.5</ele>
      </trkpt>
      <trkpt lat="47.253993" lon="11.473436">
        <ele>913.5</ele>
      </trkpt>
      <trkpt lat="47.254332" lon="11.474492">
        <ele>913.5</ele>
      </trkpt>
      <trkpt lat="47.254439" lon="11.475676">
        <ele>910</ele>
      </trkpt>
      <trkpt lat="47.254581" lon="11.476556">
        <ele>903.75</ele>
      </trkpt>
      <trkpt lat="47.254727" lon="11.478292">
        <ele>893.25</ele>
      </trkpt>
      <trkpt lat="47.254632" lon="11.478766">
        <ele>889.25</ele>
      </trkpt>
      <trkpt lat="47.254594" lon="11.4792">
        <ele>886.75</ele>
      </trkpt>
      <trkpt lat="47.254752" lon="11.479723">
        <ele>884</ele>
      </trkpt>
      <trkpt lat="47.254766" lon="11.479775">
        <ele>883.5</ele>
      </trkpt>
      <trkpt lat="47.25512" lon="11.481013">
        <ele>873.75</ele>
      </trkpt>
      <trkpt lat="47.255273" lon="11.482199">
        <ele>864</ele>
      </trkpt>
      <trkpt lat="47.25539" lon="11.483855">
        <ele>852</ele>
      </trkpt>
      <trkpt lat="47.255498" lon="11.484325">
        <ele>850.75</ele>
      </trkpt>
      <trkpt lat="47.255732" lon="11.485544">
        <ele>848.25</ele>
      </trkpt>
      <trkpt lat="47.255924" lon="11.485785">
        <ele>852</ele>
      </trkpt>
      <trkpt lat="47.255999" lon="11.48677">
        <ele>840.25</ele>
      </trkpt>
      <trkpt lat="47.255999" lon="11.486768">
        <ele>840.25</ele>
      </trkpt>
      <trkpt lat="47.256006" lon="11.486852">
        <ele>839.5</ele>
      </trkpt>
      <trkpt lat="47.2561" lon="11.486887">
        <ele>839.25</ele>
      </trkpt>
      <trkpt lat="47.256263" lon="11.486863">
        <ele>841</ele>
      </trkpt>
      <trkpt lat="47.256469" lon="11.486756">
        <ele>845.25</ele>
      </trkpt>
      <trkpt lat="47.256942" lon="11.486487">
        <ele>852</ele>
      </trkpt>
      <trkpt lat="47.256947" lon="11.486443">
        <ele>851.3290324865418</ele>
      </trkpt>
      <trkpt lat="47.256947" lon="11.486443">
        <ele>851.3290324865418</ele>
      </trkpt>
      <trkpt lat="47.25721033348486" lon="11.48666304008134">
        <ele>844.317259113945</ele>
      </trkpt>
      <trkpt lat="47.25721033348486" lon="11.48666304008134">
        <ele>844.317259113945</ele>
      </trkpt>
      <trkpt lat="47.25747827682875" lon="11.48719509736664">
        <ele>837.6944767406907</ele>
      </trkpt>
      <trkpt lat="47.25762638711305" lon="11.487489201167278">
        <ele>838.0571305432601</ele>
      </trkpt>
      <trkpt lat="47.25762638711305" lon="11.487489201167278">
        <ele>838.0571305432601</ele>
      </trkpt>
      <trkpt lat="47.257969391353186" lon="11.487917611255922">
        <ele>840.3815338529192</ele>
      </trkpt>
      <trkpt lat="47.258174120164455" lon="11.488173316223737">
        <ele>841.1397135911855</ele>
      </trkpt>
      <trkpt lat="47.258174120164455" lon="11.488173316223737">
        <ele>841.1397135911855</ele>
      </trkpt>
      <trkpt lat="47.258580970513115" lon="11.488455456250144">
        <ele>844.2263379560383</ele>
      </trkpt>
      <trkpt lat="47.25862663714449" lon="11.488487124859063">
        <ele>844.0740852397746</ele>
      </trkpt>
      <trkpt lat="47.258898490695884" lon="11.488563612527884">
        <ele>843.3684662805556</ele>
      </trkpt>
      <trkpt lat="47.25899961895752" lon="11.488500873178822">
        <ele>844.5385458970904</ele>
      </trkpt>
      <trkpt lat="47.2594492209502" lon="11.488511531735325">
        <ele>841.8206507345202</ele>
      </trkpt>
      <trkpt lat="47.25963750147142" lon="11.488515995235502">
        <ele>841.7227897651502</ele>
      </trkpt>
      <trkpt lat="47.25991959167749" lon="11.488861061658184">
        <ele>835.9811039859846</ele>
      </trkpt>
      <trkpt lat="47.260217647621005" lon="11.489268867430695">
        <ele>835.2206367596634</ele>
      </trkpt>
      <trkpt lat="47.260218" lon="11.489253">
        <ele>838.75</ele>
      </trkpt>
      <trkpt lat="47.260276" lon="11.489461">
        <ele>835.25</ele>
      </trkpt>
      <trkpt lat="47.260161" lon="11.489659">
        <ele>828.25</ele>
      </trkpt>
      <trkpt lat="47.260235" lon="11.489999">
        <ele>822</ele>
      </trkpt>
      <trkpt lat="47.260275" lon="11.490176">
        <ele>819</ele>
      </trkpt>
      <trkpt lat="47.260653" lon="11.49081">
        <ele>812.5</ele>
      </trkpt>
      <trkpt lat="47.261076" lon="11.491769">
        <ele>805.25</ele>
      </trkpt>
      <trkpt lat="47.261328" lon="11.492295">
        <ele>802</ele>
      </trkpt>
      <trkpt lat="47.261976" lon="11.492901">
        <ele>796.5</ele>
      </trkpt>
      <trkpt lat="47.262152" lon="11.492957">
        <ele>795.5</ele>
      </trkpt>
      <trkpt lat="47.262422" lon="11.492925">
        <ele>797.5</ele>
      </trkpt>
      <trkpt lat="47.262742" lon="11.493022">
        <ele>795.75</ele>
      </trkpt>
      <trkpt lat="47.262935" lon="11.493298">
        <ele>792</ele>
      </trkpt>
      <trkpt lat="47.26305" lon="11.493561">
        <ele>789</ele>
      </trkpt>
      <trkpt lat="47.26325" lon="11.493775">
        <ele>788.75</ele>
      </trkpt>
      <trkpt lat="47.263269" lon="11.493835">
        <ele>788.25</ele>
      </trkpt>
      <trkpt lat="47.263392" lon="11.494204">
        <ele>785.75</ele>
      </trkpt>
      <trkpt lat="47.263466" lon="11.494795">
        <ele>778</ele>
      </trkpt>
      <trkpt lat="47.263574" lon="11.495186">
        <ele>773.75</ele>
      </trkpt>
      <trkpt lat="47.263727" lon="11.495494">
        <ele>771.25</ele>
      </trkpt>
      <trkpt lat="47.26402" lon="11.495816">
        <ele>770.25</ele>
      </trkpt>
      <trkpt lat="47.264279" lon="11.49599">
        <ele>774.5</ele>
      </trkpt>
      <trkpt lat="47.264445" lon="11.495993">
        <ele>775.5</ele>
      </trkpt>
      <trkpt lat="47.264482" lon="11.495994">
        <ele>775.75</ele>
      </trkpt>
      <trkpt lat="47.264624" lon="11.495967">
        <ele>776.25</ele>
      </trkpt>
      <trkpt lat="47.264715" lon="11.495927">
        <ele>775.5</ele>
      </trkpt>
      <trkpt lat="47.264809" lon="11.495874">
        <ele>774.25</ele>
      </trkpt>
      <trkpt lat="47.265106" lon="11.49564">
        <ele>773.75</ele>
      </trkpt>
      <trkpt lat="47.265283" lon="11.495511">
        <ele>773.5</ele>
      </trkpt>
      <trkpt lat="47.265412" lon="11.495433">
        <ele>772.75</ele>
      </trkpt>
      <trkpt lat="47.265472" lon="11.495406">
        <ele>772.25</ele>
      </trkpt>
      <trkpt lat="47.265515" lon="11.495387">
        <ele>772</ele>
      </trkpt>
      <trkpt lat="47.265541" lon="11.495553">
        <ele>774</ele>
      </trkpt>
      <trkpt lat="47.265883" lon="11.495658">
        <ele>775.5</ele>
      </trkpt>
      <trkpt lat="47.26601" lon="11.495728">
        <ele>774.5</ele>
      </trkpt>
      <trkpt lat="47.266233" lon="11.495997">
        <ele>778.5</ele>
      </trkpt>
      <trkpt lat="47.266477" lon="11.496271">
        <ele>783</ele>
      </trkpt>
      <trkpt lat="47.266762" lon="11.496523">
        <ele>783.75</ele>
      </trkpt>
      <trkpt lat="47.26693" lon="11.49666">
        <ele>783.25</ele>
      </trkpt>
      <trkpt lat="47.26693" lon="11.49667">
        <ele>783.5</ele>
      </trkpt>
      <trkpt lat="47.266935" lon="11.496746">
        <ele>785.25</ele>
      </trkpt>
      <trkpt lat="47.266944" lon="11.496786">
        <ele>786</ele>
      </trkpt>
      <trkpt lat="47.267042" lon="11.497103">
        <ele>790.25</ele>
      </trkpt>
      <trkpt lat="47.267097" lon="11.497262">
        <ele>791.5</ele>
      </trkpt>
      <trkpt lat="47.267171" lon="11.497429">
        <ele>791.75</ele>
      </trkpt>
      <trkpt lat="47.267224" lon="11.497521">
        <ele>791</ele>
      </trkpt>
      <trkpt lat="47.267332" lon="11.497683">
        <ele>789.5</ele>
      </trkpt>
      <trkpt lat="47.26768" lon="11.498097">
        <ele>787.75</ele>
      </trkpt>
      <trkpt lat="47.267797" lon="11.498271">
        <ele>788.5</ele>
      </trkpt>
      <trkpt lat="47.267834" lon="11.498346">
        <ele>789</ele>
      </trkpt>
      <trkpt lat="47.267867" lon="11.498437">
        <ele>790</ele>
      </trkpt>
      <trkpt lat="47.267933" lon="11.498779">
        <ele>795.25</ele>
      </trkpt>
      <trkpt lat="47.267952" lon="11.499019">
        <ele>799.75</ele>
      </trkpt>
      <trkpt lat="47.267949" lon="11.49918">
        <ele>803.25</ele>
      </trkpt>
      <trkpt lat="47.267945" lon="11.499247">
        <ele>804.75</ele>
      </trkpt>
      <trkpt lat="47.267932" lon="11.499326">
        <ele>806.5</ele>
      </trkpt>
      <trkpt lat="47.267879" lon="11.499579">
        <ele>812.5</ele>
      </trkpt>
      <trkpt lat="47.267878" lon="11.499649">
        <ele>814</ele>
      </trkpt>
      <trkpt lat="47.267832" lon="11.500112">
        <ele>822.75</ele>
      </trkpt>
      <trkpt lat="47.267803" lon="11.500511">
        <ele>829</ele>
      </trkpt>
      <trkpt lat="47.267718" lon="11.500585">
        <ele>830.75</ele>
      </trkpt>
      <trkpt lat="47.267718" lon="11.500585">
        <ele>830.75</ele>
      </trkpt>
      <trkpt lat="47.267392" lon="11.500874">
        <ele>837.75</ele>
      </trkpt>
      <trkpt lat="47.267335" lon="11.500905">
        <ele>838.5</ele>
      </trkpt>
      <trkpt lat="47.267271" lon="11.500898">
        <ele>839.25</ele>
      </trkpt>
      <trkpt lat="47.267201" lon="11.500864">
        <ele>840.5</ele>
      </trkpt>
      <trkpt lat="47.267151" lon="11.500806">
        <ele>841.25</ele>
      </trkpt>
      <trkpt lat="47.267105" lon="11.500733">
        <ele>841.5</ele>
      </trkpt>
      <trkpt lat="47.267052" lon="11.500593">
        <ele>841.75</ele>
      </trkpt>
      <trkpt lat="47.266851" lon="11.499994">
        <ele>844.5</ele>
      </trkpt>
      <trkpt lat="47.266611" lon="11.499295">
        <ele>844.25</ele>
      </trkpt>
      <trkpt lat="47.266491" lon="11.498835">
        <ele>841.75</ele>
      </trkpt>
      <trkpt lat="47.266404" lon="11.498391">
        <ele>838.5</ele>
      </trkpt>
      <trkpt lat="47.266335" lon="11.498165">
        <ele>837.25</ele>
      </trkpt>
      <trkpt lat="47.266292" lon="11.498079">
        <ele>837.25</ele>
      </trkpt>
      <trkpt lat="47.266059" lon="11.497845">
        <ele>841</ele>
      </trkpt>
      <trkpt lat="47.265863" lon="11.497596">
        <ele>844</ele>
      </trkpt>
      <trkpt lat="47.265566" lon="11.497633">
        <ele>843.25</ele>
      </trkpt>
      <trkpt lat="47.265527" lon="11.497663">
        <ele>843.25</ele>
      </trkpt>
      <trkpt lat="47.265325" lon="11.497825">
        <ele>844.5</ele>
      </trkpt>
      <trkpt lat="47.265101" lon="11.498113">
        <ele>848.25</ele>
      </trkpt>
      <trkpt lat="47.264989" lon="11.498527">
        <ele>851.5</ele>
      </trkpt>
      <trkpt lat="47.26492" lon="11.498948">
        <ele>848.5</ele>
      </trkpt>
      <trkpt lat="47.264997" lon="11.499423">
        <ele>849</ele>
      </trkpt>
      <trkpt lat="47.265368" lon="11.499928">
        <ele>849.5</ele>
      </trkpt>
      <trkpt lat="47.265426" lon="11.50002">
        <ele>849</ele>
      </trkpt>
      <trkpt lat="47.265753" lon="11.500544">
        <ele>846.25</ele>
      </trkpt>
      <trkpt lat="47.266659" lon="11.501363">
        <ele>839</ele>
      </trkpt>
      <trkpt lat="47.266696" lon="11.501397">
        <ele>838.75</ele>
      </trkpt>
      <trkpt lat="47.267058" lon="11.501825">
        <ele>832.75</ele>
      </trkpt>
      <trkpt lat="47.267564" lon="11.502446">
        <ele>833.75</ele>
      </trkpt>
      <trkpt lat="47.268003" lon="11.503316">
        <ele>826</ele>
      </trkpt>
      <trkpt lat="47.268537" lon="11.503751">
        <ele>826.5</ele>
      </trkpt>
      <trkpt lat="47.268754" lon="11.504143">
        <ele>822.25</ele>
      </trkpt>
      <trkpt lat="47.269086" lon="11.504779">
        <ele>818</ele>
      </trkpt>
      <trkpt lat="47.269227" lon="11.505048">
        <ele>816.25</ele>
      </trkpt>
      <trkpt lat="47.26932" lon="11.505465">
        <ele>808.25</ele>
      </trkpt>
      <trkpt lat="47.269565" lon="11.505735">
        <ele>807</ele>
      </trkpt>
      <trkpt lat="47.269891" lon="11.506249">
        <ele>805.75</ele>
      </trkpt>
      <trkpt lat="47.270331" lon="11.506612">
        <ele>806.75</ele>
      </trkpt>
      <trkpt lat="47.270559" lon="11.507096">
        <ele>802</ele>
      </trkpt>
      <trkpt lat="47.270827" lon="11.507458">
        <ele>804</ele>
      </trkpt>
      <trkpt lat="47.271087" lon="11.50761">
        <ele>796.5</ele>
      </trkpt>
      <trkpt lat="47.271258" lon="11.508078">
        <ele>792.25</ele>
      </trkpt>
      <trkpt lat="47.271366" lon="11.508293">
        <ele>792.25</ele>
      </trkpt>
      <trkpt lat="47.271719" lon="11.50899">
        <ele>792.5</ele>
      </trkpt>
      <trkpt lat="47.271929" lon="11.509439">
        <ele>783</ele>
      </trkpt>
      <trkpt lat="47.271992" lon="11.510161">
        <ele>777.75</ele>
      </trkpt>
      <trkpt lat="47.271941" lon="11.51072">
        <ele>774.75</ele>
      </trkpt>
      <trkpt lat="47.271885" lon="11.511181">
        <ele>773.75</ele>
      </trkpt>
      <trkpt lat="47.271798" lon="11.511942">
        <ele>772.25</ele>
      </trkpt>
      <trkpt lat="47.27179" lon="11.512021">
        <ele>772.25</ele>
      </trkpt>
      <trkpt lat="47.271812" lon="11.512772">
        <ele>768.5</ele>
      </trkpt>
      <trkpt lat="47.271815" lon="11.513646">
        <ele>760.25</ele>
      </trkpt>
      <trkpt lat="47.27179" lon="11.513789">
        <ele>758.5</ele>
      </trkpt>
      <trkpt lat="47.271721" lon="11.513963">
        <ele>757.25</ele>
      </trkpt>
      <trkpt lat="47.271751" lon="11.514056">
        <ele>754.75</ele>
      </trkpt>
      <trkpt lat="47.271813" lon="11.514161">
        <ele>751.25</ele>
      </trkpt>
      <trkpt lat="47.27185" lon="11.514279">
        <ele>746.75</ele>
      </trkpt>
      <trkpt lat="47.271914" lon="11.514327">
        <ele>743.75</ele>
      </trkpt>
      <trkpt lat="47.27193" lon="11.514361">
        <ele>742.5</ele>
      </trkpt>
      <trkpt lat="47.271932" lon="11.514384">
        <ele>741.75</ele>
      </trkpt>
      <trkpt lat="47.271985" lon="11.514473">
        <ele>738.25</ele>
      </trkpt>
      <trkpt lat="47.272012" lon="11.514566">
        <ele>735.25</ele>
      </trkpt>
      <trkpt lat="47.272094" lon="11.5147">
        <ele>730.5</ele>
      </trkpt>
      <trkpt lat="47.272059" lon="11.514782">
        <ele>729</ele>
      </trkpt>
      <trkpt lat="47.272118" lon="11.514787">
        <ele>728.25</ele>
      </trkpt>
      <trkpt lat="47.272164" lon="11.514878">
        <ele>725.75</ele>
      </trkpt>
      <trkpt lat="47.27218" lon="11.515005">
        <ele>722.75</ele>
      </trkpt>
      <trkpt lat="47.27216" lon="11.51506">
        <ele>721.5</ele>
      </trkpt>
      <trkpt lat="47.272251" lon="11.515104">
        <ele>720.25</ele>
      </trkpt>
      <trkpt lat="47.272303" lon="11.515175">
        <ele>718.5</ele>
      </trkpt>
      <trkpt lat="47.272324" lon="11.515291">
        <ele>716</ele>
      </trkpt>
      <trkpt lat="47.272205" lon="11.515441">
        <ele>713.25</ele>
      </trkpt>
      <trkpt lat="47.272079" lon="11.515491">
        <ele>712.5</ele>
      </trkpt>
      <trkpt lat="47.272069" lon="11.515505">
        <ele>712</ele>
      </trkpt>
      <trkpt lat="47.27206" lon="11.51552">
        <ele>712</ele>
      </trkpt>
      <trkpt lat="47.272197" lon="11.515779">
        <ele>706</ele>
      </trkpt>
      <trkpt lat="47.272312" lon="11.516024">
        <ele>702</ele>
      </trkpt>
      <trkpt lat="47.272331" lon="11.516063">
        <ele>701.5</ele>
      </trkpt>
      <trkpt lat="47.272418" lon="11.515953">
        <ele>703</ele>
      </trkpt>
      <trkpt lat="47.272497" lon="11.515895">
        <ele>704</ele>
      </trkpt>
      <trkpt lat="47.272586" lon="11.515731">
        <ele>700.25</ele>
      </trkpt>
      <trkpt lat="47.27267" lon="11.515512">
        <ele>697.75</ele>
      </trkpt>
      <trkpt lat="47.272803" lon="11.515068">
        <ele>695.75</ele>
      </trkpt>
      <trkpt lat="47.272995" lon="11.514585">
        <ele>689.25</ele>
      </trkpt>
      <trkpt lat="47.273047" lon="11.514485">
        <ele>687</ele>
      </trkpt>
      <trkpt lat="47.273106" lon="11.514442">
        <ele>683.5</ele>
      </trkpt>
      <trkpt lat="47.273163" lon="11.514404">
        <ele>679.75</ele>
      </trkpt>
      <trkpt lat="47.273245" lon="11.514404">
        <ele>673.75</ele>
      </trkpt>
      <trkpt lat="47.273336" lon="11.514331">
        <ele>668.5</ele>
      </trkpt>
      <trkpt lat="47.273453" lon="11.514262">
        <ele>663.5</ele>
      </trkpt>
      <trkpt lat="47.273624" lon="11.514092">
        <ele>656.75</ele>
      </trkpt>
      <trkpt lat="47.273741" lon="11.5139">
        <ele>652.5</ele>
      </trkpt>
      <trkpt lat="47.273849" lon="11.513699">
        <ele>648.75</ele>
      </trkpt>
      <trkpt lat="47.273961" lon="11.513321">
        <ele>647</ele>
      </trkpt>
      <trkpt lat="47.274049" lon="11.512874">
        <ele>643</ele>
      </trkpt>
      <trkpt lat="47.274163" lon="11.512407">
        <ele>636.25</ele>
      </trkpt>
      <trkpt lat="47.27437" lon="11.511789">
        <ele>628</ele>
      </trkpt>
      <trkpt lat="47.27444" lon="11.51154">
        <ele>626</ele>
      </trkpt>
      <trkpt lat="47.274499" lon="11.511397">
        <ele>624.5</ele>
      </trkpt>
      <trkpt lat="47.274597" lon="11.51112">
        <ele>622.25</ele>
      </trkpt>
      <trkpt lat="47.274739" lon="11.510764">
        <ele>618.75</ele>
      </trkpt>
      <trkpt lat="47.274806" lon="11.510666">
        <ele>615.75</ele>
      </trkpt>
      <trkpt lat="47.274905" lon="11.510577">
        <ele>611.5</ele>
      </trkpt>
      <trkpt lat="47.275011" lon="11.510582">
        <ele>606.75</ele>
      </trkpt>
      <trkpt lat="47.275038" lon="11.510322">
        <ele>606</ele>
      </trkpt>
      <trkpt lat="47.275091" lon="11.510084">
        <ele>604.25</ele>
      </trkpt>
      <trkpt lat="47.27513" lon="11.510064">
        <ele>603</ele>
      </trkpt>
      <trkpt lat="47.275148" lon="11.509966">
        <ele>602.5</ele>
      </trkpt>
      <trkpt lat="47.275281" lon="11.509897">
        <ele>597.5</ele>
      </trkpt>
      <trkpt lat="47.275281" lon="11.509897">
        <ele>597.5</ele>
      </trkpt>
      <trkpt lat="47.275497" lon="11.509704">
        <ele>589.25</ele>
      </trkpt>
      <trkpt lat="47.275491" lon="11.509773">
        <ele>589.25</ele>
      </trkpt>
      <trkpt lat="47.275475" lon="11.509984">
        <ele>590.25</ele>
      </trkpt>
      <trkpt lat="47.275512" lon="11.510228">
        <ele>588</ele>
      </trkpt>
      <trkpt lat="47.275627" lon="11.509999">
        <ele>584.5</ele>
      </trkpt>
      <trkpt lat="47.275683" lon="11.510087">
        <ele>582</ele>
      </trkpt>
      <trkpt lat="47.275732" lon="11.510532">
        <ele>577.75</ele>
      </trkpt>
      <trkpt lat="47.275968" lon="11.509919">
        <ele>574</ele>
      </trkpt>
      <trkpt lat="47.276087" lon="11.509591">
        <ele>571.25</ele>
      </trkpt>
      <trkpt lat="47.276099" lon="11.509547">
        <ele>570.75</ele>
      </trkpt>
      <trkpt lat="47.276164" lon="11.509325">
        <ele>569.5</ele>
      </trkpt>
      <trkpt lat="47.276216" lon="11.50904">
        <ele>568.25</ele>
      </trkpt>
      <trkpt lat="47.276233" lon="11.508808">
        <ele>567</ele>
      </trkpt>
      <trkpt lat="47.276233" lon="11.508669">
        <ele>566.75</ele>
      </trkpt>
      <trkpt lat="47.276282" lon="11.50867">
        <ele>565.75</ele>
      </trkpt>
      <trkpt lat="47.276342" lon="11.508719">
        <ele>564.75</ele>
      </trkpt>
      <trkpt lat="47.276378" lon="11.508701">
        <ele>564</ele>
      </trkpt>
      <trkpt lat="47.277203" lon="11.508454">
        <ele>561</ele>
      </trkpt>
      <trkpt lat="47.277262" lon="11.508429">
        <ele>561.25</ele>
      </trkpt>
      <trkpt lat="47.277244" lon="11.508402">
        <ele>561.25</ele>
      </trkpt>
      <trkpt lat="47.277243" lon="11.508401">
        <ele>561.25</ele>
      </trkpt>
      <trkpt lat="47.277262" lon="11.508429">
        <ele>561.25</ele>
      </trkpt>
      <trkpt lat="47.27751" lon="11.508328">
        <ele>562.75</ele>
      </trkpt>
      <trkpt lat="47.27777" lon="11.508197">
        <ele>562</ele>
      </trkpt>
      <trkpt lat="47.27778" lon="11.508271">
        <ele>562.25</ele>
      </trkpt>
      <trkpt lat="47.277822" lon="11.50826">
        <ele>562</ele>
      </trkpt>
      <trkpt lat="47.277872" lon="11.508628">
        <ele>561.25</ele>
      </trkpt>
      <trkpt lat="47.278036" lon="11.508567">
        <ele>561</ele>
      </trkpt>
      <trkpt lat="47.278241" lon="11.50848">
        <ele>560.75</ele>
      </trkpt>
      <trkpt lat="47.27806" lon="11.508016">
        <ele>561.5</ele>
      </trkpt>
      <trkpt lat="47.278028" lon="11.507991">
        <ele>561.5</ele>
      </trkpt>
      <trkpt lat="47.277998" lon="11.507889">
        <ele>561.5</ele>
      </trkpt>
      <trkpt lat="47.277954" lon="11.507611">
        <ele>561.5</ele>
      </trkpt>
      <trkpt lat="47.277947" lon="11.507513">
        <ele>561.5</ele>
      </trkpt>
      <trkpt lat="47.277997" lon="11.507387">
        <ele>561.75</ele>
      </trkpt>
      <trkpt lat="47.27787" lon="11.506926">
        <ele>562.25</ele>
      </trkpt>
      <trkpt lat="47.277752" lon="11.506211">
        <ele>562.75</ele>
      </trkpt>
      <trkpt lat="47.277751" lon="11.50615">
        <ele>562.75</ele>
      </trkpt>
      <trkpt lat="47.27787" lon="11.505431">
        <ele>562.25</ele>
      </trkpt>
      <trkpt lat="47.277871" lon="11.505208">
        <ele>561.75</ele>
      </trkpt>
      <trkpt lat="47.277894" lon="11.505232">
        <ele>561.75</ele>
      </trkpt>
      <trkpt lat="47.277893" lon="11.505231">
        <ele>561.75</ele>
      </trkpt>
      <trkpt lat="47.277871" lon="11.505208">
        <ele>561.75</ele>
      </trkpt>
      <trkpt lat="47.277865" lon="11.504933">
        <ele>561.5</ele>
      </trkpt>
      <trkpt lat="47.277852" lon="11.504241">
        <ele>561</ele>
      </trkpt>
      <trkpt lat="47.277844" lon="11.503507">
        <ele>559.25</ele>
      </trkpt>
      <trkpt lat="47.277805" lon="11.503496">
        <ele>559.25</ele>
      </trkpt>
      <trkpt lat="47.277762" lon="11.50345">
        <ele>559.25</ele>
      </trkpt>
      <trkpt lat="47.27773" lon="11.503373">
        <ele>559</ele>
      </trkpt>
      <trkpt lat="47.277514" lon="11.501833">
        <ele>562.5</ele>
      </trkpt>
      <trkpt lat="47.277486" lon="11.501625">
        <ele>562.75</ele>
      </trkpt>
      <trkpt lat="47.277477" lon="11.501561">
        <ele>562.25</ele>
      </trkpt>
    </trkseg>
  </trk>
  <trk>
    <trkseg>
      <trkpt lat="47.308279" lon="11.523426">
        <ele>779.75</ele>
      </trkpt>
      <trkpt lat="47.308297" lon="11.523452">
        <ele>780</ele>
      </trkpt>
      <trkpt lat="47.308428" lon="11.523615">
        <ele>781</ele>
      </trkpt>
      <trkpt lat="47.308637" lon="11.52386">
        <ele>782.25</ele>
      </trkpt>
      <trkpt lat="47.309129" lon="11.524397">
        <ele>783.5</ele>
      </trkpt>
      <trkpt lat="47.309255" lon="11.524521">
        <ele>784</ele>
      </trkpt>
      <trkpt lat="47.30947" lon="11.524672">
        <ele>785.25</ele>
      </trkpt>
      <trkpt lat="47.309644" lon="11.524831">
        <ele>786.25</ele>
      </trkpt>
      <trkpt lat="47.309803" lon="11.525023">
        <ele>787.25</ele>
      </trkpt>
      <trkpt lat="47.31027" lon="11.525704">
        <ele>790</ele>
      </trkpt>
      <trkpt lat="47.310658" lon="11.526316">
        <ele>790.75</ele>
      </trkpt>
      <trkpt lat="47.310781" lon="11.526535">
        <ele>790.25</ele>
      </trkpt>
      <trkpt lat="47.310891" lon="11.526782">
        <ele>790.5</ele>
      </trkpt>
      <trkpt lat="47.310934" lon="11.526962">
        <ele>791</ele>
      </trkpt>
      <trkpt lat="47.31097" lon="11.527225">
        <ele>791.5</ele>
      </trkpt>
      <trkpt lat="47.310996" lon="11.527586">
        <ele>793.25</ele>
      </trkpt>
      <trkpt lat="47.311011" lon="11.527906">
        <ele>798.75</ele>
      </trkpt>
      <trkpt lat="47.311007" lon="11.52834">
        <ele>805.75</ele>
      </trkpt>
      <trkpt lat="47.311047" lon="11.528675">
        <ele>808.25</ele>
      </trkpt>
      <trkpt lat="47.311129" lon="11.528934">
        <ele>811</ele>
      </trkpt>
      <trkpt lat="47.311233" lon="11.529196">
        <ele>813.5</ele>
      </trkpt>
      <trkpt lat="47.311452" lon="11.529584">
        <ele>812.75</ele>
      </trkpt>
      <trkpt lat="47.311647" lon="11.52993">
        <ele>812.25</ele>
      </trkpt>
      <trkpt lat="47.311704" lon="11.530118">
        <ele>812.5</ele>
      </trkpt>
      <trkpt lat="47.311751" lon="11.530355">
        <ele>813.25</ele>
      </trkpt>
      <trkpt lat="47.311779" lon="11.530802">
        <ele>812.75</ele>
      </trkpt>
      <trkpt lat="47.311793" lon="11.531679">
        <ele>815.75</ele>
      </trkpt>
      <trkpt lat="47.311856" lon="11.532132">
        <ele>816.5</ele>
      </trkpt>
      <trkpt lat="47.311898" lon="11.532321">
        <ele>817</ele>
      </trkpt>
      <trkpt lat="47.312073" lon="11.533104">
        <ele>818.5</ele>
      </trkpt>
      <trkpt lat="47.312168" lon="11.533401">
        <ele>819.25</ele>
      </trkpt>
      <trkpt lat="47.31226" lon="11.533572">
        <ele>819.75</ele>
      </trkpt>
      <trkpt lat="47.312291" lon="11.53363">
        <ele>820</ele>
      </trkpt>
      <trkpt lat="47.312736" lon="11.53414">
        <ele>824</ele>
      </trkpt>
      <trkpt lat="47.3129" lon="11.534466">
        <ele>824.25</ele>
      </trkpt>
      <trkpt lat="47.313144" lon="11.535296">
        <ele>823.5</ele>
      </trkpt>
      <trkpt lat="47.313293" lon="11.535669">
        <ele>824.75</ele>
      </trkpt>
      <trkpt lat="47.313408" lon="11.535897">
        <ele>826</ele>
      </trkpt>
      <trkpt lat="47.313784" lon="11.536511">
        <ele>831</ele>
      </trkpt>
      <trkpt lat="47.313927" lon="11.536787">
        <ele>833</ele>
      </trkpt>
      <trkpt lat="47.31401" lon="11.536975">
        <ele>834.5</ele>
      </trkpt>
      <trkpt lat="47.31409" lon="11.537196">
        <ele>835.5</ele>
      </trkpt>
      <trkpt lat="47.314154" lon="11.537419">
        <ele>835.75</ele>
      </trkpt>
      <trkpt lat="47.314206" lon="11.53765">
        <ele>836</ele>
      </trkpt>
      <trkpt lat="47.314244" lon="11.537814">
        <ele>836.25</ele>
      </trkpt>
      <trkpt lat="47.314361" lon="11.538358">
        <ele>837</ele>
      </trkpt>
      <trkpt lat="47.31464" lon="11.539727">
        <ele>847.25</ele>
      </trkpt>
      <trkpt lat="47.314675" lon="11.539928">
        <ele>848</ele>
      </trkpt>
      <trkpt lat="47.314748" lon="11.540525">
        <ele>847</ele>
      </trkpt>
      <trkpt lat="47.31476" lon="11.540603">
        <ele>846.75</ele>
      </trkpt>
      <trkpt lat="47.314782" lon="11.540691">
        <ele>846.75</ele>
      </trkpt>
      <trkpt lat="47.314851" lon="11.540935">
        <ele>846.5</ele>
      </trkpt>
      <trkpt lat="47.315101" lon="11.541699">
        <ele>846.75</ele>
      </trkpt>
      <trkpt lat="47.315258" lon="11.542134">
        <ele>847.75</ele>
      </trkpt>
      <trkpt lat="47.315449" lon="11.542566">
        <ele>849.25</ele>
      </trkpt>
      <trkpt lat="47.315559" lon="11.542841">
        <ele>850.75</ele>
      </trkpt>
      <trkpt lat="47.315596" lon="11.542958">
        <ele>851</ele>
      </trkpt>
      <trkpt lat="47.31589" lon="11.544214">
        <ele>849.5</ele>
      </trkpt>
      <trkpt lat="47.315999" lon="11.544639">
        <ele>852.25</ele>
      </trkpt>
      <trkpt lat="47.316037" lon="11.544776">
        <ele>853.25</ele>
      </trkpt>
      <trkpt lat="47.316114" lon="11.545028">
        <ele>855</ele>
      </trkpt>
      <trkpt lat="47.316312" lon="11.545618">
        <ele>857.75</ele>
      </trkpt>
      <trkpt lat="47.316532" lon="11.546276">
        <ele>858.5</ele>
      </trkpt>
      <trkpt lat="47.316614" lon="11.546548">
        <ele>858</ele>
      </trkpt>
      <trkpt lat="47.316665" lon="11.5465">
        <ele>858.75</ele>
      </trkpt>
      <trkpt lat="47.316704" lon="11.546142">
        <ele>861.75</ele>
      </trkpt>
      <trkpt lat="47.316717" lon="11.545536">
        <ele>866</ele>
      </trkpt>
      <trkpt lat="47.316692" lon="11.544345">
        <ele>871.5</ele>
      </trkpt>
      <trkpt lat="47.316735" lon="11.544135">
        <ele>873</ele>
      </trkpt>
      <trkpt lat="47.316794" lon="11.543878">
        <ele>874.75</ele>
      </trkpt>
      <trkpt lat="47.317007" lon="11.543659">
        <ele>879</ele>
      </trkpt>
      <trkpt lat="47.317196" lon="11.543627">
        <ele>882.25</ele>
      </trkpt>
      <trkpt lat="47.317298" lon="11.543734">
        <ele>883.25</ele>
      </trkpt>
      <trkpt lat="47.317472" lon="11.543756">
        <ele>886</ele>
      </trkpt>
      <trkpt lat="47.317553" lon="11.543515">
        <ele>888</ele>
      </trkpt>
      <trkpt lat="47.317768" lon="11.5436">
        <ele>888.75</ele>
      </trkpt>
      <trkpt lat="47.317858" lon="11.543608">
        <ele>889.25</ele>
      </trkpt>
      <trkpt lat="47.317963" lon="11.543632">
        <ele>890</ele>
      </trkpt>
      <trkpt lat="47.318076" lon="11.543707">
        <ele>890.5</ele>
      </trkpt>
      <trkpt lat="47.318218" lon="11.543831">
        <ele>891.5</ele>
      </trkpt>
      <trkpt lat="47.318381" lon="11.544147">
        <ele>893.5</ele>
      </trkpt>
      <trkpt lat="47.318458" lon="11.544206">
        <ele>894.75</ele>
      </trkpt>
      <trkpt lat="47.318557" lon="11.544166">
        <ele>896</ele>
      </trkpt>
      <trkpt lat="47.318805" lon="11.544127">
        <ele>899.5</ele>
      </trkpt>
      <trkpt lat="47.319053" lon="11.543945">
        <ele>902</ele>
      </trkpt>
      <trkpt lat="47.319444" lon="11.543501">
        <ele>904.5</ele>
      </trkpt>
      <trkpt lat="47.319636" lon="11.543351">
        <ele>906.25</ele>
      </trkpt>
      <trkpt lat="47.319812" lon="11.543269">
        <ele>908</ele>
      </trkpt>
      <trkpt lat="47.320028" lon="11.543186">
        <ele>910.5</ele>
      </trkpt>
      <trkpt lat="47.320208" lon="11.543088">
        <ele>911.75</ele>
      </trkpt>
      <trkpt lat="47.320419" lon="11.542917">
        <ele>913</ele>
      </trkpt>
      <trkpt lat="47.320419" lon="11.542917">
        <ele>913</ele>
      </trkpt>
      <trkpt lat="47.320435" lon="11.542905">
        <ele>913.25</ele>
      </trkpt>
      <trkpt lat="47.320631" lon="11.542677">
        <ele>914</ele>
      </trkpt>
      <trkpt lat="47.320828" lon="11.543055">
        <ele>918.25</ele>
      </trkpt>
      <trkpt lat="47.320855" lon="11.54321">
        <ele>919.25</ele>
      </trkpt>
      <trkpt lat="47.32077" lon="11.543482">
        <ele>920</ele>
      </trkpt>
      <trkpt lat="47.320732" lon="11.543728">
        <ele>920.75</ele>
      </trkpt>
      <trkpt lat="47.320755" lon="11.543966">
        <ele>922</ele>
      </trkpt>
      <trkpt lat="47.320808" lon="11.544113">
        <ele>923.25</ele>
      </trkpt>
      <trkpt lat="47.320808" lon="11.544277">
        <ele>924.5</ele>
      </trkpt>
      <trkpt lat="47.320749" lon="11.544488">
        <ele>925.25</ele>
      </trkpt>
      <trkpt lat="47.320708" lon="11.54467">
        <ele>925.75</ele>
      </trkpt>
      <trkpt lat="47.320698" lon="11.544857">
        <ele>927</ele>
      </trkpt>
      <trkpt lat="47.320716" lon="11.545238">
        <ele>930.25</ele>
      </trkpt>
      <trkpt lat="47.320722" lon="11.545278">
        <ele>931</ele>
      </trkpt>
      <trkpt lat="47.320725" lon="11.545299">
        <ele>931</ele>
      </trkpt>
      <trkpt lat="47.320764" lon="11.545334">
        <ele>932</ele>
      </trkpt>
      <trkpt lat="47.320834" lon="11.545305">
        <ele>932.75</ele>
      </trkpt>
      <trkpt lat="47.320948" lon="11.545084">
        <ele>932.25</ele>
      </trkpt>
      <trkpt lat="47.321062" lon="11.544998">
        <ele>932.75</ele>
      </trkpt>
      <trkpt lat="47.321419" lon="11.544963">
        <ele>937.25</ele>
      </trkpt>
      <trkpt lat="47.321724" lon="11.544812">
        <ele>940.5</ele>
      </trkpt>
      <trkpt lat="47.321943" lon="11.544592">
        <ele>941.75</ele>
      </trkpt>
      <trkpt lat="47.322063" lon="11.544605">
        <ele>943.5</ele>
      </trkpt>
      <trkpt lat="47.322385" lon="11.544907">
        <ele>952.5</ele>
      </trkpt>
      <trkpt lat="47.32247" lon="11.544937">
        <ele>954.25</ele>
      </trkpt>
      <trkpt lat="47.322704" lon="11.54486">
        <ele>957.75</ele>
      </trkpt>
      <trkpt lat="47.322912" lon="11.544907">
        <ele>962.5</ele>
      </trkpt>
      <trkpt lat="47.323123" lon="11.545132">
        <ele>969</ele>
      </trkpt>
      <trkpt lat="47.323261" lon="11.545127">
        <ele>971.5</ele>
      </trkpt>
      <trkpt lat="47.32334" lon="11.544942">
        <ele>971.5</ele>
      </trkpt>
      <trkpt lat="47.323498" lon="11.544756">
        <ele>973.75</ele>
      </trkpt>
      <trkpt lat="47.323943" lon="11.544255">
        <ele>984.5</ele>
      </trkpt>
      <trkpt lat="47.324024" lon="11.544255">
        <ele>987</ele>
      </trkpt>
      <trkpt lat="47.324024" lon="11.544367">
        <ele>987</ele>
      </trkpt>
      <trkpt lat="47.323953" lon="11.544477">
        <ele>985</ele>
      </trkpt>
      <trkpt lat="47.323921" lon="11.544639">
        <ele>984.25</ele>
      </trkpt>
      <trkpt lat="47.323853" lon="11.544994">
        <ele>983</ele>
      </trkpt>
      <trkpt lat="47.323645" lon="11.54532">
        <ele>980.75</ele>
      </trkpt>
      <trkpt lat="47.323538" lon="11.545858">
        <ele>982.75</ele>
      </trkpt>
      <trkpt lat="47.323131" lon="11.546923">
        <ele>985.5</ele>
      </trkpt>
      <trkpt lat="47.323121" lon="11.547012">
        <ele>986</ele>
      </trkpt>
      <trkpt lat="47.323076" lon="11.547344">
        <ele>987.25</ele>
      </trkpt>
      <trkpt lat="47.323036" lon="11.547476">
        <ele>987.25</ele>
      </trkpt>
      <trkpt lat="47.322967" lon="11.547619">
        <ele>986</ele>
      </trkpt>
      <trkpt lat="47.322962" lon="11.54774">
        <ele>985.75</ele>
      </trkpt>
      <trkpt lat="47.322968" lon="11.547792">
        <ele>986</ele>
      </trkpt>
      <trkpt lat="47.322914" lon="11.547835">
        <ele>984.75</ele>
      </trkpt>
      <trkpt lat="47.32288" lon="11.547838">
        <ele>984</ele>
      </trkpt>
      <trkpt lat="47.322839" lon="11.54782">
        <ele>983.25</ele>
      </trkpt>
      <trkpt lat="47.322758" lon="11.547761">
        <ele>981.5</ele>
      </trkpt>
      <trkpt lat="47.322574" lon="11.547706">
        <ele>977.75</ele>
      </trkpt>
      <trkpt lat="47.322478" lon="11.547664">
        <ele>975.75</ele>
      </trkpt>
      <trkpt lat="47.322399" lon="11.547641">
        <ele>974.25</ele>
      </trkpt>
      <trkpt lat="47.322239" lon="11.547551">
        <ele>971.5</ele>
      </trkpt>
      <trkpt lat="47.322146" lon="11.547519">
        <ele>970</ele>
      </trkpt>
      <trkpt lat="47.322092" lon="11.547599">
        <ele>968.5</ele>
      </trkpt>
      <trkpt lat="47.321861" lon="11.547946">
        <ele>963.25</ele>
      </trkpt>
      <trkpt lat="47.320925" lon="11.548144">
        <ele>943.5</ele>
      </trkpt>
      <trkpt lat="47.320466" lon="11.548562">
        <ele>930.5</ele>
      </trkpt>
      <trkpt lat="47.319593" lon="11.548658">
        <ele>913.5</ele>
      </trkpt>
      <trkpt lat="47.319332" lon="11.548396">
        <ele>909.5</ele>
      </trkpt>
      <trkpt lat="47.319112" lon="11.548346">
        <ele>905.75</ele>
      </trkpt>
      <trkpt lat="47.319044" lon="11.548331">
        <ele>904.75</ele>
      </trkpt>
      <trkpt lat="47.319032" lon="11.548021">
        <ele>903.75</ele>
      </trkpt>
      <trkpt lat="47.318857" lon="11.547728">
        <ele>899.75</ele>
      </trkpt>
      <trkpt lat="47.31872" lon="11.547745">
        <ele>897.5</ele>
      </trkpt>
      <trkpt lat="47.318709" lon="11.547951">
        <ele>897.75</ele>
      </trkpt>
      <trkpt lat="47.318773" lon="11.548457">
        <ele>899.75</ele>
      </trkpt>
      <trkpt lat="47.318749" lon="11.548758">
        <ele>899.5</ele>
      </trkpt>
      <trkpt lat="47.318813" lon="11.54905">
        <ele>900.75</ele>
      </trkpt>
      <trkpt lat="47.318848" lon="11.549099">
        <ele>901</ele>
      </trkpt>
      <trkpt lat="47.319052" lon="11.549384">
        <ele>903.75</ele>
      </trkpt>
      <trkpt lat="47.31911" lon="11.549865">
        <ele>903.25</ele>
      </trkpt>
      <trkpt lat="47.31925" lon="11.550062">
        <ele>904.25</ele>
      </trkpt>
      <trkpt lat="47.319286" lon="11.550226">
        <ele>903</ele>
      </trkpt>
      <trkpt lat="47.31932" lon="11.55038">
        <ele>902</ele>
      </trkpt>
      <trkpt lat="47.319361" lon="11.550425">
        <ele>902</ele>
      </trkpt>
      <trkpt lat="47.319454" lon="11.550434">
        <ele>903.25</ele>
      </trkpt>
      <trkpt lat="47.319581" lon="11.550375">
        <ele>905.75</ele>
      </trkpt>
      <trkpt lat="47.319619" lon="11.550405">
        <ele>906</ele>
      </trkpt>
      <trkpt lat="47.319656" lon="11.550564">
        <ele>905.25</ele>
      </trkpt>
      <trkpt lat="47.319627" lon="11.550688">
        <ele>903.75</ele>
      </trkpt>
      <trkpt lat="47.319522" lon="11.550924">
        <ele>900.5</ele>
      </trkpt>
      <trkpt lat="47.319538" lon="11.550998">
        <ele>900.5</ele>
      </trkpt>
      <trkpt lat="47.319604" lon="11.551074">
        <ele>901</ele>
      </trkpt>
      <trkpt lat="47.319739" lon="11.551195">
        <ele>902.25</ele>
      </trkpt>
      <trkpt lat="47.319881" lon="11.551238">
        <ele>904</ele>
      </trkpt>
      <trkpt lat="47.31995" lon="11.551215">
        <ele>905</ele>
      </trkpt>
      <trkpt lat="47.32001" lon="11.551155">
        <ele>906.25</ele>
      </trkpt>
      <trkpt lat="47.320235" lon="11.55108">
        <ele>910.5</ele>
      </trkpt>
      <trkpt lat="47.320286" lon="11.551071">
        <ele>911.5</ele>
      </trkpt>
      <trkpt lat="47.32034" lon="11.551078">
        <ele>912.25</ele>
      </trkpt>
      <trkpt lat="47.320352" lon="11.551094">
        <ele>912.25</ele>
      </trkpt>
      <trkpt lat="47.320365" lon="11.551138">
        <ele>912</ele>
      </trkpt>
      <trkpt lat="47.320433" lon="11.551142">
        <ele>913</ele>
      </trkpt>
      <trkpt lat="47.320595" lon="11.551257">
        <ele>914.25</ele>
      </trkpt>
      <trkpt lat="47.320872" lon="11.551422">
        <ele>917</ele>
      </trkpt>
      <trkpt lat="47.320941" lon="11.551478">
        <ele>918.25</ele>
      </trkpt>
      <trkpt lat="47.321022" lon="11.551603">
        <ele>919.25</ele>
      </trkpt>
      <trkpt lat="47.321243" lon="11.552019">
        <ele>923.5</ele>
      </trkpt>
      <trkpt lat="47.321264" lon="11.552054">
        <ele>924</ele>
      </trkpt>
      <trkpt lat="47.3213" lon="11.552111">
        <ele>924.75</ele>
      </trkpt>
      <trkpt lat="47.321319" lon="11.552141">
        <ele>925.25</ele>
      </trkpt>
      <trkpt lat="47.321359" lon="11.552281">
        <ele>926</ele>
      </trkpt>
      <trkpt lat="47.321415" lon="11.552521">
        <ele>926.5</ele>
      </trkpt>
      <trkpt lat="47.321816" lon="11.553309">
        <ele>935.25</ele>
      </trkpt>
      <trkpt lat="47.322013" lon="11.553546">
        <ele>940</ele>
      </trkpt>
      <trkpt lat="47.322143" lon="11.553777">
        <ele>942</ele>
      </trkpt>
      <trkpt lat="47.322765" lon="11.55453">
        <ele>953</ele>
      </trkpt>
      <trkpt lat="47.323045" lon="11.554748">
        <ele>960.5</ele>
      </trkpt>
      <trkpt lat="47.323287" lon="11.554851">
        <ele>967.5</ele>
      </trkpt>
      <trkpt lat="47.323377" lon="11.554951">
        <ele>970</ele>
      </trkpt>
      <trkpt lat="47.323497" lon="11.555139">
        <ele>973</ele>
      </trkpt>
      <trkpt lat="47.323514" lon="11.555166">
        <ele>973.5</ele>
      </trkpt>
      <trkpt lat="47.323564" lon="11.555172">
        <ele>975.5</ele>
      </trkpt>
      <trkpt lat="47.323602" lon="11.555126">
        <ele>977.25</ele>
      </trkpt>
      <trkpt lat="47.323606" lon="11.555071">
        <ele>977.75</ele>
      </trkpt>
      <trkpt lat="47.323488" lon="11.554777">
        <ele>975.25</ele>
      </trkpt>
      <trkpt lat="47.323241" lon="11.554015">
        <ele>974</ele>
      </trkpt>
      <trkpt lat="47.323068" lon="11.553122">
        <ele>980.75</ele>
      </trkpt>
      <trkpt lat="47.322858" lon="11.552589">
        <ele>980.25</ele>
      </trkpt>
      <trkpt lat="47.322844" lon="11.552444">
        <ele>981</ele>
      </trkpt>
      <trkpt lat="47.32291" lon="11.551664">
        <ele>986</ele>
      </trkpt>
      <trkpt lat="47.322991" lon="11.551318">
        <ele>992.5</ele>
      </trkpt>
      <trkpt lat="47.322963" lon="11.550946">
        <ele>994.75</ele>
      </trkpt>
      <trkpt lat="47.323006" lon="11.550436">
        <ele>1001.5</ele>
      </trkpt>
      <trkpt lat="47.322991" lon="11.550169">
        <ele>1003.5</ele>
      </trkpt>
      <trkpt lat="47.323097" lon="11.549297">
        <ele>1005.25</ele>
      </trkpt>
      <trkpt lat="47.323102" lon="11.549077">
        <ele>1003</ele>
      </trkpt>
      <trkpt lat="47.323132" lon="11.549031">
        <ele>1003</ele>
      </trkpt>
      <trkpt lat="47.323181" lon="11.54902">
        <ele>1004</ele>
      </trkpt>
      <trkpt lat="47.32324" lon="11.549048">
        <ele>1006.5</ele>
      </trkpt>
      <trkpt lat="47.323274" lon="11.549096">
        <ele>1008.5</ele>
      </trkpt>
      <trkpt lat="47.323417" lon="11.549743">
        <ele>1018.75</ele>
      </trkpt>
      <trkpt lat="47.323485" lon="11.549924">
        <ele>1020.25</ele>
      </trkpt>
      <trkpt lat="47.323686" lon="11.550455">
        <ele>1025.5</ele>
      </trkpt>
      <trkpt lat="47.323786" lon="11.550669">
        <ele>1028</ele>
      </trkpt>
      <trkpt lat="47.323846" lon="11.551075">
        <ele>1027.25</ele>
      </trkpt>
      <trkpt lat="47.32391" lon="11.551226">
        <ele>1028.25</ele>
      </trkpt>
      <trkpt lat="47.324066" lon="11.551366">
        <ele>1032.5</ele>
      </trkpt>
      <trkpt lat="47.324115" lon="11.551421">
        <ele>1033.75</ele>
      </trkpt>
      <trkpt lat="47.324271" lon="11.551821">
        <ele>1034.5</ele>
      </trkpt>
      <trkpt lat="47.324331" lon="11.551938">
        <ele>1035.25</ele>
      </trkpt>
      <trkpt lat="47.32467" lon="11.552227">
        <ele>1043</ele>
      </trkpt>
      <trkpt lat="47.324757" lon="11.552419">
        <ele>1043.75</ele>
      </trkpt>
      <trkpt lat="47.324937" lon="11.552539">
        <ele>1048.25</ele>
      </trkpt>
      <trkpt lat="47.325028" lon="11.552646">
        <ele>1050.5</ele>
      </trkpt>
      <trkpt lat="47.325079" lon="11.552904">
        <ele>1050.25</ele>
      </trkpt>
      <trkpt lat="47.325177" lon="11.553115">
        <ele>1053.25</ele>
      </trkpt>
      <trkpt lat="47.325231" lon="11.553254">
        <ele>1054.75</ele>
      </trkpt>
      <trkpt lat="47.325288" lon="11.55325">
        <ele>1057.75</ele>
      </trkpt>
      <trkpt lat="47.325308" lon="11.553111">
        <ele>1059.75</ele>
      </trkpt>
      <trkpt lat="47.32528" lon="11.552838">
        <ele>1060.5</ele>
      </trkpt>
      <trkpt lat="47.32533" lon="11.552295">
        <ele>1067</ele>
      </trkpt>
      <trkpt lat="47.325339" lon="11.552202">
        <ele>1068.25</ele>
      </trkpt>
      <trkpt lat="47.325256" lon="11.551906">
        <ele>1067.5</ele>
      </trkpt>
      <trkpt lat="47.325248" lon="11.551705">
        <ele>1069.25</ele>
      </trkpt>
      <trkpt lat="47.325346" lon="11.551298">
        <ele>1072.5</ele>
      </trkpt>
      <trkpt lat="47.325355" lon="11.551114">
        <ele>1072.25</ele>
      </trkpt>
      <trkpt lat="47.325323" lon="11.550924">
        <ele>1071.75</ele>
      </trkpt>
      <trkpt lat="47.325344" lon="11.550872">
        <ele>1071.75</ele>
      </trkpt>
      <trkpt lat="47.325408" lon="11.550839">
        <ele>1072.25</ele>
      </trkpt>
      <trkpt lat="47.325747" lon="11.551044">
        <ele>1078</ele>
      </trkpt>
      <trkpt lat="47.325963" lon="11.551047">
        <ele>1082.75</ele>
      </trkpt>
      <trkpt lat="47.326064" lon="11.55106">
        <ele>1085.75</ele>
      </trkpt>
      <trkpt lat="47.326236" lon="11.551185">
        <ele>1092.75</ele>
      </trkpt>
      <trkpt lat="47.326364" lon="11.551239">
        <ele>1097.25</ele>
      </trkpt>
      <trkpt lat="47.326671" lon="11.551261">
        <ele>1106.25</ele>
      </trkpt>
      <trkpt lat="47.326848" lon="11.551214">
        <ele>1112.25</ele>
      </trkpt>
      <trkpt lat="47.326946" lon="11.551154">
        <ele>1114.5</ele>
      </trkpt>
      <trkpt lat="47.327036" lon="11.551009">
        <ele>1113.75</ele>
      </trkpt>
      <trkpt lat="47.327189" lon="11.550638">
        <ele>1115.25</ele>
      </trkpt>
      <trkpt lat="47.327251" lon="11.550575">
        <ele>1117.75</ele>
      </trkpt>
      <trkpt lat="47.327304" lon="11.550584">
        <ele>1119.75</ele>
      </trkpt>
      <trkpt lat="47.327409" lon="11.550387">
        <ele>1124.75</ele>
      </trkpt>
      <trkpt lat="47.327584" lon="11.550219">
        <ele>1132.75</ele>
      </trkpt>
      <trkpt lat="47.327606" lon="11.550199">
        <ele>1133.75</ele>
      </trkpt>
      <trkpt lat="47.327637" lon="11.550116">
        <ele>1135.25</ele>
      </trkpt>
      <trkpt lat="47.327593" lon="11.550037">
        <ele>1134</ele>
      </trkpt>
      <trkpt lat="47.327425" lon="11.55">
        <ele>1128</ele>
      </trkpt>
      <trkpt lat="47.327301" lon="11.549887">
        <ele>1127.75</ele>
      </trkpt>
      <trkpt lat="47.327189" lon="11.549769">
        <ele>1128</ele>
      </trkpt>
      <trkpt lat="47.327139" lon="11.54959">
        <ele>1132.75</ele>
      </trkpt>
      <trkpt lat="47.327131" lon="11.549359">
        <ele>1141</ele>
      </trkpt>
      <trkpt lat="47.32706" lon="11.549181">
        <ele>1144.25</ele>
      </trkpt>
      <trkpt lat="47.326922" lon="11.548982">
        <ele>1143.5</ele>
      </trkpt>
      <trkpt lat="47.326771" lon="11.548854">
        <ele>1139.25</ele>
      </trkpt>
      <trkpt lat="47.326685" lon="11.548732">
        <ele>1137.75</ele>
      </trkpt>
      <trkpt lat="47.32661" lon="11.548568">
        <ele>1137.5</ele>
      </trkpt>
      <trkpt lat="47.326481" lon="11.548496">
        <ele>1131.75</ele>
      </trkpt>
      <trkpt lat="47.326451" lon="11.548557">
        <ele>1128.75</ele>
      </trkpt>
      <trkpt lat="47.326393" lon="11.548506">
        <ele>1126.75</ele>
      </trkpt>
      <trkpt lat="47.326337" lon="11.548581">
        <ele>1122</ele>
      </trkpt>
      <trkpt lat="47.326275" lon="11.548541">
        <ele>1119.5</ele>
      </trkpt>
      <trkpt lat="47.326241" lon="11.548648">
        <ele>1115.5</ele>
      </trkpt>
      <trkpt lat="47.326164" lon="11.548606">
        <ele>1112</ele>
      </trkpt>
      <trkpt lat="47.326096" lon="11.54864">
        <ele>1107.75</ele>
      </trkpt>
      <trkpt lat="47.325973" lon="11.548465">
        <ele>1103.75</ele>
      </trkpt>
      <trkpt lat="47.325907" lon="11.548501">
        <ele>1099.5</ele>
      </trkpt>
      <trkpt lat="47.325775" lon="11.548453">
        <ele>1093</ele>
      </trkpt>
      <trkpt lat="47.325697" lon="11.548387">
        <ele>1090</ele>
      </trkpt>
      <trkpt lat="47.325456" lon="11.548272">
        <ele>1078.25</ele>
      </trkpt>
      <trkpt lat="47.32541" lon="11.548204">
        <ele>1076.25</ele>
      </trkpt>
      <trkpt lat="47.325372" lon="11.5481">
        <ele>1074.75</ele>
      </trkpt>
      <trkpt lat="47.3253" lon="11.548031">
        <ele>1071.5</ele>
      </trkpt>
      <trkpt lat="47.325256" lon="11.54809">
        <ele>1068.75</ele>
      </trkpt>
      <trkpt lat="47.325214" lon="11.548117">
        <ele>1066.5</ele>
      </trkpt>
      <trkpt lat="47.325106" lon="11.548142">
        <ele>1060.5</ele>
      </trkpt>
      <trkpt lat="47.325083" lon="11.548148">
        <ele>1059.5</ele>
      </trkpt>
      <trkpt lat="47.325031" lon="11.548086">
        <ele>1057.25</ele>
      </trkpt>
      <trkpt lat="47.324937" lon="11.548133">
        <ele>1052.5</ele>
      </trkpt>
      <trkpt lat="47.324869" lon="11.548032">
        <ele>1050.25</ele>
      </trkpt>
      <trkpt lat="47.324809" lon="11.548104">
        <ele>1047.25</ele>
      </trkpt>
      <trkpt lat="47.324753" lon="11.548032">
        <ele>1045.25</ele>
      </trkpt>
      <trkpt lat="47.324714" lon="11.54808">
        <ele>1043.25</ele>
      </trkpt>
      <trkpt lat="47.324663" lon="11.548077">
        <ele>1041</ele>
      </trkpt>
      <trkpt lat="47.324636" lon="11.548">
        <ele>1040.25</ele>
      </trkpt>
      <trkpt lat="47.324578" lon="11.547996">
        <ele>1037.75</ele>
      </trkpt>
      <trkpt lat="47.324518" lon="11.547972">
        <ele>1035.5</ele>
      </trkpt>
      <trkpt lat="47.324485" lon="11.547932">
        <ele>1034.25</ele>
      </trkpt>
      <trkpt lat="47.324424" lon="11.547771">
        <ele>1032.5</ele>
      </trkpt>
      <trkpt lat="47.324392" lon="11.547637">
        <ele>1032</ele>
      </trkpt>
      <trkpt lat="47.324369" lon="11.547583">
        <ele>1031.25</ele>
      </trkpt>
      <trkpt lat="47.324332" lon="11.547545">
        <ele>1030</ele>
      </trkpt>
      <trkpt lat="47.32418" lon="11.547594">
        <ele>1023</ele>
      </trkpt>
      <trkpt lat="47.324132" lon="11.547591">
        <ele>1021.25</ele>
      </trkpt>
      <trkpt lat="47.324065" lon="11.547642">
        <ele>1018.5</ele>
      </trkpt>
      <trkpt lat="47.324005" lon="11.547655">
        <ele>1016.5</ele>
      </trkpt>
      <trkpt lat="47.323945" lon="11.547653">
        <ele>1014.5</ele>
      </trkpt>
      <trkpt lat="47.323872" lon="11.547682">
        <ele>1011.75</ele>
      </trkpt>
      <trkpt lat="47.323803" lon="11.547636">
        <ele>1009.75</ele>
      </trkpt>
      <trkpt lat="47.323745" lon="11.547637">
        <ele>1007.75</ele>
      </trkpt>
      <trkpt lat="47.323716" lon="11.547581">
        <ele>1007</ele>
      </trkpt>
      <trkpt lat="47.323683" lon="11.547597">
        <ele>1005.75</ele>
      </trkpt>
      <trkpt lat="47.323656" lon="11.547569">
        <ele>1005</ele>
      </trkpt>
      <trkpt lat="47.323638" lon="11.547682">
        <ele>1004</ele>
      </trkpt>
      <trkpt lat="47.32361" lon="11.547756">
        <ele>1002.75</ele>
      </trkpt>
      <trkpt lat="47.323591" lon="11.547784">
        <ele>1002</ele>
      </trkpt>
      <trkpt lat="47.323534" lon="11.547784">
        <ele>1000.25</ele>
      </trkpt>
      <trkpt lat="47.323492" lon="11.547771">
        <ele>998.75</ele>
      </trkpt>
      <trkpt lat="47.32344" lon="11.547792">
        <ele>997</ele>
      </trkpt>
      <trkpt lat="47.323374" lon="11.547787">
        <ele>995</ele>
      </trkpt>
      <trkpt lat="47.323372" lon="11.547787">
        <ele>995</ele>
      </trkpt>
      <trkpt lat="47.323261" lon="11.547781">
        <ele>992</ele>
      </trkpt>
      <trkpt lat="47.323231" lon="11.547741">
        <ele>991.5</ele>
      </trkpt>
      <trkpt lat="47.3232" lon="11.547765">
        <ele>990.75</ele>
      </trkpt>
      <trkpt lat="47.323167" lon="11.547755">
        <ele>990</ele>
      </trkpt>
      <trkpt lat="47.323111" lon="11.547714">
        <ele>989</ele>
      </trkpt>
      <trkpt lat="47.323054" lon="11.547708">
        <ele>987.75</ele>
      </trkpt>
      <trkpt lat="47.322962" lon="11.54774">
        <ele>985.75</ele>
      </trkpt>
      <trkpt lat="47.322968" lon="11.547792">
        <ele>986</ele>
      </trkpt>
      <trkpt lat="47.322914" lon="11.547835">
        <ele>984.75</ele>
      </trkpt>
      <trkpt lat="47.32288" lon="11.547838">
        <ele>984</ele>
      </trkpt>
      <trkpt lat="47.322839" lon="11.54782">
        <ele>983.25</ele>
      </trkpt>
      <trkpt lat="47.322758" lon="11.547761">
        <ele>981.5</ele>
      </trkpt>
      <trkpt lat="47.322574" lon="11.547706">
        <ele>977.75</ele>
      </trkpt>
      <trkpt lat="47.322478" lon="11.547664">
        <ele>975.75</ele>
      </trkpt>
      <trkpt lat="47.322399" lon="11.547641">
        <ele>974.25</ele>
      </trkpt>
      <trkpt lat="47.322239" lon="11.547551">
        <ele>971.5</ele>
      </trkpt>
      <trkpt lat="47.322146" lon="11.547519">
        <ele>970</ele>
      </trkpt>
      <trkpt lat="47.321861" lon="11.547946">
        <ele>963.25</ele>
      </trkpt>
      <trkpt lat="47.320925" lon="11.548144">
        <ele>943.5</ele>
      </trkpt>
      <trkpt lat="47.320466" lon="11.548562">
        <ele>930.5</ele>
      </trkpt>
      <trkpt lat="47.319593" lon="11.548658">
        <ele>913.5</ele>
      </trkpt>
      <trkpt lat="47.319332" lon="11.548396">
        <ele>909.5</ele>
      </trkpt>
      <trkpt lat="47.319044" lon="11.548331">
        <ele>904.75</ele>
      </trkpt>
      <trkpt lat="47.319032" lon="11.548021">
        <ele>903.75</ele>
      </trkpt>
      <trkpt lat="47.318857" lon="11.547728">
        <ele>899.75</ele>
      </trkpt>
      <trkpt lat="47.31872" lon="11.547745">
        <ele>897.5</ele>
      </trkpt>
      <trkpt lat="47.318719" lon="11.547745">
        <ele>897.75</ele>
      </trkpt>
      <trkpt lat="47.318709" lon="11.547951">
        <ele>897.75</ele>
      </trkpt>
      <trkpt lat="47.318773" lon="11.548457">
        <ele>899.75</ele>
      </trkpt>
      <trkpt lat="47.318749" lon="11.548758">
        <ele>899.5</ele>
      </trkpt>
      <trkpt lat="47.318813" lon="11.54905">
        <ele>900.75</ele>
      </trkpt>
      <trkpt lat="47.319052" lon="11.549384">
        <ele>903.75</ele>
      </trkpt>
      <trkpt lat="47.31911" lon="11.549865">
        <ele>903.25</ele>
      </trkpt>
      <trkpt lat="47.31925" lon="11.550062">
        <ele>904.25</ele>
      </trkpt>
      <trkpt lat="47.319286" lon="11.550226">
        <ele>903</ele>
      </trkpt>
      <trkpt lat="47.319094" lon="11.55034">
        <ele>899.25</ele>
      </trkpt>
      <trkpt lat="47.319" lon="11.550466">
        <ele>896.5</ele>
      </trkpt>
      <trkpt lat="47.318872" lon="11.550523">
        <ele>894.5</ele>
      </trkpt>
      <trkpt lat="47.318686" lon="11.550575">
        <ele>891.5</ele>
      </trkpt>
      <trkpt lat="47.318518" lon="11.550602">
        <ele>889.25</ele>
      </trkpt>
      <trkpt lat="47.318441" lon="11.550587">
        <ele>888.25</ele>
      </trkpt>
      <trkpt lat="47.31827" lon="11.550556">
        <ele>886.5</ele>
      </trkpt>
      <trkpt lat="47.318098" lon="11.550648">
        <ele>883.75</ele>
      </trkpt>
      <trkpt lat="47.317984" lon="11.550773">
        <ele>881.5</ele>
      </trkpt>
      <trkpt lat="47.31778" lon="11.550597">
        <ele>880</ele>
      </trkpt>
      <trkpt lat="47.317716" lon="11.550536">
        <ele>879.5</ele>
      </trkpt>
      <trkpt lat="47.317617" lon="11.550535">
        <ele>878.25</ele>
      </trkpt>
      <trkpt lat="47.317825" lon="11.551061">
        <ele>878</ele>
      </trkpt>
      <trkpt lat="47.317898" lon="11.551237">
        <ele>878.5</ele>
      </trkpt>
      <trkpt lat="47.318043" lon="11.551561">
        <ele>879.25</ele>
      </trkpt>
      <trkpt lat="47.318093" lon="11.551671">
        <ele>879.75</ele>
      </trkpt>
      <trkpt lat="47.318287" lon="11.55192">
        <ele>882.5</ele>
      </trkpt>
      <trkpt lat="47.318511" lon="11.552148">
        <ele>884</ele>
      </trkpt>
      <trkpt lat="47.318804" lon="11.552424">
        <ele>884.75</ele>
      </trkpt>
      <trkpt lat="47.318907" lon="11.552501">
        <ele>884.5</ele>
      </trkpt>
      <trkpt lat="47.318853" lon="11.552607">
        <ele>883.5</ele>
      </trkpt>
      <trkpt lat="47.318798" lon="11.55267">
        <ele>882.5</ele>
      </trkpt>
      <trkpt lat="47.318733" lon="11.552705">
        <ele>882</ele>
      </trkpt>
      <trkpt lat="47.318433" lon="11.55273">
        <ele>880</ele>
      </trkpt>
      <trkpt lat="47.318135" lon="11.552787">
        <ele>876</ele>
      </trkpt>
      <trkpt lat="47.316776" lon="11.552734">
        <ele>855.75</ele>
      </trkpt>
      <trkpt lat="47.316747" lon="11.552733">
        <ele>855.5</ele>
      </trkpt>
      <trkpt lat="47.316736" lon="11.552609">
        <ele>856.75</ele>
      </trkpt>
      <trkpt lat="47.316745" lon="11.552533">
        <ele>857.75</ele>
      </trkpt>
      <trkpt lat="47.316401" lon="11.552669">
        <ele>851.75</ele>
      </trkpt>
      <trkpt lat="47.315355" lon="11.553005">
        <ele>843.75</ele>
      </trkpt>
      <trkpt lat="47.315227" lon="11.553127">
        <ele>844</ele>
      </trkpt>
      <trkpt lat="47.315152" lon="11.553118">
        <ele>844</ele>
      </trkpt>
      <trkpt lat="47.314912" lon="11.553218">
        <ele>844.75</ele>
      </trkpt>
      <trkpt lat="47.314748" lon="11.553326">
        <ele>845.75</ele>
      </trkpt>
      <trkpt lat="47.314683" lon="11.553358">
        <ele>846.25</ele>
      </trkpt>
      <trkpt lat="47.314606" lon="11.553355">
        <ele>846.5</ele>
      </trkpt>
      <trkpt lat="47.314575" lon="11.553483">
        <ele>848</ele>
      </trkpt>
      <trkpt lat="47.314414" lon="11.553636">
        <ele>849.75</ele>
      </trkpt>
      <trkpt lat="47.314316" lon="11.553598">
        <ele>849.5</ele>
      </trkpt>
      <trkpt lat="47.313957" lon="11.553906">
        <ele>854.75</ele>
      </trkpt>
      <trkpt lat="47.313864" lon="11.553987">
        <ele>856.5</ele>
      </trkpt>
      <trkpt lat="47.313599" lon="11.554419">
        <ele>860.75</ele>
      </trkpt>
      <trkpt lat="47.313481" lon="11.554851">
        <ele>861.5</ele>
      </trkpt>
      <trkpt lat="47.313252" lon="11.555162">
        <ele>861.75</ele>
      </trkpt>
      <trkpt lat="47.312698" lon="11.556322">
        <ele>864.5</ele>
      </trkpt>
      <trkpt lat="47.31268" lon="11.556365">
        <ele>864.75</ele>
      </trkpt>
      <trkpt lat="47.312641" lon="11.556464">
        <ele>865.75</ele>
      </trkpt>
      <trkpt lat="47.312513" lon="11.556587">
        <ele>868.5</ele>
      </trkpt>
      <trkpt lat="47.312397" lon="11.556711">
        <ele>867</ele>
      </trkpt>
      <trkpt lat="47.312297" lon="11.556777">
        <ele>865</ele>
      </trkpt>
      <trkpt lat="47.312162" lon="11.557063">
        <ele>860.25</ele>
      </trkpt>
      <trkpt lat="47.312143" lon="11.557207">
        <ele>858.5</ele>
      </trkpt>
      <trkpt lat="47.312174" lon="11.557412">
        <ele>857.5</ele>
      </trkpt>
      <trkpt lat="47.312246" lon="11.557666">
        <ele>857.25</ele>
      </trkpt>
      <trkpt lat="47.312283" lon="11.55806">
        <ele>855</ele>
      </trkpt>
      <trkpt lat="47.312303" lon="11.558258">
        <ele>854</ele>
      </trkpt>
      <trkpt lat="47.312468" lon="11.559016">
        <ele>859.25</ele>
      </trkpt>
      <trkpt lat="47.312424" lon="11.56024">
        <ele>866.75</ele>
      </trkpt>
      <trkpt lat="47.312348" lon="11.560518">
        <ele>866.25</ele>
      </trkpt>
      <trkpt lat="47.312424" lon="11.561324">
        <ele>866.5</ele>
      </trkpt>
      <trkpt lat="47.312655" lon="11.562142">
        <ele>862.25</ele>
      </trkpt>
      <trkpt lat="47.31264" lon="11.562644">
        <ele>859.5</ele>
      </trkpt>
      <trkpt lat="47.312228" lon="11.563494">
        <ele>854</ele>
      </trkpt>
      <trkpt lat="47.312175" lon="11.563555">
        <ele>853</ele>
      </trkpt>
      <trkpt lat="47.312046" lon="11.563706">
        <ele>850.75</ele>
      </trkpt>
      <trkpt lat="47.312007" lon="11.564305">
        <ele>846.75</ele>
      </trkpt>
      <trkpt lat="47.311887" lon="11.565318">
        <ele>840.75</ele>
      </trkpt>
      <trkpt lat="47.311346" lon="11.567048">
        <ele>831</ele>
      </trkpt>
      <trkpt lat="47.310888" lon="11.567563">
        <ele>824.75</ele>
      </trkpt>
      <trkpt lat="47.310619" lon="11.568085">
        <ele>821.75</ele>
      </trkpt>
      <trkpt lat="47.310318" lon="11.568326">
        <ele>822.5</ele>
      </trkpt>
      <trkpt lat="47.310183" lon="11.568589">
        <ele>822.75</ele>
      </trkpt>
      <trkpt lat="47.310022" lon="11.568685">
        <ele>824.75</ele>
      </trkpt>
      <trkpt lat="47.309824" lon="11.569015">
        <ele>821</ele>
      </trkpt>
      <trkpt lat="47.309824" lon="11.569788">
        <ele>811</ele>
      </trkpt>
      <trkpt lat="47.310072" lon="11.570367">
        <ele>800.75</ele>
      </trkpt>
      <trkpt lat="47.31008" lon="11.570573">
        <ele>795</ele>
      </trkpt>
      <trkpt lat="47.309947" lon="11.571059">
        <ele>784.5</ele>
      </trkpt>
      <trkpt lat="47.309992" lon="11.571899">
        <ele>764.75</ele>
      </trkpt>
      <trkpt lat="47.309955" lon="11.572499">
        <ele>748.5</ele>
      </trkpt>
      <trkpt lat="47.309868" lon="11.572778">
        <ele>743.75</ele>
      </trkpt>
      <trkpt lat="47.309761" lon="11.572848">
        <ele>740.75</ele>
      </trkpt>
      <trkpt lat="47.309281" lon="11.573533">
        <ele>729.5</ele>
      </trkpt>
      <trkpt lat="47.309092" lon="11.57422">
        <ele>728.25</ele>
      </trkpt>
      <trkpt lat="47.309084" lon="11.574553">
        <ele>727.75</ele>
      </trkpt>
      <trkpt lat="47.309226" lon="11.574805">
        <ele>731</ele>
      </trkpt>
      <trkpt lat="47.308388" lon="11.575295">
        <ele>706</ele>
      </trkpt>
      <trkpt lat="47.307469" lon="11.575499">
        <ele>681.25</ele>
      </trkpt>
      <trkpt lat="47.307469" lon="11.575499">
        <ele>681.25</ele>
      </trkpt>
      <trkpt lat="47.307277" lon="11.575542">
        <ele>676.25</ele>
      </trkpt>
      <trkpt lat="47.30702" lon="11.575617">
        <ele>667.75</ele>
      </trkpt>
      <trkpt lat="47.306502" lon="11.575178">
        <ele>649.25</ele>
      </trkpt>
      <trkpt lat="47.306451" lon="11.575335">
        <ele>648.75</ele>
      </trkpt>
      <trkpt lat="47.306452" lon="11.575542">
        <ele>649.25</ele>
      </trkpt>
      <trkpt lat="47.306765" lon="11.576426">
        <ele>661</ele>
      </trkpt>
      <trkpt lat="47.30651" lon="11.576964">
        <ele>650.5</ele>
      </trkpt>
      <trkpt lat="47.306511" lon="11.577118">
        <ele>650.25</ele>
      </trkpt>
      <trkpt lat="47.306616" lon="11.577288">
        <ele>654</ele>
      </trkpt>
      <trkpt lat="47.306626" lon="11.577577">
        <ele>654</ele>
      </trkpt>
      <trkpt lat="47.306593" lon="11.578195">
        <ele>650.5</ele>
      </trkpt>
      <trkpt lat="47.306614" lon="11.578715">
        <ele>653.75</ele>
      </trkpt>
      <trkpt lat="47.306531" lon="11.578799">
        <ele>650.75</ele>
      </trkpt>
      <trkpt lat="47.306389" lon="11.579407">
        <ele>648</ele>
      </trkpt>
      <trkpt lat="47.306347" lon="11.579616">
        <ele>646.25</ele>
      </trkpt>
      <trkpt lat="47.306347" lon="11.579616">
        <ele>645.7803670164891</ele>
      </trkpt>
      <trkpt lat="47.30615010590137" lon="11.579751203531345">
        <ele>636.6039615788034</ele>
      </trkpt>
      <trkpt lat="47.30615010590137" lon="11.579751203531345">
        <ele>636.6039615788034</ele>
      </trkpt>
      <trkpt lat="47.30617364234324" lon="11.580413431364896">
        <ele>638.405678766873</ele>
      </trkpt>
      <trkpt lat="47.30619429704606" lon="11.580994577792097">
        <ele>631.4718790029904</ele>
      </trkpt>
      <trkpt lat="47.30619429704606" lon="11.580994577792097">
        <ele>631.4718790029904</ele>
      </trkpt>
      <trkpt lat="47.306149975015046" lon="11.581387524709328">
        <ele>622.8884732455631</ele>
      </trkpt>
      <trkpt lat="47.306149975015046" lon="11.581387524709328">
        <ele>622.8884732455631</ele>
      </trkpt>
      <trkpt lat="47.30587863009771" lon="11.58085873777343">
        <ele>621.5286234189765</ele>
      </trkpt>
      <trkpt lat="47.305839321011376" lon="11.580782133680316">
        <ele>620.9569364627595</ele>
      </trkpt>
      <trkpt lat="47.30573947244267" lon="11.580863930661423">
        <ele>616.4981994136476</ele>
      </trkpt>
      <trkpt lat="47.30573947244267" lon="11.580863930661423">
        <ele>616.4981994136476</ele>
      </trkpt>
      <trkpt lat="47.30537333201619" lon="11.580700166119925">
        <ele>605.0540039666706</ele>
      </trkpt>
      <trkpt lat="47.30537333201619" lon="11.580700166119925">
        <ele>605.0540039666706</ele>
      </trkpt>
      <trkpt lat="47.304985" lon="11.580439">
        <ele>587.7049301303658</ele>
      </trkpt>
      <trkpt lat="47.304985" lon="11.580439">
        <ele>583.75</ele>
      </trkpt>
      <trkpt lat="47.304803" lon="11.580406">
        <ele>583.75</ele>
      </trkpt>
      <trkpt lat="47.304641" lon="11.58002">
        <ele>577</ele>
      </trkpt>
      <trkpt lat="47.304594" lon="11.580292">
        <ele>574.75</ele>
      </trkpt>
      <trkpt lat="47.304454" lon="11.579829">
        <ele>569.5</ele>
      </trkpt>
      <trkpt lat="47.304265" lon="11.579638">
        <ele>562.25</ele>
      </trkpt>
      <trkpt lat="47.304253" lon="11.579597">
        <ele>562</ele>
      </trkpt>
      <trkpt lat="47.304166" lon="11.579272">
        <ele>560.25</ele>
      </trkpt>
      <trkpt lat="47.303942" lon="11.579343">
        <ele>557.75</ele>
      </trkpt>
      <trkpt lat="47.303684" lon="11.579391">
        <ele>555.25</ele>
      </trkpt>
      <trkpt lat="47.303498" lon="11.579343">
        <ele>553.75</ele>
      </trkpt>
      <trkpt lat="47.302707" lon="11.579049">
        <ele>553</ele>
      </trkpt>
      <trkpt lat="47.302717" lon="11.579172">
        <ele>552.75</ele>
      </trkpt>
      <trkpt lat="47.302717" lon="11.57917">
        <ele>552.75</ele>
      </trkpt>
      <trkpt lat="47.302738" lon="11.579425">
        <ele>552.25</ele>
      </trkpt>
      <trkpt lat="47.302751" lon="11.57956">
        <ele>551.75</ele>
      </trkpt>
      <trkpt lat="47.302748" lon="11.579631">
        <ele>551.5</ele>
      </trkpt>
      <trkpt lat="47.302733" lon="11.579696">
        <ele>551.5</ele>
      </trkpt>
      <trkpt lat="47.302703" lon="11.579754">
        <ele>551.25</ele>
      </trkpt>
      <trkpt lat="47.302604" lon="11.579854">
        <ele>551</ele>
      </trkpt>
      <trkpt lat="47.302542" lon="11.579905">
        <ele>551</ele>
      </trkpt>
      <trkpt lat="47.302449" lon="11.579731">
        <ele>551.5</ele>
      </trkpt>
      <trkpt lat="47.302302" lon="11.579505">
        <ele>551.25</ele>
      </trkpt>
      <trkpt lat="47.302233" lon="11.57937">
        <ele>551.25</ele>
      </trkpt>
      <trkpt lat="47.302187" lon="11.57926">
        <ele>551</ele>
      </trkpt>
      <trkpt lat="47.302144" lon="11.57912">
        <ele>550.75</ele>
      </trkpt>
      <trkpt lat="47.302103" lon="11.57894">
        <ele>550</ele>
      </trkpt>
      <trkpt lat="47.301959" lon="11.57816">
        <ele>548</ele>
      </trkpt>
      <trkpt lat="47.301804" lon="11.577447">
        <ele>547</ele>
      </trkpt>
      <trkpt lat="47.301752" lon="11.577064">
        <ele>549</ele>
      </trkpt>
      <trkpt lat="47.301707" lon="11.576868">
        <ele>549.75</ele>
      </trkpt>
      <trkpt lat="47.301649" lon="11.576693">
        <ele>550.75</ele>
      </trkpt>
      <trkpt lat="47.301623" lon="11.576773">
        <ele>550.25</ele>
      </trkpt>
      <trkpt lat="47.301646" lon="11.577012">
        <ele>548.75</ele>
      </trkpt>
      <trkpt lat="47.301496" lon="11.577087">
        <ele>548.5</ele>
      </trkpt>
      <trkpt lat="47.301395" lon="11.576902">
        <ele>549.5</ele>
      </trkpt>
      <trkpt lat="47.301375" lon="11.576805">
        <ele>551</ele>
      </trkpt>
      <trkpt lat="47.30131" lon="11.576478">
        <ele>551</ele>
      </trkpt>
      <trkpt lat="47.301226" lon="11.576109">
        <ele>551.25</ele>
      </trkpt>
      <trkpt lat="47.301057" lon="11.57558">
        <ele>551</ele>
      </trkpt>
      <trkpt lat="47.300997" lon="11.575362">
        <ele>550.75</ele>
      </trkpt>
      <trkpt lat="47.300942" lon="11.575114">
        <ele>550.25</ele>
      </trkpt>
      <trkpt lat="47.300907" lon="11.574955">
        <ele>550</ele>
      </trkpt>
      <trkpt lat="47.300769" lon="11.574486">
        <ele>549.75</ele>
      </trkpt>
      <trkpt lat="47.300545" lon="11.57361">
        <ele>551.25</ele>
      </trkpt>
      <trkpt lat="47.300498" lon="11.573405">
        <ele>551.75</ele>
      </trkpt>
      <trkpt lat="47.300393" lon="11.573034">
        <ele>551.75</ele>
      </trkpt>
      <trkpt lat="47.300234" lon="11.572541">
        <ele>550.75</ele>
      </trkpt>
      <trkpt lat="47.300007" lon="11.571943">
        <ele>550</ele>
      </trkpt>
      <trkpt lat="47.299941" lon="11.571782">
        <ele>550</ele>
      </trkpt>
      <trkpt lat="47.299799" lon="11.571335">
        <ele>552</ele>
      </trkpt>
      <trkpt lat="47.299347" lon="11.570194">
        <ele>553.5</ele>
      </trkpt>
      <trkpt lat="47.299108" lon="11.569647">
        <ele>554.75</ele>
      </trkpt>
      <trkpt lat="47.298914" lon="11.569242">
        <ele>557.25</ele>
      </trkpt>
      <trkpt lat="47.298839" lon="11.569083">
        <ele>558.25</ele>
      </trkpt>
      <trkpt lat="47.298597" lon="11.568605">
        <ele>560.5</ele>
      </trkpt>
      <trkpt lat="47.298372" lon="11.568183">
        <ele>560.5</ele>
      </trkpt>
      <trkpt lat="47.297963" lon="11.567441">
        <ele>559</ele>
      </trkpt>
      <trkpt lat="47.297482" lon="11.566632">
        <ele>554.75</ele>
      </trkpt>
      <trkpt lat="47.29715" lon="11.566081">
        <ele>554.25</ele>
      </trkpt>
      <trkpt lat="47.297087" lon="11.565983">
        <ele>554</ele>
      </trkpt>
      <trkpt lat="47.296909" lon="11.565736">
        <ele>553.5</ele>
      </trkpt>
      <trkpt lat="47.296626" lon="11.565282">
        <ele>552.5</ele>
      </trkpt>
    </trkseg>
  </trk>
</gpx>
