{
"type": "FeatureCollection",
"name": "segments",
"crs": { "type": "name", "properties": { "name": "urn:ogc:def:crs:OGC:1.3:CRS84" } },
"features": [
{ "type": "Feature", "properties": { "segmentName": "Falzloaregg (..the steep stuff!)", "pointType": "start" }, "geometry": { "type": "Point", "coordinates": [ 11.562644, 47.31264 ] } },
{ "type": "Feature", "properties": { "segmentName": "Falzloaregg (..the steep stuff!)", "pointType": "end" }, "geometry": { "type": "Point", "coordinates": [ 11.572848, 47.309761 ] } },
{ "type": "Feature", "properties": { "segmentName": "Urschen (..a beauty!)", "pointType": "start" }, "geometry": { "type": "Point", "coordinates": [ 11.547775539363542, 47.322745396709649 ] } },
{ "type": "Feature", "properties": { "segmentName": "Urschen (..a beauty!)", "pointType": "end" }, "geometry": { "type": "Point", "coordinates": [ 11.548343983901839, 47.319048504920509 ] } },
{ "type": "Feature", "properties": { "segmentName": "Kienberg (tunnel vision!)", "pointType": "start" }, "geometry": { "type": "Point", "coordinates": [ 11.512427607593112, 47.273290428986677 ] } },
{ "type": "Feature", "properties": { "segmentName": "Kienberg (tunnel vision!)", "pointType": "end" }, "geometry": { "type": "Point", "coordinates": [ 11.510892225570368, 47.27468444730782 ] } },
{ "type": "Feature", "properties": { "segmentName": "Ebenwald (tough XC;)", "pointType": "start" }, "geometry": { "type": "Point", "coordinates": [ 11.486487, 47.256942 ] } },
{ "type": "Feature", "properties": { "segmentName": "Ebenwald (tough XC;)", "pointType": "end" }, "geometry": { "type": "Point", "coordinates": [ 11.492901, 47.261976 ] } },
{ "type": "Feature", "properties": { "segmentName": "Hochzirl (oh yes!)", "pointType": "start" }, "geometry": { "type": "Point", "coordinates": [ 11.257935180882903, 47.284225466932298 ] } },
{ "type": "Feature", "properties": { "segmentName": "Hochzirl (oh yes!)", "pointType": "end" }, "geometry": { "type": "Point", "coordinates": [ 11.256765404693923, 47.280470228332852 ] } },
{ "type": "Feature", "properties": { "segmentName": "Taxburg (know where you're goin'.. then enjoy!)", "pointType": "start" }, "geometry": { "type": "Point", "coordinates": [ 11.419982904667483, 47.218888444023321 ] } },
{ "type": "Feature", "properties": { "segmentName": "Taxburg (know where you're goin'.. then enjoy!)", "pointType": "end" }, "geometry": { "type": "Point", "coordinates": [ 11.412922161062705, 47.226451333959275 ] } },
{ "type": "Feature", "properties": { "segmentName": "Tantegert (whatch were you're goin';)", "pointType": "start" }, "geometry": { "type": "Point", "coordinates": [ 11.421269, 47.245165 ] } },
{ "type": "Feature", "properties": { "segmentName": "Tantegert (whatch were you're goin';)", "pointType": "end" }, "geometry": { "type": "Point", "coordinates": [ 11.416338318270673, 47.252439216018317 ] } },
{ "type": "Feature", "properties": { "segmentName": "Mötzer Flow (enjoy!)", "pointType": "start" }, "geometry": { "type": "Point", "coordinates": [ 10.937295247329333, 47.287511600115501 ] } },
{ "type": "Feature", "properties": { "segmentName": "Mötzer Flow (enjoy!)", "pointType": "end" }, "geometry": { "type": "Point", "coordinates": [ 10.944228062565827, 47.288544540340212 ] } },
{ "type": "Feature", "properties": { "segmentName": "Jenbach DH (whooa!)", "pointType": "start" }, "geometry": { "type": "Point", "coordinates": [ 11.765147, 47.410967 ] } },
{ "type": "Feature", "properties": { "segmentName": "Jenbach DH (whooa!)", "pointType": "end" }, "geometry": { "type": "Point", "coordinates": [ 11.769225344895434, 47.40390135184775 ] } },
{ "type": "Feature", "properties": { "segmentName": "Fiechter Köpfl (know your way.. then enjoy!)", "pointType": "start" }, "geometry": { "type": "Point", "coordinates": [ 11.024482787002976, 47.300143671684644 ] } },
{ "type": "Feature", "properties": { "segmentName": "Fiechter Köpfl (know your way.. then enjoy!)", "pointType": "end" }, "geometry": { "type": "Point", "coordinates": [ 11.033999, 47.301096 ] } },
{ "type": "Feature", "properties": { "segmentName": "Stallental Flow (watch out for the cliff!!)", "pointType": "start" }, "geometry": { "type": "Point", "coordinates": [ 11.685142, 47.374722 ] } },
{ "type": "Feature", "properties": { "segmentName": "Stallental Flow (watch out for the cliff!!)", "pointType": "end" }, "geometry": { "type": "Point", "coordinates": [ 11.695536, 47.372789 ] } },
{ "type": "Feature", "properties": { "segmentName": "Notburga (don't clip a pedal! ..hikers!)", "pointType": "start" }, "geometry": { "type": "Point", "coordinates": [ 11.772902, 47.416455 ] } },
{ "type": "Feature", "properties": { "segmentName": "Notburga (don't clip a pedal! ..hikers!)", "pointType": "end" }, "geometry": { "type": "Point", "coordinates": [ 11.763861, 47.415367 ] } },
{ "type": "Feature", "properties": { "segmentName": "Mittersteig (tough one!)", "pointType": "start" }, "geometry": { "type": "Point", "coordinates": [ 11.313032, 47.249299 ] } },
{ "type": "Feature", "properties": { "segmentName": "Mittersteig (tough one!)", "pointType": "end" }, "geometry": { "type": "Point", "coordinates": [ 11.320261436703664, 47.252346802839995 ] } },
{ "type": "Feature", "properties": { "segmentName": "Kammerland (hikers! ..stay safe!)", "pointType": "start" }, "geometry": { "type": "Point", "coordinates": [ 11.247904932004504, 47.236455074656149 ] } },
{ "type": "Feature", "properties": { "segmentName": "Kammerland (hikers! ..stay safe!)", "pointType": "end" }, "geometry": { "type": "Point", "coordinates": [ 11.254854, 47.242727 ] } },
{ "type": "Feature", "properties": { "segmentName": "Waalweg (techy stuff & endo turns! ..ride clean!)", "pointType": "start" }, "geometry": { "type": "Point", "coordinates": [ 10.951816904331865, 47.283913111006015 ] } },
{ "type": "Feature", "properties": { "segmentName": "Waalweg (techy stuff & endo turns! ..ride clean!)", "pointType": "end" }, "geometry": { "type": "Point", "coordinates": [ 10.954323874442945, 47.2853239397298 ] } },
{ "type": "Feature", "properties": { "segmentName": "Lago di Garda (..don't fall!)", "pointType": "start" }, "geometry": { "type": "Point", "coordinates": [ 11.255372447610293, 47.2764891708619 ] } },
{ "type": "Feature", "properties": { "segmentName": "Lago di Garda (..don't fall!)", "pointType": "end" }, "geometry": { "type": "Point", "coordinates": [ 11.254190829402267, 47.273962597316554 ] } },
{ "type": "Feature", "properties": { "segmentName": "Burgeck (take it easy baby!)", "pointType": "start" }, "geometry": { "type": "Point", "coordinates": [ 11.779164, 47.398193 ] } },
{ "type": "Feature", "properties": { "segmentName": "Burgeck (take it easy baby!)", "pointType": "end" }, "geometry": { "type": "Point", "coordinates": [ 11.781618, 47.39615 ] } },
{ "type": "Feature", "properties": { "segmentName": "Kristeneben (strong legs!)", "pointType": "start" }, "geometry": { "type": "Point", "coordinates": [ 11.275594, 47.246087 ] } },
{ "type": "Feature", "properties": { "segmentName": "Kristeneben (strong legs!)", "pointType": "end" }, "geometry": { "type": "Point", "coordinates": [ 11.281179, 47.245556 ] } }
]
}
