<?xml version='1.0' encoding='utf-8'?>
<gpx version="1.1" creator="GPX Processor" schemaLocation="http://www.topografix.com/GPX/1/1 http://www.topografix.com/GPX/1/1/gpx.xsd http://www.garmin.com/xmlschemas/GpxExtensions/v3 http://www.garmin.com/xmlschemas/GpxExtensionsv3.xsd http://www.garmin.com/xmlschemas/TrackPointExtension/v1 http://www.garmin.com/xmlschemas/TrackPointExtensionv1.xsd http://www.garmin.com/xmlschemas/PowerExtension/v1 http://www.garmin.com/xmlschemas/PowerExtensionv1.xsd http://www.topografix.com/GPX/gpx_style/0/2 http://www.topografix.com/GPX/gpx_style/0/2/gpx_style.xsd">
  <metadata>
    <name>A__Trailspotting</name>
    <desc>Clean cycling segments for route A - no straight connections</desc>
    <author>
      <name>gpx.studio</name>
      <link href="https://gpx.studio" />
    </author>
  </metadata>
  <trk>
    <name>A_clean</name>
    <trkseg>
      <name>Segment 1</name>
      <desc>distance: 8.0km, elevation_gain: 298.0m, elevation_loss: 565.0m, estimated_duration: 00:59</desc>
      <trkpt lat="47.247667" lon="11.451444">
        <ele>827.75</ele>
        </trkpt>
      <trkpt lat="47.247808" lon="11.451778">
        <ele>826.25</ele>
        </trkpt>
      <trkpt lat="47.247869" lon="11.451899">
        <ele>826</ele>
        </trkpt>
      <trkpt lat="47.247929" lon="11.451992">
        <ele>825.25</ele>
        </trkpt>
      <trkpt lat="47.248017" lon="11.452081">
        <ele>823.75</ele>
        </trkpt>
      <trkpt lat="47.248107" lon="11.452147">
        <ele>822</ele>
        </trkpt>
      <trkpt lat="47.248153" lon="11.452169">
        <ele>821</ele>
        </trkpt>
      <trkpt lat="47.248216" lon="11.45218">
        <ele>819.5</ele>
        </trkpt>
      <trkpt lat="47.248287" lon="11.452186">
        <ele>817.5</ele>
        </trkpt>
      <trkpt lat="47.248367" lon="11.45218">
        <ele>816.25</ele>
        </trkpt>
      <trkpt lat="47.248667" lon="11.452098">
        <ele>814</ele>
        </trkpt>
      <trkpt lat="47.24878" lon="11.45206">
        <ele>813</ele>
        </trkpt>
      <trkpt lat="47.248908" lon="11.452004">
        <ele>811.75</ele>
        </trkpt>
      <trkpt lat="47.248972" lon="11.451972">
        <ele>811</ele>
      </trkpt>
      <trkpt lat="47.24897" lon="11.45196">
        <ele>809.45</ele>
      </trkpt>
      <trkpt lat="47.249" lon="11.45209">
        <ele>812.92</ele>
      </trkpt>
      <trkpt lat="47.24893" lon="11.45242">
        <ele>820.8</ele>
      </trkpt>
      <trkpt lat="47.24888" lon="11.4528">
        <ele>823.67</ele>
      </trkpt>
      <trkpt lat="47.24891" lon="11.45298">
        <ele>824.83</ele>
      </trkpt>
      <trkpt lat="47.24897" lon="11.45341">
        <ele>826.77</ele>
      </trkpt>
      <trkpt lat="47.24934" lon="11.45452">
        <ele>831.11</ele>
      </trkpt>
      <trkpt lat="47.24941" lon="11.4547">
        <ele>832.49</ele>
      </trkpt>
      <trkpt lat="47.24938" lon="11.45566">
        <ele>831.89</ele>
      </trkpt>
      <trkpt lat="47.24943" lon="11.45633">
        <ele>829.26</ele>
      </trkpt>
      <trkpt lat="47.24941" lon="11.45688">
        <ele>834.66</ele>
      </trkpt>
      <trkpt lat="47.2495" lon="11.4573">
        <ele>842.35</ele>
      </trkpt>
      <trkpt lat="47.24954" lon="11.45737">
        <ele>842.03</ele>
      </trkpt>
      <trkpt lat="47.24967" lon="11.4576">
        <ele>838.02</ele>
      </trkpt>
      <trkpt lat="47.24979" lon="11.45819">
        <ele>829.84</ele>
      </trkpt>
      <trkpt lat="47.25013" lon="11.45849">
        <ele>820.45</ele>
      </trkpt>
      <trkpt lat="47.25045" lon="11.45851">
        <ele>816.43</ele>
      </trkpt>
      <trkpt lat="47.25081" lon="11.45853">
        <ele>812.92</ele>
      </trkpt>
      <trkpt lat="47.25118" lon="11.4584">
        <ele>818.5</ele>
      </trkpt>
      <trkpt lat="47.25145" lon="11.45836">
        <ele>820.73</ele>
      </trkpt>
      <trkpt lat="47.25171" lon="11.45841">
        <ele>819.5</ele>
      </trkpt>
      <trkpt lat="47.25204" lon="11.45869">
        <ele>812.82</ele>
      </trkpt>
      <trkpt lat="47.25235" lon="11.45907">
        <ele>814.1</ele>
      </trkpt>
      <trkpt lat="47.25253" lon="11.45938">
        <ele>814.78</ele>
      </trkpt>
      <trkpt lat="47.25262" lon="11.45965">
        <ele>812.25</ele>
      </trkpt>
      <trkpt lat="47.25272" lon="11.45979">
        <ele>810.72</ele>
      </trkpt>
      <trkpt lat="47.25306" lon="11.45991">
        <ele>809.38</ele>
      </trkpt>
      <trkpt lat="47.25338" lon="11.45991">
        <ele>808.41</ele>
      </trkpt>
      <trkpt lat="47.25375" lon="11.46">
        <ele>802.75</ele>
      </trkpt>
      <trkpt lat="47.25435" lon="11.45992">
        <ele>798.84</ele>
      </trkpt>
      <trkpt lat="47.25471" lon="11.46012">
        <ele>794.88</ele>
      </trkpt>
      <trkpt lat="47.25506" lon="11.45999">
        <ele>796.56</ele>
      </trkpt>
      <trkpt lat="47.255054" lon="11.4599589">
        <ele>797.23</ele>
      </trkpt>
      <trkpt lat="47.2553065" lon="11.4596531">
        <ele>796.81</ele>
      </trkpt>
      <trkpt lat="47.2554216" lon="11.4595096">
        <ele>795.37</ele>
      </trkpt>
      <trkpt lat="47.2554745" lon="11.4593116">
        <ele>794.69</ele>
      </trkpt>
      <trkpt lat="47.2555174" lon="11.4592375">
        <ele>794.13</ele>
      </trkpt>
      <trkpt lat="47.2556181" lon="11.4590943">
        <ele>793.04</ele>
      </trkpt>
      <trkpt lat="47.2556593" lon="11.4590295">
        <ele>792.59</ele>
      </trkpt>
      <trkpt lat="47.2557674" lon="11.458845">
        <ele>791.23</ele>
      </trkpt>
      <trkpt lat="47.2558794" lon="11.4588198">
        <ele>789.93</ele>
      </trkpt>
      <trkpt lat="47.2559471" lon="11.4587991">
        <ele>789.26</ele>
      </trkpt>
      <trkpt lat="47.2560492" lon="11.4587618">
        <ele>788.33</ele>
      </trkpt>
      <trkpt lat="47.2563774" lon="11.4587994">
        <ele>785.64</ele>
      </trkpt>
      <trkpt lat="47.2566324" lon="11.4587469">
        <ele>781.69</ele>
      </trkpt>
      <trkpt lat="47.2567004" lon="11.4587469">
        <ele>780.25</ele>
      </trkpt>
      <trkpt lat="47.2567733" lon="11.4587391">
        <ele>778.6</ele>
      </trkpt>
      <trkpt lat="47.256905" lon="11.4587499">
        <ele>775.52</ele>
      </trkpt>
      <trkpt lat="47.2569474" lon="11.4587524">
        <ele>774.45</ele>
      </trkpt>
      <trkpt lat="47.257033" lon="11.4586535">
        <ele>771.41</ele>
      </trkpt>
      <trkpt lat="47.2570534" lon="11.4586314">
        <ele>770.62</ele>
      </trkpt>
      <trkpt lat="47.2572435" lon="11.4590317">
        <ele>767.02</ele>
      </trkpt>
      <trkpt lat="47.2572717" lon="11.4592026">
        <ele>767.2</ele>
      </trkpt>
      <trkpt lat="47.2573209" lon="11.4593355">
        <ele>767.07</ele>
      </trkpt>
      <trkpt lat="47.257351" lon="11.4594308">
        <ele>767.4</ele>
      </trkpt>
      <trkpt lat="47.2574757" lon="11.4597261">
        <ele>767.18</ele>
      </trkpt>
      <trkpt lat="47.2576274" lon="11.4600923">
        <ele>761.36</ele>
      </trkpt>
      <trkpt lat="47.2576954" lon="11.4602542">
        <ele>757.25</ele>
      </trkpt>
      <trkpt lat="47.2577223" lon="11.4603997">
        <ele>755.07</ele>
      </trkpt>
      <trkpt lat="47.2577556" lon="11.4605379">
        <ele>753.07</ele>
      </trkpt>
      <trkpt lat="47.2578334" lon="11.4606192">
        <ele>751.68</ele>
      </trkpt>
      <trkpt lat="47.2579233" lon="11.4606902">
        <ele>751.04</ele>
      </trkpt>
      <trkpt lat="47.2580165" lon="11.4608154">
        <ele>751.16</ele>
      </trkpt>
      <trkpt lat="47.2581051" lon="11.460954">
        <ele>751.35</ele>
      </trkpt>
      <trkpt lat="47.2581543" lon="11.460999">
        <ele>751.44</ele>
      </trkpt>
      <trkpt lat="47.2584653" lon="11.4612832">
        <ele>745.94</ele>
      </trkpt>
      <trkpt lat="47.2584844" lon="11.4613904">
        <ele>744.19</ele>
      </trkpt>
      <trkpt lat="47.2585099" lon="11.4615422">
        <ele>741.05</ele>
      </trkpt>
      <trkpt lat="47.2585016" lon="11.4616178">
        <ele>740.22</ele>
      </trkpt>
      <trkpt lat="47.2584595" lon="11.4617005">
        <ele>740.31</ele>
      </trkpt>
      <trkpt lat="47.258435" lon="11.4617988">
        <ele>738.38</ele>
      </trkpt>
      <trkpt lat="47.2584108" lon="11.4618596">
        <ele>736.87</ele>
      </trkpt>
      <trkpt lat="47.2583202" lon="11.4618866">
        <ele>737.22</ele>
      </trkpt>
      <trkpt lat="47.2583054" lon="11.4618896">
        <ele>737.21</ele>
      </trkpt>
      <trkpt lat="47.2581657" lon="11.4619833">
        <ele>733.21</ele>
      </trkpt>
      <trkpt lat="47.2581299" lon="11.4619547">
        <ele>733.83</ele>
      </trkpt>
      <trkpt lat="47.2580446" lon="11.4618429">
        <ele>735.13</ele>
      </trkpt>
      <trkpt lat="47.2579399" lon="11.4618872">
        <ele>731.24</ele>
      </trkpt>
      <trkpt lat="47.2579731" lon="11.4620432">
        <ele>729.76</ele>
      </trkpt>
      <trkpt lat="47.2580641" lon="11.4621332">
        <ele>728.2</ele>
      </trkpt>
      <trkpt lat="47.2581399" lon="11.4622529">
        <ele>724.1</ele>
      </trkpt>
      <trkpt lat="47.2582088" lon="11.4622802">
        <ele>722.08</ele>
      </trkpt>
      <trkpt lat="47.2583219" lon="11.4623346">
        <ele>718.42</ele>
      </trkpt>
      <trkpt lat="47.2583944" lon="11.4623475">
        <ele>717.18</ele>
      </trkpt>
      <trkpt lat="47.2584671" lon="11.4623465">
        <ele>716.78</ele>
      </trkpt>
      <trkpt lat="47.2585258" lon="11.4622857">
        <ele>718.45</ele>
      </trkpt>
      <trkpt lat="47.2586241" lon="11.4622103">
        <ele>720.06</ele>
      </trkpt>
      <trkpt lat="47.2586872" lon="11.4621633">
        <ele>720.47</ele>
      </trkpt>
      <trkpt lat="47.2588057" lon="11.4620773">
        <ele>719.44</ele>
      </trkpt>
      <trkpt lat="47.2588886" lon="11.4619544">
        <ele>717.13</ele>
      </trkpt>
      <trkpt lat="47.2589695" lon="11.4618516">
        <ele>713.07</ele>
      </trkpt>
      <trkpt lat="47.2591056" lon="11.461717">
        <ele>705.14</ele>
      </trkpt>
      <trkpt lat="47.259171" lon="11.4616915">
        <ele>702.11</ele>
      </trkpt>
      <trkpt lat="47.2592182" lon="11.4616508">
        <ele>699.93</ele>
      </trkpt>
      <trkpt lat="47.2593693" lon="11.4617522">
        <ele>697.26</ele>
      </trkpt>
      <trkpt lat="47.25935" lon="11.46179">
        <ele>698.63</ele>
      </trkpt>
      <trkpt lat="47.25939" lon="11.46184">
        <ele>699.13</ele>
      </trkpt>
      <trkpt lat="47.25969" lon="11.46209">
        <ele>703.21</ele>
      </trkpt>
      <trkpt lat="47.25974" lon="11.46215">
        <ele>704.59</ele>
      </trkpt>
      <trkpt lat="47.25979" lon="11.46225">
        <ele>707.27</ele>
      </trkpt>
      <trkpt lat="47.2598" lon="11.46231">
        <ele>709.14</ele>
      </trkpt>
      <trkpt lat="47.25979" lon="11.46242">
        <ele>712.83</ele>
      </trkpt>
      <trkpt lat="47.25977" lon="11.46247">
        <ele>714.62</ele>
      </trkpt>
      <trkpt lat="47.25971" lon="11.46255">
        <ele>717.61</ele>
      </trkpt>
      <trkpt lat="47.25966" lon="11.46258">
        <ele>719.01</ele>
      </trkpt>
      <trkpt lat="47.25942" lon="11.46273">
        <ele>723.23</ele>
      </trkpt>
      <trkpt lat="47.25939" lon="11.46276">
        <ele>723.61</ele>
      </trkpt>
      <trkpt lat="47.25931" lon="11.46289">
        <ele>724.59</ele>
      </trkpt>
      <trkpt lat="47.25925" lon="11.46308">
        <ele>725.43</ele>
      </trkpt>
      <trkpt lat="47.25924" lon="11.46324">
        <ele>726.28</ele>
      </trkpt>
      <trkpt lat="47.25924" lon="11.46333">
        <ele>726.97</ele>
      </trkpt>
      <trkpt lat="47.2593" lon="11.46392">
        <ele>732.71</ele>
      </trkpt>
      <trkpt lat="47.25929" lon="11.46426">
        <ele>735.01</ele>
      </trkpt>
      <trkpt lat="47.25927" lon="11.46454">
        <ele>735.77</ele>
      </trkpt>
      <trkpt lat="47.25914" lon="11.46531">
        <ele>741.27</ele>
      </trkpt>
      <trkpt lat="47.2591" lon="11.46564">
        <ele>744.73</ele>
      </trkpt>
      <trkpt lat="47.25911" lon="11.46584">
        <ele>746.13</ele>
      </trkpt>
      <trkpt lat="47.25917" lon="11.46624">
        <ele>748.6</ele>
      </trkpt>
      <trkpt lat="47.25918" lon="11.46644">
        <ele>750.77</ele>
      </trkpt>
      <trkpt lat="47.25914" lon="11.46725">
        <ele>759.97</ele>
      </trkpt>
      <trkpt lat="47.25914" lon="11.46776">
        <ele>765.25</ele>
      </trkpt>
      <trkpt lat="47.25915" lon="11.46791">
        <ele>766.72</ele>
      </trkpt>
      <trkpt lat="47.25918" lon="11.46815">
        <ele>768.73</ele>
      </trkpt>
      <trkpt lat="47.25924" lon="11.46842">
        <ele>770.31</ele>
      </trkpt>
      <trkpt lat="47.25942" lon="11.4691">
        <ele>777.06</ele>
      </trkpt>
      <trkpt lat="47.25945" lon="11.46927">
        <ele>778.66</ele>
      </trkpt>
      <trkpt lat="47.25952" lon="11.46968">
        <ele>781.04</ele>
      </trkpt>
      <trkpt lat="47.25955" lon="11.46992">
        <ele>782.59</ele>
      </trkpt>
      <trkpt lat="47.25956" lon="11.47004">
        <ele>783.6</ele>
      </trkpt>
      <trkpt lat="47.25955" lon="11.47024">
        <ele>785.79</ele>
      </trkpt>
      <trkpt lat="47.2595" lon="11.47058">
        <ele>789.08</ele>
      </trkpt>
      <trkpt lat="47.25942" lon="11.47098">
        <ele>791.08</ele>
      </trkpt>
      <trkpt lat="47.25935" lon="11.47125">
        <ele>791.71</ele>
      </trkpt>
      <trkpt lat="47.25912" lon="11.47239">
        <ele>792.91</ele>
      </trkpt>
      <trkpt lat="47.25895" lon="11.47308">
        <ele>791.26</ele>
      </trkpt>
      <trkpt lat="47.25894" lon="11.47324">
        <ele>790.69</ele>
      </trkpt>
      <trkpt lat="47.25894" lon="11.4733">
        <ele>790.55</ele>
      </trkpt>
      <trkpt lat="47.25897" lon="11.47345">
        <ele>790.23</ele>
      </trkpt>
      <trkpt lat="47.25899" lon="11.47351">
        <ele>790.13</ele>
      </trkpt>
      <trkpt lat="47.25915" lon="11.47385">
        <ele>789.82</ele>
      </trkpt>
      <trkpt lat="47.25924" lon="11.47407">
        <ele>789.76</ele>
      </trkpt>
      <trkpt lat="47.25932" lon="11.47438">
        <ele>788.99</ele>
      </trkpt>
      <trkpt lat="47.25936" lon="11.4746">
        <ele>787.57</ele>
      </trkpt>
      <trkpt lat="47.25944" lon="11.47536">
        <ele>786.02</ele>
      </trkpt>
      <trkpt lat="47.2595" lon="11.47579">
        <ele>787.86</ele>
      </trkpt>
      <trkpt lat="47.25972" lon="11.47708">
        <ele>795.18</ele>
      </trkpt>
      <trkpt lat="47.25975" lon="11.47738">
        <ele>795.61</ele>
      </trkpt>
      <trkpt lat="47.25978" lon="11.47814">
        <ele>799.78</ele>
      </trkpt>
      <trkpt lat="47.25978" lon="11.47837">
        <ele>801.91</ele>
      </trkpt>
      <trkpt lat="47.25972" lon="11.47896">
        <ele>810.93</ele>
      </trkpt>
      <trkpt lat="47.25971" lon="11.47911">
        <ele>812.63</ele>
      </trkpt>
      <trkpt lat="47.25973" lon="11.47938">
        <ele>813.98</ele>
      </trkpt>
      <trkpt lat="47.25979" lon="11.47963">
        <ele>814.13</ele>
      </trkpt>
      <trkpt lat="47.25986" lon="11.47976">
        <ele>813.91</ele>
      </trkpt>
      <trkpt lat="47.26009" lon="11.48003">
        <ele>814.26</ele>
      </trkpt>
      <trkpt lat="47.26015" lon="11.48011">
        <ele>814.8</ele>
      </trkpt>
      <trkpt lat="47.26019" lon="11.48021">
        <ele>815.29</ele>
      </trkpt>
      <trkpt lat="47.26023" lon="11.48034">
        <ele>815.86</ele>
      </trkpt>
      <trkpt lat="47.26024" lon="11.48044">
        <ele>816.06</ele>
      </trkpt>
      <trkpt lat="47.26024" lon="11.48079">
        <ele>816.66</ele>
      </trkpt>
      <trkpt lat="47.26025" lon="11.48108">
        <ele>818.34</ele>
      </trkpt>
      <trkpt lat="47.26028" lon="11.4813">
        <ele>820.29</ele>
      </trkpt>
      <trkpt lat="47.26032" lon="11.48143">
        <ele>821.68</ele>
      </trkpt>
      <trkpt lat="47.26039" lon="11.48161">
        <ele>823.47</ele>
      </trkpt>
      <trkpt lat="47.26054" lon="11.48186">
        <ele>825.69</ele>
      </trkpt>
      <trkpt lat="47.26076" lon="11.48219">
        <ele>827.68</ele>
      </trkpt>
      <trkpt lat="47.261" lon="11.48264">
        <ele>829.83</ele>
      </trkpt>
      <trkpt lat="47.26112" lon="11.48288">
        <ele>830.75</ele>
      </trkpt>
      <trkpt lat="47.26122" lon="11.48315">
        <ele>831.19</ele>
      </trkpt>
      <trkpt lat="47.26148" lon="11.48396">
        <ele>829.36</ele>
      </trkpt>
      <trkpt lat="47.26154" lon="11.4841">
        <ele>829.06</ele>
      </trkpt>
      <trkpt lat="47.26158" lon="11.48418">
        <ele>829.03</ele>
      </trkpt>
      <trkpt lat="47.26166" lon="11.48427">
        <ele>828.89</ele>
      </trkpt>
      <trkpt lat="47.26175" lon="11.48436">
        <ele>829</ele>
      </trkpt>
      <trkpt lat="47.26232" lon="11.48475">
        <ele>826.23</ele>
      </trkpt>
      <trkpt lat="47.26264" lon="11.485">
        <ele>824.4</ele>
      </trkpt>
      <trkpt lat="47.26278" lon="11.48513">
        <ele>824.98</ele>
      </trkpt>
      <trkpt lat="47.26284" lon="11.48523">
        <ele>825.4</ele>
      </trkpt>
      <trkpt lat="47.26288" lon="11.4853">
        <ele>825.6</ele>
      </trkpt>
      <trkpt lat="47.26293" lon="11.48542">
        <ele>825.76</ele>
      </trkpt>
      <trkpt lat="47.26296" lon="11.48558">
        <ele>825.84</ele>
      </trkpt>
      <trkpt lat="47.26303" lon="11.48604">
        <ele>825.52</ele>
      </trkpt>
      <trkpt lat="47.2631" lon="11.48638">
        <ele>824.93</ele>
      </trkpt>
      <trkpt lat="47.26347" lon="11.48783">
        <ele>827.23</ele>
      </trkpt>
      <trkpt lat="47.26349" lon="11.48794">
        <ele>827.58</ele>
      </trkpt>
      <trkpt lat="47.2635" lon="11.48804">
        <ele>827.85</ele>
      </trkpt>
      <trkpt lat="47.26347" lon="11.48808">
        <ele>828.12</ele>
      </trkpt>
      <trkpt lat="47.26304" lon="11.48821">
        <ele>832.34</ele>
      </trkpt>
      <trkpt lat="47.2627" lon="11.48834">
        <ele>836.49</ele>
      </trkpt>
      <trkpt lat="47.26239" lon="11.48846">
        <ele>839.52</ele>
      </trkpt>
      <trkpt lat="47.26199" lon="11.48884">
        <ele>839.8</ele>
      </trkpt>
      <trkpt lat="47.26159" lon="11.48922">
        <ele>837.67</ele>
      </trkpt>
      <trkpt lat="47.2614" lon="11.48931">
        <ele>837.09</ele>
      </trkpt>
      <trkpt lat="47.26113" lon="11.48929">
        <ele>837.19</ele>
      </trkpt>
      <trkpt lat="47.26087" lon="11.48915">
        <ele>837.5</ele>
      </trkpt>
      <trkpt lat="47.26083" lon="11.48915">
        <ele>837.18</ele>
      </trkpt>
      <trkpt lat="47.26079" lon="11.48917">
        <ele>836.57</ele>
      </trkpt>
      <trkpt lat="47.26041" lon="11.48875">
        <ele>838.7</ele>
      </trkpt>
      <trkpt lat="47.2602" lon="11.48924">
        <ele>826.47</ele>
      </trkpt>
      <trkpt lat="47.2601" lon="11.48967">
        <ele>817.07</ele>
      </trkpt>
      <trkpt lat="47.26021" lon="11.48999">
        <ele>813</ele>
      </trkpt>
      <trkpt lat="47.26028" lon="11.49018">
        <ele>809.42</ele>
      </trkpt>
      <trkpt lat="47.26066" lon="11.49076">
        <ele>811.75</ele>
      </trkpt>
      <trkpt lat="47.26108" lon="11.49177">
        <ele>799.04</ele>
      </trkpt>
      <trkpt lat="47.26133" lon="11.49229">
        <ele>794.17</ele>
      </trkpt>
      <trkpt lat="47.26198" lon="11.4929">
        <ele>786.48</ele>
      </trkpt>
      <trkpt lat="47.26226" lon="11.49296">
        <ele>787.97</ele>
      </trkpt>
      <trkpt lat="47.26242" lon="11.493">
        <ele>789.43</ele>
      </trkpt>
      <trkpt lat="47.26274" lon="11.49302">
        <ele>791.74</ele>
      </trkpt>
      <trkpt lat="47.26292" lon="11.49335">
        <ele>787.33</ele>
      </trkpt>
      <trkpt lat="47.26325" lon="11.49378">
        <ele>778.53</ele>
      </trkpt>
      <trkpt lat="47.26339" lon="11.4942">
        <ele>774.07</ele>
      </trkpt>
      <trkpt lat="47.26357" lon="11.49519">
        <ele>758.25</ele>
      </trkpt>
      <trkpt lat="47.26377" lon="11.49555">
        <ele>754.85</ele>
      </trkpt>
      <trkpt lat="47.26403" lon="11.49581">
        <ele>752.51</ele>
      </trkpt>
      <trkpt lat="47.26421" lon="11.49599">
        <ele>752.56</ele>
      </trkpt>
      <trkpt lat="47.26448" lon="11.49599">
        <ele>754.75</ele>
      </trkpt>
      <trkpt lat="47.26462" lon="11.49597">
        <ele>755.3</ele>
      </trkpt>
      <trkpt lat="47.26481" lon="11.49587">
        <ele>755.02</ele>
      </trkpt>
      <trkpt lat="47.26528" lon="11.49551">
        <ele>759.68</ele>
      </trkpt>
      <trkpt lat="47.26549" lon="11.4954">
        <ele>761.11</ele>
      </trkpt>
      <trkpt lat="47.26554" lon="11.49554">
        <ele>762.72</ele>
      </trkpt>
      <trkpt lat="47.26554" lon="11.49555">
        <ele>762.86</ele>
      </trkpt>
      <trkpt lat="47.26588" lon="11.49566">
        <ele>767.55</ele>
      </trkpt>
      <trkpt lat="47.26601" lon="11.49573">
        <ele>768.23</ele>
      </trkpt>
      <trkpt lat="47.26623" lon="11.496">
        <ele>771.66</ele>
      </trkpt>
      <trkpt lat="47.26648" lon="11.49627">
        <ele>773.96</ele>
      </trkpt>
      <trkpt lat="47.26693" lon="11.49666">
        <ele>776.96</ele>
      </trkpt>
      <trkpt lat="47.26694" lon="11.49679">
        <ele>779.91</ele>
      </trkpt>
      <trkpt lat="47.26703" lon="11.49706">
        <ele>783.75</ele>
      </trkpt>
      <trkpt lat="47.2671" lon="11.49726">
        <ele>785.52</ele>
      </trkpt>
      <trkpt lat="47.26717" lon="11.49743">
        <ele>786.35</ele>
      </trkpt>
      <trkpt lat="47.26733" lon="11.49768">
        <ele>787.09</ele>
      </trkpt>
      <trkpt lat="47.26768" lon="11.4981">
        <ele>793.2</ele>
      </trkpt>
      <trkpt lat="47.2678" lon="11.49827">
        <ele>794.09</ele>
      </trkpt>
      <trkpt lat="47.26783" lon="11.49835">
        <ele>794.83</ele>
      </trkpt>
      <trkpt lat="47.26787" lon="11.49844">
        <ele>795.08</ele>
      </trkpt>
      <trkpt lat="47.26793" lon="11.49878">
        <ele>800.09</ele>
      </trkpt>
      <trkpt lat="47.26795" lon="11.49902">
        <ele>804.28</ele>
      </trkpt>
      <trkpt lat="47.26795" lon="11.49918">
        <ele>806.98</ele>
      </trkpt>
      <trkpt lat="47.26809" lon="11.4993">
        <ele>804.63</ele>
      </trkpt>
      <trkpt lat="47.26818" lon="11.49945">
        <ele>803.69</ele>
      </trkpt>
      <trkpt lat="47.26838" lon="11.4999">
        <ele>800.61</ele>
      </trkpt>
      <trkpt lat="47.26846" lon="11.50011">
        <ele>798.78</ele>
      </trkpt>
      <trkpt lat="47.26858" lon="11.50044">
        <ele>795.75</ele>
      </trkpt>
      <trkpt lat="47.26871" lon="11.50082">
        <ele>792.97</ele>
      </trkpt>
      <trkpt lat="47.26884" lon="11.50101">
        <ele>787.1</ele>
      </trkpt>
      <trkpt lat="47.26891" lon="11.50121">
        <ele>783.8</ele>
      </trkpt>
      <trkpt lat="47.26894" lon="11.50155">
        <ele>783.78</ele>
      </trkpt>
      <trkpt lat="47.26923" lon="11.50223">
        <ele>786.48</ele>
      </trkpt>
      <trkpt lat="47.26958" lon="11.50252">
        <ele>776.92</ele>
      </trkpt>
      <trkpt lat="47.26977" lon="11.50282">
        <ele>771.32</ele>
      </trkpt>
      <trkpt lat="47.26984" lon="11.5032">
        <ele>772.07</ele>
      </trkpt>
      <trkpt lat="47.27004" lon="11.50362">
        <ele>768.03</ele>
      </trkpt>
      <trkpt lat="47.27034" lon="11.50431">
        <ele>767.49</ele>
      </trkpt>
      <trkpt lat="47.27044" lon="11.50439">
        <ele>764.27</ele>
      </trkpt>
      <trkpt lat="47.27058" lon="11.5045">
        <ele>759.58</ele>
      </trkpt>
      <trkpt lat="47.27065" lon="11.50464">
        <ele>759.73</ele>
      </trkpt>
      <trkpt lat="47.27104" lon="11.50508">
        <ele>748.37</ele>
      </trkpt>
      <trkpt lat="47.27107" lon="11.50529">
        <ele>752.5</ele>
      </trkpt>
      <trkpt lat="47.27111" lon="11.50542">
        <ele>754.03</ele>
      </trkpt>
      <trkpt lat="47.2715" lon="11.50574">
        <ele>742.9</ele>
      </trkpt>
      <trkpt lat="47.27164" lon="11.50595">
        <ele>740.47</ele>
      </trkpt>
      <trkpt lat="47.27186" lon="11.50642">
        <ele>735.37</ele>
      </trkpt>
      <trkpt lat="47.27189" lon="11.50681">
        <ele>739.99</ele>
      </trkpt>
      <trkpt lat="47.27192" lon="11.50691">
        <ele>739.82</ele>
      </trkpt>
      <trkpt lat="47.27224" lon="11.50727">
        <ele>730.68</ele>
      </trkpt>
      <trkpt lat="47.27234" lon="11.50745">
        <ele>729.67</ele>
      </trkpt>
      <trkpt lat="47.27249" lon="11.50769">
        <ele>727.04</ele>
      </trkpt>
      <trkpt lat="47.27256" lon="11.50777">
        <ele>724.48</ele>
      </trkpt>
      <trkpt lat="47.27267" lon="11.508">
        <ele>721.96</ele>
      </trkpt>
      <trkpt lat="47.27277" lon="11.50819">
        <ele>718.35</ele>
      </trkpt>
      <trkpt lat="47.27285" lon="11.50835">
        <ele>715.06</ele>
      </trkpt>
      <trkpt lat="47.27299" lon="11.50862">
        <ele>708.51</ele>
      </trkpt>
      <trkpt lat="47.27308" lon="11.50909">
        <ele>707.4</ele>
      </trkpt>
      <trkpt lat="47.27308" lon="11.50936">
        <ele>708.3</ele>
      </trkpt>
      <trkpt lat="47.27314" lon="11.50973">
        <ele>701.75</ele>
      </trkpt>
      <trkpt lat="47.27314" lon="11.51006">
        <ele>699.95</ele>
      </trkpt>
      <trkpt lat="47.27316" lon="11.51064">
        <ele>695.07</ele>
      </trkpt>
      <trkpt lat="47.27325" lon="11.51141">
        <ele>683.13</ele>
      </trkpt>
      <trkpt lat="47.27321" lon="11.51225">
        <ele>682.51</ele>
      </trkpt>
      <trkpt lat="47.27323" lon="11.51241">
        <ele>680.47</ele>
      </trkpt>
      <trkpt lat="47.27321" lon="11.51249">
        <ele>681.44</ele>
      </trkpt>
      <trkpt lat="47.27318" lon="11.51288">
        <ele>680.28</ele>
      </trkpt>
      <trkpt lat="47.27321" lon="11.51381">
        <ele>668.56</ele>
      </trkpt>
      <trkpt lat="47.27318" lon="11.51393">
        <ele>669.15</ele>
      </trkpt>
      <trkpt lat="47.27319" lon="11.51397">
        <ele>668.11</ele>
      </trkpt>
      <trkpt lat="47.27332" lon="11.51432">
        <ele>657.44</ele>
      </trkpt>
      <trkpt lat="47.27343" lon="11.51422">
        <ele>652.75</ele>
      </trkpt>
      <trkpt lat="47.27351" lon="11.51398">
        <ele>651.19</ele>
      </trkpt>
      <trkpt lat="47.27386" lon="11.51322">
        <ele>642.02</ele>
      </trkpt>
      <trkpt lat="47.27396" lon="11.51285">
        <ele>637.23</ele>
      </trkpt>
      <trkpt lat="47.27421" lon="11.51223">
        <ele>626.05</ele>
      </trkpt>
      <trkpt lat="47.27431" lon="11.51174">
        <ele>624.33</ele>
      </trkpt>
      <trkpt lat="47.27443" lon="11.51133">
        <ele>620.73</ele>
      </trkpt>
      <trkpt lat="47.27474" lon="11.51075">
        <ele>611.2</ele>
      </trkpt>
      <trkpt lat="47.27501" lon="11.51058">
        <ele>600.76</ele>
      </trkpt>
      <trkpt lat="47.27504" lon="11.51032">
        <ele>600.19</ele>
      </trkpt>
      <trkpt lat="47.27509" lon="11.51008">
        <ele>598.53</ele>
      </trkpt>
      <trkpt lat="47.27513" lon="11.51006">
        <ele>596.73</ele>
      </trkpt>
      <trkpt lat="47.27515" lon="11.50997">
        <ele>596.1</ele>
      </trkpt>
      <trkpt lat="47.27549" lon="11.5097">
        <ele>581.75</ele>
      </trkpt>
      <trkpt lat="47.27546" lon="11.50999">
        <ele>581.81</ele>
      </trkpt>
      <trkpt lat="47.2755" lon="11.51019">
        <ele>580.2</ele>
      </trkpt>
      <trkpt lat="47.27561" lon="11.50995">
        <ele>575.67</ele>
      </trkpt>
      <trkpt lat="47.27568" lon="11.51009">
        <ele>573.09</ele>
      </trkpt>
      <trkpt lat="47.27573" lon="11.51053">
        <ele>573.51</ele>
      </trkpt>
      <trkpt lat="47.27609" lon="11.50959">
        <ele>562.57</ele>
      </trkpt>
      <trkpt lat="47.27616" lon="11.50932">
        <ele>561.98</ele>
      </trkpt>
      <trkpt lat="47.27622" lon="11.50904">
        <ele>561.17</ele>
      </trkpt>
      <trkpt lat="47.27623" lon="11.50881">
        <ele>561.13</ele>
      </trkpt>
      <trkpt lat="47.27623" lon="11.50867">
        <ele>561.19</ele>
      </trkpt>
      <trkpt lat="47.27628" lon="11.50867">
        <ele>560.18</ele>
      </trkpt>
      <trkpt lat="47.27634" lon="11.50872">
        <ele>559.04</ele>
      </trkpt>
      <trkpt lat="47.27638" lon="11.5087">
        <ele>558.36</ele>
      </trkpt>
      <trkpt lat="47.2772" lon="11.50845">
        <ele>558.26</ele>
      </trkpt>
      <trkpt lat="47.27756" lon="11.5083">
        <ele>561.23</ele>
      </trkpt>
      <trkpt lat="47.27777" lon="11.5082">
        <ele>561.63</ele>
      </trkpt>
      <trkpt lat="47.27778" lon="11.50827">
        <ele>561.57</ele>
      </trkpt>
      <trkpt lat="47.27782" lon="11.50826">
        <ele>561.58</ele>
      </trkpt>
      <trkpt lat="47.27787" lon="11.50863">
        <ele>561.15</ele>
      </trkpt>
      <trkpt lat="47.27824" lon="11.50848">
        <ele>561.04</ele>
      </trkpt>
    </trkseg>
    <trkseg>
      <name>Segment 2</name>
      <desc>distance: 16.0km, elevation_gain: 883.0m, elevation_loss: 867.0m, estimated_duration: 02:27</desc>
      <trkpt lat="47.349389" lon="11.702129">
        <ele>537.25</ele>
        </trkpt>
      <trkpt lat="47.349312" lon="11.70228">
        <ele>537.5</ele>
        </trkpt>
      <trkpt lat="47.349281" lon="11.702341">
        <ele>537.5</ele>
        </trkpt>
      <trkpt lat="47.34926" lon="11.702384">
        <ele>537.5</ele>
        </trkpt>
      <trkpt lat="47.349229" lon="11.702443">
        <ele>537.75</ele>
        </trkpt>
      <trkpt lat="47.34914" lon="11.702618">
        <ele>537.75</ele>
        </trkpt>
      <trkpt lat="47.349062" lon="11.702774">
        <ele>537.5</ele>
        </trkpt>
      <trkpt lat="47.34901" lon="11.702877">
        <ele>537.5</ele>
        </trkpt>
      <trkpt lat="47.348862" lon="11.703175">
        <ele>537.25</ele>
        </trkpt>
      <trkpt lat="47.348754" lon="11.703399">
        <ele>537.25</ele>
        </trkpt>
      <trkpt lat="47.348733" lon="11.703441">
        <ele>537.25</ele>
        </trkpt>
      <trkpt lat="47.348627" lon="11.703661">
        <ele>537</ele>
        </trkpt>
      <trkpt lat="47.348523" lon="11.703905">
        <ele>536.5</ele>
        </trkpt>
      <trkpt lat="47.348408" lon="11.704239">
        <ele>535.5</ele>
        </trkpt>
      <trkpt lat="47.348341" lon="11.704499">
        <ele>534.75</ele>
        </trkpt>
      <trkpt lat="47.34829" lon="11.704741">
        <ele>533.75</ele>
        </trkpt>
      <trkpt lat="47.348244" lon="11.70476">
        <ele>533.75</ele>
        </trkpt>
      <trkpt lat="47.347732" lon="11.704957">
        <ele>533.75</ele>
        </trkpt>
      <trkpt lat="47.347597" lon="11.704954">
        <ele>534</ele>
        </trkpt>
      <trkpt lat="47.347433" lon="11.704924">
        <ele>534.25</ele>
        </trkpt>
      <trkpt lat="47.345982" lon="11.705627">
        <ele>537.25</ele>
        </trkpt>
      <trkpt lat="47.345524" lon="11.705725">
        <ele>538</ele>
        </trkpt>
      <trkpt lat="47.345069" lon="11.705688">
        <ele>539.5</ele>
        </trkpt>
      <trkpt lat="47.345063" lon="11.705822">
        <ele>538.75</ele>
        </trkpt>
      <trkpt lat="47.345058" lon="11.70594">
        <ele>538.75</ele>
        </trkpt>
      <trkpt lat="47.345046" lon="11.706417">
        <ele>539.25</ele>
        </trkpt>
      <trkpt lat="47.345032" lon="11.707036">
        <ele>539.75</ele>
        </trkpt>
      <trkpt lat="47.34503" lon="11.707095">
        <ele>540</ele>
        </trkpt>
      <trkpt lat="47.345009" lon="11.707226">
        <ele>540</ele>
        </trkpt>
      <trkpt lat="47.34499" lon="11.707365">
        <ele>540.5</ele>
        </trkpt>
      <trkpt lat="47.344934" lon="11.707351">
        <ele>540.25</ele>
        </trkpt>
      <trkpt lat="47.344929" lon="11.707349">
        <ele>540</ele>
      </trkpt>
      <trkpt lat="47.34493" lon="11.70735">
        <ele>536.41</ele>
      </trkpt>
      <trkpt lat="47.344929" lon="11.707349">
        <ele>540</ele>
        </trkpt>
      <trkpt lat="47.344934" lon="11.707351">
        <ele>540.25</ele>
        </trkpt>
      <trkpt lat="47.34499" lon="11.707365">
        <ele>540.5</ele>
        </trkpt>
      <trkpt lat="47.344965" lon="11.707547">
        <ele>541.25</ele>
        </trkpt>
      <trkpt lat="47.34488" lon="11.707898">
        <ele>543.5</ele>
        </trkpt>
      <trkpt lat="47.344832" lon="11.70807">
        <ele>544.5</ele>
        </trkpt>
      <trkpt lat="47.344807" lon="11.708054">
        <ele>544.25</ele>
        </trkpt>
      <trkpt lat="47.344704" lon="11.707992">
        <ele>543.75</ele>
        </trkpt>
      <trkpt lat="47.344472" lon="11.707923">
        <ele>542.75</ele>
        </trkpt>
      <trkpt lat="47.34425" lon="11.707869">
        <ele>541.75</ele>
        </trkpt>
      <trkpt lat="47.344145" lon="11.707842">
        <ele>541.5</ele>
        </trkpt>
      <trkpt lat="47.344004" lon="11.707812">
        <ele>541</ele>
        </trkpt>
      <trkpt lat="47.343775" lon="11.707763">
        <ele>540.25</ele>
        </trkpt>
      <trkpt lat="47.343662" lon="11.707739">
        <ele>539.75</ele>
        </trkpt>
      <trkpt lat="47.343543" lon="11.707714">
        <ele>539.5</ele>
        </trkpt>
      <trkpt lat="47.343377" lon="11.707678">
        <ele>538.75</ele>
        </trkpt>
      <trkpt lat="47.342999" lon="11.70753">
        <ele>539.25</ele>
        </trkpt>
      <trkpt lat="47.34296" lon="11.707531">
        <ele>539.25</ele>
        </trkpt>
      <trkpt lat="47.342698" lon="11.707538">
        <ele>540.25</ele>
        </trkpt>
      <trkpt lat="47.342395" lon="11.707465">
        <ele>541.25</ele>
        </trkpt>
      <trkpt lat="47.342114" lon="11.707333">
        <ele>541.75</ele>
        </trkpt>
      <trkpt lat="47.341725" lon="11.707224">
        <ele>542.75</ele>
        </trkpt>
      <trkpt lat="47.341656" lon="11.707187">
        <ele>542.75</ele>
        </trkpt>
      <trkpt lat="47.341492" lon="11.7073">
        <ele>543.75</ele>
        </trkpt>
      <trkpt lat="47.341392" lon="11.707357">
        <ele>544.5</ele>
        </trkpt>
      <trkpt lat="47.341297" lon="11.707454">
        <ele>545.75</ele>
        </trkpt>
      <trkpt lat="47.340974" lon="11.707707">
        <ele>550.25</ele>
        </trkpt>
      <trkpt lat="47.340901" lon="11.707779">
        <ele>551.5</ele>
        </trkpt>
      <trkpt lat="47.34087" lon="11.707809">
        <ele>552</ele>
        </trkpt>
      <trkpt lat="47.340682" lon="11.707993">
        <ele>556.5</ele>
        </trkpt>
      <trkpt lat="47.340521" lon="11.708207">
        <ele>561.5</ele>
        </trkpt>
      <trkpt lat="47.340486" lon="11.70824">
        <ele>562.25</ele>
        </trkpt>
      <trkpt lat="47.340291" lon="11.708431">
        <ele>567</ele>
        </trkpt>
      <trkpt lat="47.340003" lon="11.708748">
        <ele>574.25</ele>
        </trkpt>
      <trkpt lat="47.339886" lon="11.708818">
        <ele>576.5</ele>
        </trkpt>
      <trkpt lat="47.339748" lon="11.70881">
        <ele>577.75</ele>
        </trkpt>
      <trkpt lat="47.339541" lon="11.708819">
        <ele>579.75</ele>
        </trkpt>
      <trkpt lat="47.33947" lon="11.708886">
        <ele>581.5</ele>
        </trkpt>
      <trkpt lat="47.339406" lon="11.708947">
        <ele>583</ele>
        </trkpt>
      <trkpt lat="47.338995" lon="11.708964">
        <ele>586.25</ele>
        </trkpt>
      <trkpt lat="47.33867" lon="11.708973">
        <ele>587.75</ele>
        </trkpt>
      <trkpt lat="47.338603" lon="11.708981">
        <ele>588</ele>
        </trkpt>
      <trkpt lat="47.338461" lon="11.709007">
        <ele>589</ele>
        </trkpt>
      <trkpt lat="47.338405" lon="11.709016">
        <ele>589.25</ele>
        </trkpt>
      <trkpt lat="47.338227" lon="11.709081">
        <ele>591.5</ele>
        </trkpt>
      <trkpt lat="47.33805" lon="11.709085">
        <ele>593.25</ele>
        </trkpt>
      <trkpt lat="47.33781" lon="11.709095">
        <ele>595.5</ele>
        </trkpt>
      <trkpt lat="47.337699" lon="11.709059">
        <ele>595.75</ele>
        </trkpt>
      <trkpt lat="47.337527" lon="11.70901">
        <ele>596.25</ele>
        </trkpt>
      <trkpt lat="47.3375" lon="11.709003">
        <ele>596.25</ele>
        </trkpt>
      <trkpt lat="47.337201" lon="11.70892">
        <ele>596.5</ele>
        </trkpt>
      <trkpt lat="47.337118" lon="11.708888">
        <ele>596.5</ele>
        </trkpt>
      <trkpt lat="47.33688" lon="11.708698">
        <ele>594.75</ele>
        </trkpt>
      <trkpt lat="47.336737" lon="11.708595">
        <ele>594.25</ele>
        </trkpt>
      <trkpt lat="47.33667" lon="11.708554">
        <ele>594.25</ele>
        </trkpt>
      <trkpt lat="47.336593" lon="11.708543">
        <ele>595.5</ele>
        </trkpt>
      <trkpt lat="47.336512" lon="11.708558">
        <ele>597.25</ele>
        </trkpt>
      <trkpt lat="47.336404" lon="11.708611">
        <ele>599.75</ele>
        </trkpt>
      <trkpt lat="47.336149" lon="11.708916">
        <ele>608.25</ele>
        </trkpt>
      <trkpt lat="47.336069" lon="11.709012">
        <ele>610.5</ele>
        </trkpt>
      <trkpt lat="47.335966" lon="11.709075">
        <ele>613</ele>
        </trkpt>
      <trkpt lat="47.335858" lon="11.709109">
        <ele>615</ele>
        </trkpt>
      <trkpt lat="47.335724" lon="11.709112">
        <ele>617.75</ele>
        </trkpt>
      <trkpt lat="47.33567" lon="11.7091">
        <ele>618.75</ele>
        </trkpt>
      <trkpt lat="47.335616" lon="11.709088">
        <ele>619.75</ele>
        </trkpt>
      <trkpt lat="47.33559" lon="11.709083">
        <ele>620.5</ele>
        </trkpt>
      <trkpt lat="47.334958" lon="11.708723">
        <ele>629.5</ele>
      </trkpt>
      <trkpt lat="47.33496" lon="11.70872">
        <ele>628.07</ele>
      </trkpt>
      <trkpt lat="47.33445" lon="11.708">
        <ele>634.06</ele>
      </trkpt>
      <trkpt lat="47.3344" lon="11.7079">
        <ele>633.53</ele>
      </trkpt>
      <trkpt lat="47.33436" lon="11.70795">
        <ele>636.98</ele>
      </trkpt>
      <trkpt lat="47.33428" lon="11.70792">
        <ele>640.06</ele>
      </trkpt>
      <trkpt lat="47.3342" lon="11.70782">
        <ele>641.24</ele>
      </trkpt>
      <trkpt lat="47.33411" lon="11.70764">
        <ele>641.45</ele>
      </trkpt>
      <trkpt lat="47.33395" lon="11.70718">
        <ele>643.86</ele>
      </trkpt>
      <trkpt lat="47.33371" lon="11.70673">
        <ele>652.13</ele>
      </trkpt>
      <trkpt lat="47.33354" lon="11.70645">
        <ele>655.23</ele>
      </trkpt>
      <trkpt lat="47.33325" lon="11.70609">
        <ele>661.14</ele>
      </trkpt>
      <trkpt lat="47.33305" lon="11.70568">
        <ele>662.73</ele>
      </trkpt>
      <trkpt lat="47.33301" lon="11.70536">
        <ele>656.58</ele>
      </trkpt>
      <trkpt lat="47.3324" lon="11.7043">
        <ele>656.17</ele>
      </trkpt>
      <trkpt lat="47.332" lon="11.70405">
        <ele>660.77</ele>
      </trkpt>
      <trkpt lat="47.33127" lon="11.70379">
        <ele>669.01</ele>
      </trkpt>
      <trkpt lat="47.33126" lon="11.7036">
        <ele>661.43</ele>
      </trkpt>
      <trkpt lat="47.33126" lon="11.70355">
        <ele>659.57</ele>
      </trkpt>
      <trkpt lat="47.33155" lon="11.70281">
        <ele>645.06</ele>
      </trkpt>
      <trkpt lat="47.3313" lon="11.7021">
        <ele>649.19</ele>
      </trkpt>
      <trkpt lat="47.33113" lon="11.7015">
        <ele>636.64</ele>
      </trkpt>
      <trkpt lat="47.33071" lon="11.70095">
        <ele>633.23</ele>
      </trkpt>
      <trkpt lat="47.33061" lon="11.70077">
        <ele>629.97</ele>
      </trkpt>
      <trkpt lat="47.3308" lon="11.70071">
        <ele>619.81</ele>
      </trkpt>
      <trkpt lat="47.33072" lon="11.70069">
        <ele>622.1</ele>
      </trkpt>
      <trkpt lat="47.33022" lon="11.69991">
        <ele>615.35</ele>
      </trkpt>
      <trkpt lat="47.3302" lon="11.69954">
        <ele>608.45</ele>
      </trkpt>
      <trkpt lat="47.33014" lon="11.6994">
        <ele>608.87</ele>
      </trkpt>
      <trkpt lat="47.32995" lon="11.69914">
        <ele>610.15</ele>
      </trkpt>
      <trkpt lat="47.32967" lon="11.69908">
        <ele>618.37</ele>
      </trkpt>
      <trkpt lat="47.32947" lon="11.69874">
        <ele>605.16</ele>
      </trkpt>
      <trkpt lat="47.32938" lon="11.69873">
        <ele>607.31</ele>
      </trkpt>
      <trkpt lat="47.32934" lon="11.69868">
        <ele>605.46</ele>
      </trkpt>
      <trkpt lat="47.32924" lon="11.69861">
        <ele>604.22</ele>
      </trkpt>
      <trkpt lat="47.32914" lon="11.6985">
        <ele>600.96</ele>
      </trkpt>
      <trkpt lat="47.32905" lon="11.69847">
        <ele>601.37</ele>
      </trkpt>
      <trkpt lat="47.32881" lon="11.69805">
        <ele>590</ele>
      </trkpt>
      <trkpt lat="47.32878" lon="11.69796">
        <ele>587.76</ele>
      </trkpt>
      <trkpt lat="47.32874" lon="11.69795">
        <ele>587.52</ele>
      </trkpt>
      <trkpt lat="47.32869" lon="11.69797">
        <ele>588.17</ele>
      </trkpt>
      <trkpt lat="47.32861" lon="11.69799">
        <ele>589.24</ele>
      </trkpt>
      <trkpt lat="47.32839" lon="11.698">
        <ele>593.91</ele>
      </trkpt>
      <trkpt lat="47.32834" lon="11.69808">
        <ele>598.9</ele>
      </trkpt>
      <trkpt lat="47.32831" lon="11.6981">
        <ele>601.01</ele>
      </trkpt>
      <trkpt lat="47.32825" lon="11.69821">
        <ele>608.35</ele>
      </trkpt>
      <trkpt lat="47.32821" lon="11.69819">
        <ele>609.9</ele>
      </trkpt>
      <trkpt lat="47.32816" lon="11.69804">
        <ele>607.48</ele>
      </trkpt>
      <trkpt lat="47.32814" lon="11.69783">
        <ele>601.46</ele>
      </trkpt>
      <trkpt lat="47.32811" lon="11.69749">
        <ele>595.06</ele>
      </trkpt>
      <trkpt lat="47.32812" lon="11.69711">
        <ele>593.15</ele>
      </trkpt>
      <trkpt lat="47.32804" lon="11.69701">
        <ele>599.54</ele>
      </trkpt>
      <trkpt lat="47.32795" lon="11.6968">
        <ele>605.53</ele>
      </trkpt>
      <trkpt lat="47.3279" lon="11.69673">
        <ele>608.12</ele>
      </trkpt>
      <trkpt lat="47.32779" lon="11.69666">
        <ele>614.02</ele>
      </trkpt>
      <trkpt lat="47.32768" lon="11.69649">
        <ele>615.66</ele>
      </trkpt>
      <trkpt lat="47.32747" lon="11.6961">
        <ele>611.29</ele>
      </trkpt>
      <trkpt lat="47.32744" lon="11.696">
        <ele>608.95</ele>
      </trkpt>
      <trkpt lat="47.32731" lon="11.69568">
        <ele>606.07</ele>
      </trkpt>
      <trkpt lat="47.32731" lon="11.69557">
        <ele>603.4</ele>
      </trkpt>
      <trkpt lat="47.32727" lon="11.69539">
        <ele>601.57</ele>
      </trkpt>
      <trkpt lat="47.32718" lon="11.69521">
        <ele>602.25</ele>
      </trkpt>
      <trkpt lat="47.32709" lon="11.69501">
        <ele>601.05</ele>
      </trkpt>
      <trkpt lat="47.32699" lon="11.69481">
        <ele>598.51</ele>
      </trkpt>
      <trkpt lat="47.32693" lon="11.69476">
        <ele>599.72</ele>
      </trkpt>
      <trkpt lat="47.32664" lon="11.69417">
        <ele>590.65</ele>
      </trkpt>
      <trkpt lat="47.32663" lon="11.69404">
        <ele>585.72</ele>
      </trkpt>
      <trkpt lat="47.32656" lon="11.69392">
        <ele>584.5</ele>
      </trkpt>
      <trkpt lat="47.32643" lon="11.6938">
        <ele>587.44</ele>
      </trkpt>
      <trkpt lat="47.32631" lon="11.6936">
        <ele>587.63</ele>
      </trkpt>
      <trkpt lat="47.32623" lon="11.69342">
        <ele>587.18</ele>
      </trkpt>
      <trkpt lat="47.32605" lon="11.69318">
        <ele>593.56</ele>
      </trkpt>
      <trkpt lat="47.32592" lon="11.69292">
        <ele>594.2</ele>
      </trkpt>
      <trkpt lat="47.32573" lon="11.69281">
        <ele>600.23</ele>
      </trkpt>
      <trkpt lat="47.32562" lon="11.69267">
        <ele>599.33</ele>
      </trkpt>
      <trkpt lat="47.32546" lon="11.69256">
        <ele>600.71</ele>
      </trkpt>
      <trkpt lat="47.32542" lon="11.69248">
        <ele>599.09</ele>
      </trkpt>
      <trkpt lat="47.32536" lon="11.69243">
        <ele>599.45</ele>
      </trkpt>
      <trkpt lat="47.3252" lon="11.69237">
        <ele>603.64</ele>
      </trkpt>
      <trkpt lat="47.32519" lon="11.69221">
        <ele>599.82</ele>
      </trkpt>
      <trkpt lat="47.32503" lon="11.69192">
        <ele>601.84</ele>
      </trkpt>
      <trkpt lat="47.3249" lon="11.6916">
        <ele>601.4</ele>
      </trkpt>
      <trkpt lat="47.32475" lon="11.69129">
        <ele>600.86</ele>
      </trkpt>
      <trkpt lat="47.32474" lon="11.69119">
        <ele>598.65</ele>
      </trkpt>
      <trkpt lat="47.32463" lon="11.69109">
        <ele>602.12</ele>
      </trkpt>
      <trkpt lat="47.32457" lon="11.69096">
        <ele>601.98</ele>
      </trkpt>
      <trkpt lat="47.32452" lon="11.69081">
        <ele>600.36</ele>
      </trkpt>
      <trkpt lat="47.32451" lon="11.69069">
        <ele>596.64</ele>
      </trkpt>
      <trkpt lat="47.3244" lon="11.69051">
        <ele>595.44</ele>
      </trkpt>
      <trkpt lat="47.32411" lon="11.69021">
        <ele>597.03</ele>
      </trkpt>
      <trkpt lat="47.32397" lon="11.69017">
        <ele>602.1</ele>
      </trkpt>
      <trkpt lat="47.32395" lon="11.69007">
        <ele>599.85</ele>
      </trkpt>
      <trkpt lat="47.32391" lon="11.68993">
        <ele>598.03</ele>
      </trkpt>
      <trkpt lat="47.32387" lon="11.68991">
        <ele>599.66</ele>
      </trkpt>
      <trkpt lat="47.32383" lon="11.6897">
        <ele>597.11</ele>
      </trkpt>
      <trkpt lat="47.32371" lon="11.68945">
        <ele>598.11</ele>
      </trkpt>
      <trkpt lat="47.32362" lon="11.68935">
        <ele>600.34</ele>
      </trkpt>
      <trkpt lat="47.3236" lon="11.68926">
        <ele>599.15</ele>
      </trkpt>
      <trkpt lat="47.32337" lon="11.68882">
        <ele>598.57</ele>
      </trkpt>
      <trkpt lat="47.32326" lon="11.68868">
        <ele>599.09</ele>
      </trkpt>
      <trkpt lat="47.32321" lon="11.68845">
        <ele>595.15</ele>
      </trkpt>
      <trkpt lat="47.32311" lon="11.68823">
        <ele>592.23</ele>
      </trkpt>
      <trkpt lat="47.32294" lon="11.68805">
        <ele>592.27</ele>
      </trkpt>
      <trkpt lat="47.32278" lon="11.68803">
        <ele>596.45</ele>
      </trkpt>
      <trkpt lat="47.32278" lon="11.68771">
        <ele>591.49</ele>
      </trkpt>
      <trkpt lat="47.32271" lon="11.68733">
        <ele>588.28</ele>
      </trkpt>
      <trkpt lat="47.32263" lon="11.68717">
        <ele>589.25</ele>
      </trkpt>
      <trkpt lat="47.32258" lon="11.68711">
        <ele>590.42</ele>
      </trkpt>
      <trkpt lat="47.32251" lon="11.6871">
        <ele>593.17</ele>
      </trkpt>
      <trkpt lat="47.32249" lon="11.68683">
        <ele>588.41</ele>
      </trkpt>
      <trkpt lat="47.32249" lon="11.68665">
        <ele>583.94</ele>
      </trkpt>
      <trkpt lat="47.32246" lon="11.68652">
        <ele>581.08</ele>
      </trkpt>
      <trkpt lat="47.3224" lon="11.68638">
        <ele>578.38</ele>
      </trkpt>
      <trkpt lat="47.3222" lon="11.68624">
        <ele>582.12</ele>
      </trkpt>
      <trkpt lat="47.32213" lon="11.68618">
        <ele>583.61</ele>
      </trkpt>
      <trkpt lat="47.32208" lon="11.68609">
        <ele>583.51</ele>
      </trkpt>
      <trkpt lat="47.32207" lon="11.68602">
        <ele>582.08</ele>
      </trkpt>
      <trkpt lat="47.32206" lon="11.68592">
        <ele>580.03</ele>
      </trkpt>
      <trkpt lat="47.3221" lon="11.68585">
        <ele>576.02</ele>
      </trkpt>
      <trkpt lat="47.32212" lon="11.68578">
        <ele>573.32</ele>
      </trkpt>
      <trkpt lat="47.3221" lon="11.68571">
        <ele>573.07</ele>
      </trkpt>
      <trkpt lat="47.3221" lon="11.68566">
        <ele>572.12</ele>
      </trkpt>
      <trkpt lat="47.32205" lon="11.68557">
        <ele>573.38</ele>
      </trkpt>
      <trkpt lat="47.32206" lon="11.68546">
        <ele>570.9</ele>
      </trkpt>
      <trkpt lat="47.32199" lon="11.68531">
        <ele>572.12</ele>
      </trkpt>
      <trkpt lat="47.32194" lon="11.6851">
        <ele>570.65</ele>
      </trkpt>
      <trkpt lat="47.32186" lon="11.68501">
        <ele>572.21</ele>
      </trkpt>
      <trkpt lat="47.32178" lon="11.68485">
        <ele>570.99</ele>
      </trkpt>
      <trkpt lat="47.32161" lon="11.68463">
        <ele>568.51</ele>
      </trkpt>
      <trkpt lat="47.32158" lon="11.68427">
        <ele>557.94</ele>
      </trkpt>
      <trkpt lat="47.32151" lon="11.68401">
        <ele>555.52</ele>
      </trkpt>
      <trkpt lat="47.32151" lon="11.68384">
        <ele>554.44</ele>
      </trkpt>
      <trkpt lat="47.32137" lon="11.68363">
        <ele>556.41</ele>
      </trkpt>
      <trkpt lat="47.32128" lon="11.68343">
        <ele>556.66</ele>
      </trkpt>
      <trkpt lat="47.32119" lon="11.68321">
        <ele>556.23</ele>
      </trkpt>
      <trkpt lat="47.3211" lon="11.68299">
        <ele>556.38</ele>
      </trkpt>
      <trkpt lat="47.32097" lon="11.68279">
        <ele>557.21</ele>
      </trkpt>
      <trkpt lat="47.32063" lon="11.68237">
        <ele>558.65</ele>
      </trkpt>
      <trkpt lat="47.32047" lon="11.68214">
        <ele>557.83</ele>
      </trkpt>
      <trkpt lat="47.32038" lon="11.68198">
        <ele>556.85</ele>
      </trkpt>
      <trkpt lat="47.3202" lon="11.68162">
        <ele>555.31</ele>
      </trkpt>
      <trkpt lat="47.32006" lon="11.68124">
        <ele>555.75</ele>
      </trkpt>
      <trkpt lat="47.32002" lon="11.68125">
        <ele>556.4</ele>
      </trkpt>
      <trkpt lat="47.31961" lon="11.68094">
        <ele>561.26</ele>
      </trkpt>
      <trkpt lat="47.31925" lon="11.68073">
        <ele>563.64</ele>
      </trkpt>
      <trkpt lat="47.31911" lon="11.68057">
        <ele>564.79</ele>
      </trkpt>
      <trkpt lat="47.3189" lon="11.68021">
        <ele>568.33</ele>
      </trkpt>
      <trkpt lat="47.31872" lon="11.67999">
        <ele>572.83</ele>
      </trkpt>
      <trkpt lat="47.31842" lon="11.67965">
        <ele>578.78</ele>
      </trkpt>
      <trkpt lat="47.31821" lon="11.67931">
        <ele>580.66</ele>
      </trkpt>
      <trkpt lat="47.31757" lon="11.6779">
        <ele>595.03</ele>
      </trkpt>
      <trkpt lat="47.31727" lon="11.6768">
        <ele>606.48</ele>
      </trkpt>
      <trkpt lat="47.3172" lon="11.67664">
        <ele>608.36</ele>
      </trkpt>
      <trkpt lat="47.31713" lon="11.67651">
        <ele>610.1</ele>
      </trkpt>
      <trkpt lat="47.31689" lon="11.67625">
        <ele>617.01</ele>
      </trkpt>
      <trkpt lat="47.3168" lon="11.67613">
        <ele>618.73</ele>
      </trkpt>
      <trkpt lat="47.31669" lon="11.67583">
        <ele>618.16</ele>
      </trkpt>
      <trkpt lat="47.3166" lon="11.67561">
        <ele>618.34</ele>
      </trkpt>
      <trkpt lat="47.31645" lon="11.67539">
        <ele>618.9</ele>
      </trkpt>
      <trkpt lat="47.31634" lon="11.67534">
        <ele>619.57</ele>
      </trkpt>
      <trkpt lat="47.31623" lon="11.67536">
        <ele>621.13</ele>
      </trkpt>
      <trkpt lat="47.31609" lon="11.67542">
        <ele>623.98</ele>
      </trkpt>
      <trkpt lat="47.31585" lon="11.67559">
        <ele>631.69</ele>
      </trkpt>
      <trkpt lat="47.31568" lon="11.67568">
        <ele>636.26</ele>
      </trkpt>
      <trkpt lat="47.31545" lon="11.6757">
        <ele>638.17</ele>
      </trkpt>
      <trkpt lat="47.31462" lon="11.67571">
        <ele>645.94</ele>
      </trkpt>
      <trkpt lat="47.31447" lon="11.67568">
        <ele>647.52</ele>
      </trkpt>
      <trkpt lat="47.31432" lon="11.67564">
        <ele>649.25</ele>
      </trkpt>
      <trkpt lat="47.31405" lon="11.67549">
        <ele>651.7</ele>
      </trkpt>
      <trkpt lat="47.31373" lon="11.67529">
        <ele>655.27</ele>
      </trkpt>
      <trkpt lat="47.3134" lon="11.67512">
        <ele>658.44</ele>
      </trkpt>
      <trkpt lat="47.313" lon="11.67493">
        <ele>659.18</ele>
      </trkpt>
      <trkpt lat="47.31259" lon="11.67474">
        <ele>655.65</ele>
      </trkpt>
      <trkpt lat="47.3125" lon="11.67474">
        <ele>656.81</ele>
      </trkpt>
      <trkpt lat="47.31244" lon="11.67477">
        <ele>658.79</ele>
      </trkpt>
      <trkpt lat="47.31241" lon="11.67484">
        <ele>661.96</ele>
      </trkpt>
      <trkpt lat="47.31241" lon="11.67492">
        <ele>665.19</ele>
      </trkpt>
      <trkpt lat="47.31244" lon="11.675">
        <ele>668.2</ele>
      </trkpt>
      <trkpt lat="47.3125" lon="11.67504">
        <ele>669.51</ele>
      </trkpt>
      <trkpt lat="47.3127" lon="11.67509">
        <ele>669.75</ele>
      </trkpt>
      <trkpt lat="47.31291" lon="11.67521">
        <ele>670.96</ele>
      </trkpt>
      <trkpt lat="47.31307" lon="11.67538">
        <ele>672.98</ele>
      </trkpt>
      <trkpt lat="47.31324" lon="11.67567">
        <ele>676.35</ele>
      </trkpt>
      <trkpt lat="47.31361" lon="11.67632">
        <ele>683.61</ele>
      </trkpt>
      <trkpt lat="47.31372" lon="11.67649">
        <ele>686.26</ele>
      </trkpt>
      <trkpt lat="47.31387" lon="11.67666">
        <ele>689.22</ele>
      </trkpt>
      <trkpt lat="47.31402" lon="11.67677">
        <ele>691.2</ele>
      </trkpt>
      <trkpt lat="47.31419" lon="11.67685">
        <ele>692.38</ele>
      </trkpt>
      <trkpt lat="47.31469" lon="11.677">
        <ele>695.31</ele>
      </trkpt>
      <trkpt lat="47.31482" lon="11.67705">
        <ele>695.99</ele>
      </trkpt>
      <trkpt lat="47.31488" lon="11.6771">
        <ele>697.04</ele>
      </trkpt>
      <trkpt lat="47.31497" lon="11.67717">
        <ele>697.91</ele>
      </trkpt>
      <trkpt lat="47.31504" lon="11.67728">
        <ele>699.88</ele>
      </trkpt>
      <trkpt lat="47.31508" lon="11.67739">
        <ele>702.03</ele>
      </trkpt>
      <trkpt lat="47.31512" lon="11.67756">
        <ele>704.95</ele>
      </trkpt>
      <trkpt lat="47.31513" lon="11.67786">
        <ele>709.49</ele>
      </trkpt>
      <trkpt lat="47.31515" lon="11.67853">
        <ele>715.91</ele>
      </trkpt>
      <trkpt lat="47.31517" lon="11.67873">
        <ele>717.14</ele>
      </trkpt>
      <trkpt lat="47.31521" lon="11.67891">
        <ele>717.64</ele>
      </trkpt>
      <trkpt lat="47.31534" lon="11.67921">
        <ele>717.53</ele>
      </trkpt>
      <trkpt lat="47.31546" lon="11.67948">
        <ele>718.47</ele>
      </trkpt>
      <trkpt lat="47.31552" lon="11.67968">
        <ele>719.59</ele>
      </trkpt>
      <trkpt lat="47.31554" lon="11.67987">
        <ele>720.58</ele>
      </trkpt>
      <trkpt lat="47.31554" lon="11.68009">
        <ele>720.43</ele>
      </trkpt>
      <trkpt lat="47.31552" lon="11.68024">
        <ele>719.93</ele>
      </trkpt>
      <trkpt lat="47.31548" lon="11.68032">
        <ele>720.15</ele>
      </trkpt>
      <trkpt lat="47.3154" lon="11.68036">
        <ele>721.73</ele>
      </trkpt>
      <trkpt lat="47.31532" lon="11.68034">
        <ele>724</ele>
      </trkpt>
      <trkpt lat="47.31525" lon="11.68024">
        <ele>726.74</ele>
      </trkpt>
      <trkpt lat="47.31516" lon="11.67997">
        <ele>730.19</ele>
      </trkpt>
      <trkpt lat="47.3151" lon="11.67985">
        <ele>731.34</ele>
      </trkpt>
      <trkpt lat="47.31513" lon="11.67975">
        <ele>729.92</ele>
      </trkpt>
      <trkpt lat="47.31512" lon="11.67966">
        <ele>729.23</ele>
      </trkpt>
      <trkpt lat="47.31505" lon="11.67954">
        <ele>729.36</ele>
      </trkpt>
      <trkpt lat="47.31491" lon="11.67936">
        <ele>730.18</ele>
      </trkpt>
      <trkpt lat="47.31485" lon="11.67923">
        <ele>729.87</ele>
      </trkpt>
      <trkpt lat="47.31482" lon="11.67899">
        <ele>728.61</ele>
      </trkpt>
      <trkpt lat="47.31476" lon="11.67876">
        <ele>728.33</ele>
      </trkpt>
      <trkpt lat="47.31467" lon="11.67854">
        <ele>727.88</ele>
      </trkpt>
      <trkpt lat="47.31456" lon="11.67838">
        <ele>727.07</ele>
      </trkpt>
      <trkpt lat="47.31442" lon="11.67825">
        <ele>726.42</ele>
      </trkpt>
      <trkpt lat="47.31429" lon="11.67815">
        <ele>726.83</ele>
      </trkpt>
      <trkpt lat="47.31399" lon="11.67798">
        <ele>731.86</ele>
      </trkpt>
      <trkpt lat="47.3139" lon="11.67798">
        <ele>734.27</ele>
      </trkpt>
      <trkpt lat="47.31292" lon="11.67725">
        <ele>742.46</ele>
      </trkpt>
      <trkpt lat="47.31229" lon="11.67751">
        <ele>771.26</ele>
      </trkpt>
      <trkpt lat="47.31187" lon="11.67736">
        <ele>766.28</ele>
      </trkpt>
      <trkpt lat="47.31147" lon="11.67753">
        <ele>780.96</ele>
      </trkpt>
      <trkpt lat="47.31097" lon="11.6773">
        <ele>792.26</ele>
      </trkpt>
      <trkpt lat="47.31089" lon="11.67728">
        <ele>793.45</ele>
      </trkpt>
      <trkpt lat="47.31081" lon="11.67727">
        <ele>794.35</ele>
      </trkpt>
      <trkpt lat="47.31072" lon="11.67729">
        <ele>796.04</ele>
      </trkpt>
      <trkpt lat="47.31061" lon="11.67734">
        <ele>798.28</ele>
      </trkpt>
      <trkpt lat="47.31054" lon="11.67734">
        <ele>797.89</ele>
      </trkpt>
      <trkpt lat="47.31044" lon="11.67729">
        <ele>794.77</ele>
      </trkpt>
      <trkpt lat="47.30953" lon="11.67718">
        <ele>785.9</ele>
      </trkpt>
      <trkpt lat="47.30889" lon="11.67707">
        <ele>780.58</ele>
      </trkpt>
      <trkpt lat="47.30827" lon="11.67694">
        <ele>774.73</ele>
      </trkpt>
      <trkpt lat="47.30814" lon="11.67689">
        <ele>773.39</ele>
      </trkpt>
      <trkpt lat="47.30804" lon="11.67688">
        <ele>773.22</ele>
      </trkpt>
      <trkpt lat="47.30784" lon="11.67691">
        <ele>773.91</ele>
      </trkpt>
      <trkpt lat="47.30782" lon="11.67689">
        <ele>774</ele>
      </trkpt>
      <trkpt lat="47.3078" lon="11.67685">
        <ele>774.15</ele>
      </trkpt>
      <trkpt lat="47.3078" lon="11.67645">
        <ele>773.65</ele>
      </trkpt>
      <trkpt lat="47.30782" lon="11.67638">
        <ele>773.01</ele>
      </trkpt>
      <trkpt lat="47.30787" lon="11.67634">
        <ele>771.4</ele>
      </trkpt>
      <trkpt lat="47.30801" lon="11.6762">
        <ele>766.21</ele>
      </trkpt>
      <trkpt lat="47.30815" lon="11.67601">
        <ele>760.08</ele>
      </trkpt>
      <trkpt lat="47.30818" lon="11.67585">
        <ele>758.8</ele>
      </trkpt>
      <trkpt lat="47.30819" lon="11.67574">
        <ele>759.19</ele>
      </trkpt>
      <trkpt lat="47.30832" lon="11.67539">
        <ele>760.13</ele>
      </trkpt>
      <trkpt lat="47.30842" lon="11.67506">
        <ele>762.93</ele>
      </trkpt>
      <trkpt lat="47.30856" lon="11.67485">
        <ele>759.86</ele>
      </trkpt>
      <trkpt lat="47.30882" lon="11.67426">
        <ele>759.67</ele>
      </trkpt>
      <trkpt lat="47.30897" lon="11.67407">
        <ele>759.46</ele>
      </trkpt>
      <trkpt lat="47.30919" lon="11.67374">
        <ele>765.72</ele>
      </trkpt>
      <trkpt lat="47.30934" lon="11.67358">
        <ele>768.01</ele>
      </trkpt>
      <trkpt lat="47.30941" lon="11.67349">
        <ele>768.94</ele>
      </trkpt>
      <trkpt lat="47.3094" lon="11.67341">
        <ele>770.25</ele>
      </trkpt>
      <trkpt lat="47.30926" lon="11.67325">
        <ele>771.35</ele>
      </trkpt>
      <trkpt lat="47.3091" lon="11.67311">
        <ele>769.5</ele>
      </trkpt>
      <trkpt lat="47.30879" lon="11.67301">
        <ele>770.39</ele>
      </trkpt>
      <trkpt lat="47.30836" lon="11.67289">
        <ele>773.89</ele>
      </trkpt>
      <trkpt lat="47.3081" lon="11.67274">
        <ele>773.24</ele>
      </trkpt>
      <trkpt lat="47.30795" lon="11.67268">
        <ele>773.75</ele>
      </trkpt>
      <trkpt lat="47.30777" lon="11.67266">
        <ele>776.73</ele>
      </trkpt>
      <trkpt lat="47.30769" lon="11.67262">
        <ele>777.05</ele>
      </trkpt>
      <trkpt lat="47.30735" lon="11.67221">
        <ele>773.7</ele>
      </trkpt>
      <trkpt lat="47.30716" lon="11.67208">
        <ele>777.05</ele>
      </trkpt>
      <trkpt lat="47.30609" lon="11.67091">
        <ele>783.27</ele>
      </trkpt>
      <trkpt lat="47.30565" lon="11.67058">
        <ele>791.63</ele>
      </trkpt>
      <trkpt lat="47.30555" lon="11.67053">
        <ele>794.56</ele>
      </trkpt>
      <trkpt lat="47.30552" lon="11.67047">
        <ele>795.55</ele>
      </trkpt>
      <trkpt lat="47.30552" lon="11.67039">
        <ele>795.71</ele>
      </trkpt>
      <trkpt lat="47.30556" lon="11.67027">
        <ele>794.22</ele>
      </trkpt>
      <trkpt lat="47.30563" lon="11.66983">
        <ele>794.49</ele>
      </trkpt>
      <trkpt lat="47.30569" lon="11.66947">
        <ele>800.45</ele>
      </trkpt>
      <trkpt lat="47.30576" lon="11.66924">
        <ele>802.01</ele>
      </trkpt>
      <trkpt lat="47.3059" lon="11.66884">
        <ele>802.57</ele>
      </trkpt>
      <trkpt lat="47.30604" lon="11.66852">
        <ele>802.6</ele>
      </trkpt>
      <trkpt lat="47.30604" lon="11.66845">
        <ele>803.18</ele>
      </trkpt>
      <trkpt lat="47.30601" lon="11.66836">
        <ele>804.14</ele>
      </trkpt>
      <trkpt lat="47.30559" lon="11.66809">
        <ele>813.44</ele>
      </trkpt>
      <trkpt lat="47.30535" lon="11.66796">
        <ele>819.33</ele>
      </trkpt>
      <trkpt lat="47.30512" lon="11.6677">
        <ele>820.46</ele>
      </trkpt>
      <trkpt lat="47.30483" lon="11.66731">
        <ele>824.68</ele>
      </trkpt>
      <trkpt lat="47.30456" lon="11.66689">
        <ele>830.76</ele>
      </trkpt>
      <trkpt lat="47.3042" lon="11.66645">
        <ele>835.97</ele>
      </trkpt>
      <trkpt lat="47.30383" lon="11.66608">
        <ele>833.54</ele>
      </trkpt>
      <trkpt lat="47.30372" lon="11.66597">
        <ele>832.98</ele>
      </trkpt>
      <trkpt lat="47.30364" lon="11.66595">
        <ele>834.57</ele>
      </trkpt>
      <trkpt lat="47.30356" lon="11.66596">
        <ele>836.97</ele>
      </trkpt>
      <trkpt lat="47.3035" lon="11.66601">
        <ele>839.81</ele>
      </trkpt>
      <trkpt lat="47.30348" lon="11.66611">
        <ele>842.71</ele>
      </trkpt>
      <trkpt lat="47.3035" lon="11.66657">
        <ele>851.36</ele>
      </trkpt>
      <trkpt lat="47.30346" lon="11.66647">
        <ele>849.99</ele>
      </trkpt>
      <trkpt lat="47.30338" lon="11.66631">
        <ele>848.4</ele>
      </trkpt>
      <trkpt lat="47.30324" lon="11.66615">
        <ele>848.2</ele>
      </trkpt>
      <trkpt lat="47.30313" lon="11.66597">
        <ele>846.86</ele>
      </trkpt>
      <trkpt lat="47.30301" lon="11.6657">
        <ele>841.72</ele>
      </trkpt>
      <trkpt lat="47.30274" lon="11.66519">
        <ele>828.11</ele>
      </trkpt>
      <trkpt lat="47.30268" lon="11.66505">
        <ele>825.39</ele>
      </trkpt>
      <trkpt lat="47.30261" lon="11.66473">
        <ele>819.66</ele>
      </trkpt>
      <trkpt lat="47.30257" lon="11.66447">
        <ele>815.38</ele>
      </trkpt>
      <trkpt lat="47.30257" lon="11.66424">
        <ele>811.56</ele>
      </trkpt>
      <trkpt lat="47.30232" lon="11.6642">
        <ele>818</ele>
      </trkpt>
      <trkpt lat="47.30222" lon="11.66417">
        <ele>821.51</ele>
      </trkpt>
      <trkpt lat="47.30217" lon="11.6641">
        <ele>822.75</ele>
      </trkpt>
      <trkpt lat="47.30216" lon="11.66401">
        <ele>822.2</ele>
      </trkpt>
      <trkpt lat="47.30216" lon="11.66391">
        <ele>821.24</ele>
      </trkpt>
      <trkpt lat="47.3022" lon="11.66371">
        <ele>817.81</ele>
      </trkpt>
      <trkpt lat="47.3022" lon="11.66365">
        <ele>817.35</ele>
      </trkpt>
      <trkpt lat="47.30218" lon="11.66358">
        <ele>817.68</ele>
      </trkpt>
      <trkpt lat="47.30194" lon="11.66303">
        <ele>823.76</ele>
      </trkpt>
      <trkpt lat="47.30188" lon="11.66296">
        <ele>825.54</ele>
      </trkpt>
      <trkpt lat="47.301879" lon="11.662959">
        <ele>825.75</ele>
        </trkpt>
      <trkpt lat="47.301915" lon="11.662999">
        <ele>825.25</ele>
        </trkpt>
      <trkpt lat="47.301969" lon="11.662817">
        <ele>822</ele>
        </trkpt>
      <trkpt lat="47.301986" lon="11.662693">
        <ele>820.25</ele>
        </trkpt>
      <trkpt lat="47.30196" lon="11.662577">
        <ele>820</ele>
        </trkpt>
      <trkpt lat="47.301494" lon="11.662259">
        <ele>825.5</ele>
        </trkpt>
      <trkpt lat="47.301398" lon="11.662222">
        <ele>826</ele>
        </trkpt>
      <trkpt lat="47.301306" lon="11.662232">
        <ele>827.5</ele>
        </trkpt>
      <trkpt lat="47.30124" lon="11.662167">
        <ele>827.25</ele>
        </trkpt>
      <trkpt lat="47.301182" lon="11.662078">
        <ele>826.25</ele>
        </trkpt>
      <trkpt lat="47.300945" lon="11.661802">
        <ele>825.25</ele>
        </trkpt>
      <trkpt lat="47.300782" lon="11.661773">
        <ele>827.25</ele>
        </trkpt>
      <trkpt lat="47.300647" lon="11.661704">
        <ele>827.5</ele>
        </trkpt>
      <trkpt lat="47.300131" lon="11.661422">
        <ele>829.5</ele>
        </trkpt>
      <trkpt lat="47.300074" lon="11.661353">
        <ele>829.25</ele>
        </trkpt>
      <trkpt lat="47.300122" lon="11.661294">
        <ele>828</ele>
        </trkpt>
      <trkpt lat="47.300241" lon="11.661245">
        <ele>826</ele>
        </trkpt>
      <trkpt lat="47.300356" lon="11.661168">
        <ele>823.75</ele>
        </trkpt>
      <trkpt lat="47.300375" lon="11.66113">
        <ele>823</ele>
        </trkpt>
      <trkpt lat="47.300383" lon="11.661033">
        <ele>821.75</ele>
        </trkpt>
      <trkpt lat="47.300377" lon="11.660965">
        <ele>821</ele>
        </trkpt>
      <trkpt lat="47.30043" lon="11.660946">
        <ele>820.25</ele>
        </trkpt>
      <trkpt lat="47.300512" lon="11.660894">
        <ele>818.5</ele>
        </trkpt>
      <trkpt lat="47.300538" lon="11.660839">
        <ele>817.5</ele>
        </trkpt>
      <trkpt lat="47.300531" lon="11.66077">
        <ele>817.25</ele>
        </trkpt>
      <trkpt lat="47.300499" lon="11.660685">
        <ele>817</ele>
        </trkpt>
      <trkpt lat="47.300277" lon="11.660297">
        <ele>816</ele>
        </trkpt>
      <trkpt lat="47.299228" lon="11.659484">
        <ele>817</ele>
        </trkpt>
      <trkpt lat="47.299195" lon="11.659472">
        <ele>817.25</ele>
        </trkpt>
      <trkpt lat="47.299153" lon="11.659433">
        <ele>817.25</ele>
        </trkpt>
      <trkpt lat="47.299142" lon="11.6594">
        <ele>817</ele>
        </trkpt>
      <trkpt lat="47.299128" lon="11.659358">
        <ele>817</ele>
        </trkpt>
      <trkpt lat="47.299084" lon="11.659136">
        <ele>815.5</ele>
        </trkpt>
      <trkpt lat="47.298827" lon="11.658919">
        <ele>816.25</ele>
        </trkpt>
      <trkpt lat="47.298378" lon="11.658278">
        <ele>812.25</ele>
        </trkpt>
      <trkpt lat="47.298291" lon="11.658167">
        <ele>812</ele>
        </trkpt>
      <trkpt lat="47.298199" lon="11.658069">
        <ele>812</ele>
        </trkpt>
      <trkpt lat="47.298092" lon="11.657991">
        <ele>812</ele>
        </trkpt>
      <trkpt lat="47.297979" lon="11.657928">
        <ele>812</ele>
        </trkpt>
      <trkpt lat="47.297366" lon="11.65766">
        <ele>813</ele>
        </trkpt>
      <trkpt lat="47.297282" lon="11.657618">
        <ele>814.5</ele>
        </trkpt>
      <trkpt lat="47.29728" lon="11.657618">
        <ele>813.5</ele>
        </trkpt>
      <trkpt lat="47.297113" lon="11.657536">
        <ele>814.5</ele>
        </trkpt>
      <trkpt lat="47.296878" lon="11.657274">
        <ele>814.5</ele>
        </trkpt>
      <trkpt lat="47.29676" lon="11.65716">
        <ele>814.75</ele>
        </trkpt>
      <trkpt lat="47.296701" lon="11.657126">
        <ele>815</ele>
        </trkpt>
      <trkpt lat="47.296642" lon="11.657118">
        <ele>815.5</ele>
        </trkpt>
      <trkpt lat="47.296503" lon="11.657159">
        <ele>817.25</ele>
        </trkpt>
      <trkpt lat="47.296342" lon="11.657237">
        <ele>819.5</ele>
        </trkpt>
      <trkpt lat="47.295654" lon="11.657549">
        <ele>829.25</ele>
        </trkpt>
      <trkpt lat="47.295395" lon="11.657698">
        <ele>833.5</ele>
        </trkpt>
      <trkpt lat="47.294916" lon="11.65801">
        <ele>841.25</ele>
        </trkpt>
      <trkpt lat="47.294802" lon="11.658107">
        <ele>843.25</ele>
        </trkpt>
      <trkpt lat="47.294703" lon="11.658207">
        <ele>845.25</ele>
        </trkpt>
      <trkpt lat="47.294697" lon="11.658224">
        <ele>845.5</ele>
        </trkpt>
      <trkpt lat="47.294622" lon="11.658087">
        <ele>845.25</ele>
        </trkpt>
      <trkpt lat="47.294537" lon="11.657885">
        <ele>844.25</ele>
        </trkpt>
      <trkpt lat="47.294444" lon="11.657791">
        <ele>844.5</ele>
        </trkpt>
      <trkpt lat="47.294311" lon="11.657807">
        <ele>846.25</ele>
        </trkpt>
      <trkpt lat="47.294159" lon="11.657741">
        <ele>847.25</ele>
        </trkpt>
      <trkpt lat="47.294041" lon="11.657639">
        <ele>846</ele>
        </trkpt>
      <trkpt lat="47.293911" lon="11.657497">
        <ele>844.5</ele>
        </trkpt>
      <trkpt lat="47.293761" lon="11.657292">
        <ele>841.5</ele>
        </trkpt>
      <trkpt lat="47.293577" lon="11.657103">
        <ele>838.75</ele>
        </trkpt>
      <trkpt lat="47.293431" lon="11.656885">
        <ele>835.75</ele>
        </trkpt>
      <trkpt lat="47.29327" lon="11.656669">
        <ele>833</ele>
        </trkpt>
      <trkpt lat="47.293091" lon="11.656359">
        <ele>828.75</ele>
        </trkpt>
      <trkpt lat="47.292972" lon="11.656164">
        <ele>825</ele>
        </trkpt>
      <trkpt lat="47.292902" lon="11.656098">
        <ele>823.25</ele>
        </trkpt>
      <trkpt lat="47.29279" lon="11.656045">
        <ele>821</ele>
        </trkpt>
      <trkpt lat="47.292669" lon="11.656178">
        <ele>822.5</ele>
        </trkpt>
      <trkpt lat="47.292447" lon="11.656271">
        <ele>822.5</ele>
        </trkpt>
      <trkpt lat="47.292311" lon="11.656303">
        <ele>821.25</ele>
        </trkpt>
      <trkpt lat="47.292182" lon="11.656318">
        <ele>819.75</ele>
        </trkpt>
      <trkpt lat="47.291995" lon="11.656211">
        <ele>814</ele>
        </trkpt>
      <trkpt lat="47.291621" lon="11.656298">
        <ele>811</ele>
        </trkpt>
      <trkpt lat="47.291571" lon="11.656366">
        <ele>813</ele>
        </trkpt>
      <trkpt lat="47.291094" lon="11.656617">
        <ele>820.75</ele>
        </trkpt>
      <trkpt lat="47.290939" lon="11.656731">
        <ele>824.5</ele>
        </trkpt>
      <trkpt lat="47.290855" lon="11.65682">
        <ele>826.75</ele>
        </trkpt>
      <trkpt lat="47.290808" lon="11.656827">
        <ele>827.5</ele>
        </trkpt>
      <trkpt lat="47.290767" lon="11.656743">
        <ele>825.75</ele>
        </trkpt>
      <trkpt lat="47.290646" lon="11.656661">
        <ele>825</ele>
        </trkpt>
      <trkpt lat="47.290477" lon="11.656703">
        <ele>828</ele>
        </trkpt>
      <trkpt lat="47.290467" lon="11.656767">
        <ele>829.75</ele>
        </trkpt>
      <trkpt lat="47.290425" lon="11.656869">
        <ele>833</ele>
        </trkpt>
      <trkpt lat="47.29034" lon="11.656894">
        <ele>834.5</ele>
        </trkpt>
      <trkpt lat="47.290283" lon="11.656851">
        <ele>834</ele>
        </trkpt>
      <trkpt lat="47.290162" lon="11.656637">
        <ele>829.75</ele>
        </trkpt>
      <trkpt lat="47.289994" lon="11.656506">
        <ele>826.75</ele>
        </trkpt>
      <trkpt lat="47.289866" lon="11.656444">
        <ele>824</ele>
        </trkpt>
      <trkpt lat="47.289718" lon="11.65651">
        <ele>826</ele>
        </trkpt>
      <trkpt lat="47.289672" lon="11.656595">
        <ele>829</ele>
        </trkpt>
      <trkpt lat="47.28962" lon="11.656643">
        <ele>830.75</ele>
        </trkpt>
      <trkpt lat="47.289575" lon="11.656533">
        <ele>826.5</ele>
        </trkpt>
      <trkpt lat="47.289481" lon="11.656365">
        <ele>820</ele>
        </trkpt>
      <trkpt lat="47.289374" lon="11.656326">
        <ele>818.5</ele>
        </trkpt>
      <trkpt lat="47.289165" lon="11.65635">
        <ele>818.75</ele>
        </trkpt>
      <trkpt lat="47.289069" lon="11.656418">
        <ele>821.25</ele>
        </trkpt>
      <trkpt lat="47.288981" lon="11.656465">
        <ele>823</ele>
        </trkpt>
      <trkpt lat="47.289011" lon="11.656414">
        <ele>821.25</ele>
        </trkpt>
      <trkpt lat="47.289251" lon="11.656112">
        <ele>810.75</ele>
        </trkpt>
      <trkpt lat="47.289319" lon="11.655947">
        <ele>805</ele>
        </trkpt>
      <trkpt lat="47.289382" lon="11.655745">
        <ele>798.25</ele>
        </trkpt>
      <trkpt lat="47.289321" lon="11.655536">
        <ele>792.25</ele>
        </trkpt>
      <trkpt lat="47.289302" lon="11.655381">
        <ele>788</ele>
        </trkpt>
      <trkpt lat="47.289394" lon="11.655338">
        <ele>786.5</ele>
        </trkpt>
      <trkpt lat="47.289529" lon="11.65536">
        <ele>786.5</ele>
        </trkpt>
      <trkpt lat="47.289606" lon="11.655409">
        <ele>787.75</ele>
        </trkpt>
      <trkpt lat="47.289675" lon="11.655542">
        <ele>791.75</ele>
        </trkpt>
      <trkpt lat="47.289739" lon="11.655553">
        <ele>792</ele>
        </trkpt>
      <trkpt lat="47.289812" lon="11.655525">
        <ele>791</ele>
        </trkpt>
      <trkpt lat="47.289953" lon="11.655437">
        <ele>787.75</ele>
        </trkpt>
      <trkpt lat="47.290082" lon="11.655389">
        <ele>785</ele>
        </trkpt>
      <trkpt lat="47.290236" lon="11.655384">
        <ele>783.5</ele>
        </trkpt>
      <trkpt lat="47.290381" lon="11.655464">
        <ele>784.5</ele>
        </trkpt>
      <trkpt lat="47.290438" lon="11.655472">
        <ele>784</ele>
        </trkpt>
      <trkpt lat="47.290479" lon="11.655438">
        <ele>782.5</ele>
      </trkpt>
      <trkpt lat="47.29048" lon="11.65544">
        <ele>770.4</ele>
      </trkpt>
      <trkpt lat="47.29039" lon="11.65535">
        <ele>767.39</ele>
      </trkpt>
      <trkpt lat="47.29035" lon="11.65523">
        <ele>763.65</ele>
      </trkpt>
      <trkpt lat="47.29035" lon="11.65489">
        <ele>753.53</ele>
      </trkpt>
      <trkpt lat="47.29033" lon="11.65453">
        <ele>744.01</ele>
      </trkpt>
      <trkpt lat="47.29026" lon="11.65442">
        <ele>740.79</ele>
      </trkpt>
      <trkpt lat="47.29033" lon="11.65436">
        <ele>739.18</ele>
      </trkpt>
      <trkpt lat="47.29034" lon="11.65434">
        <ele>738.59</ele>
      </trkpt>
      <trkpt lat="47.29034" lon="11.65431">
        <ele>737.67</ele>
      </trkpt>
      <trkpt lat="47.29025" lon="11.65417">
        <ele>732.6</ele>
      </trkpt>
      <trkpt lat="47.29011" lon="11.65412">
        <ele>729.92</ele>
      </trkpt>
      <trkpt lat="47.29012" lon="11.654">
        <ele>724.13</ele>
      </trkpt>
      <trkpt lat="47.29025" lon="11.65395">
        <ele>722.04</ele>
      </trkpt>
      <trkpt lat="47.29009" lon="11.65384">
        <ele>714.91</ele>
      </trkpt>
      <trkpt lat="47.29022" lon="11.65382">
        <ele>714.32</ele>
      </trkpt>
      <trkpt lat="47.29006" lon="11.65368">
        <ele>706.04</ele>
      </trkpt>
      <trkpt lat="47.29012" lon="11.65354">
        <ele>699.85</ele>
      </trkpt>
      <trkpt lat="47.29016" lon="11.65346">
        <ele>697.4</ele>
      </trkpt>
      <trkpt lat="47.2903" lon="11.65339">
        <ele>696.48</ele>
      </trkpt>
      <trkpt lat="47.29036" lon="11.6534">
        <ele>697.06</ele>
      </trkpt>
      <trkpt lat="47.29039" lon="11.65347">
        <ele>698.96</ele>
      </trkpt>
      <trkpt lat="47.29043" lon="11.65326">
        <ele>697.01</ele>
      </trkpt>
      <trkpt lat="47.29052" lon="11.65321">
        <ele>698.1</ele>
      </trkpt>
      <trkpt lat="47.2905" lon="11.65314">
        <ele>699.08</ele>
      </trkpt>
      <trkpt lat="47.29056" lon="11.65289">
        <ele>705.93</ele>
      </trkpt>
      <trkpt lat="47.29066" lon="11.65245">
        <ele>716.71</ele>
      </trkpt>
      <trkpt lat="47.29066" lon="11.65228">
        <ele>721.36</ele>
      </trkpt>
      <trkpt lat="47.29128" lon="11.65157">
        <ele>724.7</ele>
      </trkpt>
      <trkpt lat="47.29171" lon="11.65149">
        <ele>721.32</ele>
      </trkpt>
      <trkpt lat="47.29208" lon="11.65149">
        <ele>720.93</ele>
      </trkpt>
      <trkpt lat="47.29223" lon="11.65149">
        <ele>720.9</ele>
      </trkpt>
      <trkpt lat="47.29238" lon="11.65144">
        <ele>722.62</ele>
      </trkpt>
      <trkpt lat="47.29277" lon="11.65118">
        <ele>725.97</ele>
      </trkpt>
      <trkpt lat="47.29327" lon="11.65058">
        <ele>726.3</ele>
      </trkpt>
      <trkpt lat="47.29354" lon="11.65006">
        <ele>727.03</ele>
      </trkpt>
      <trkpt lat="47.29371" lon="11.6496">
        <ele>718.53</ele>
      </trkpt>
      <trkpt lat="47.29389" lon="11.64889">
        <ele>724.41</ele>
      </trkpt>
      <trkpt lat="47.29428" lon="11.64835">
        <ele>721.77</ele>
      </trkpt>
      <trkpt lat="47.29439" lon="11.64812">
        <ele>717.51</ele>
      </trkpt>
      <trkpt lat="47.29439" lon="11.64791">
        <ele>713.69</ele>
      </trkpt>
      <trkpt lat="47.29428" lon="11.6477">
        <ele>711.81</ele>
      </trkpt>
      <trkpt lat="47.29408" lon="11.64747">
        <ele>712.56</ele>
      </trkpt>
      <trkpt lat="47.29359" lon="11.64727">
        <ele>719.03</ele>
      </trkpt>
      <trkpt lat="47.29347" lon="11.64716">
        <ele>719.15</ele>
      </trkpt>
      <trkpt lat="47.29341" lon="11.64702">
        <ele>717.96</ele>
      </trkpt>
      <trkpt lat="47.29341" lon="11.64671">
        <ele>715.3</ele>
      </trkpt>
      <trkpt lat="47.2935" lon="11.64669">
        <ele>714.24</ele>
      </trkpt>
      <trkpt lat="47.29351" lon="11.64669">
        <ele>714.12</ele>
      </trkpt>
      <trkpt lat="47.29372" lon="11.64652">
        <ele>710.84</ele>
      </trkpt>
      <trkpt lat="47.29429" lon="11.64599">
        <ele>699.68</ele>
      </trkpt>
      <trkpt lat="47.29453" lon="11.64555">
        <ele>704.49</ele>
      </trkpt>
      <trkpt lat="47.29461" lon="11.64545">
        <ele>703.1</ele>
      </trkpt>
      <trkpt lat="47.29472" lon="11.64538">
        <ele>700</ele>
      </trkpt>
      <trkpt lat="47.29481" lon="11.64535">
        <ele>697.26</ele>
      </trkpt>
      <trkpt lat="47.29493" lon="11.64534">
        <ele>694.43</ele>
      </trkpt>
      <trkpt lat="47.29504" lon="11.64537">
        <ele>693.9</ele>
      </trkpt>
      <trkpt lat="47.29552" lon="11.64491">
        <ele>681.76</ele>
      </trkpt>
      <trkpt lat="47.29585" lon="11.6442">
        <ele>670.36</ele>
      </trkpt>
      <trkpt lat="47.2958" lon="11.64403">
        <ele>672.89</ele>
      </trkpt>
      <trkpt lat="47.29558" lon="11.64407">
        <ele>680.72</ele>
      </trkpt>
      <trkpt lat="47.29551" lon="11.64396">
        <ele>683.64</ele>
      </trkpt>
      <trkpt lat="47.29579" lon="11.64382">
        <ele>675.67</ele>
      </trkpt>
      <trkpt lat="47.29632" lon="11.6438">
        <ele>656.51</ele>
      </trkpt>
      <trkpt lat="47.29663" lon="11.64363">
        <ele>655.32</ele>
      </trkpt>
      <trkpt lat="47.29673" lon="11.6436">
        <ele>655.83</ele>
      </trkpt>
      <trkpt lat="47.29681" lon="11.64371">
        <ele>652.07</ele>
      </trkpt>
      <trkpt lat="47.29689" lon="11.64403">
        <ele>641.4</ele>
      </trkpt>
      <trkpt lat="47.2971" lon="11.64412">
        <ele>645.69</ele>
      </trkpt>
      <trkpt lat="47.29734" lon="11.6441">
        <ele>652.8</ele>
      </trkpt>
      <trkpt lat="47.2975" lon="11.6439">
        <ele>657.2</ele>
      </trkpt>
      <trkpt lat="47.29756" lon="11.64338">
        <ele>662.63</ele>
      </trkpt>
      <trkpt lat="47.29771" lon="11.64307">
        <ele>657.57</ele>
      </trkpt>
      <trkpt lat="47.2978" lon="11.64302">
        <ele>653.93</ele>
      </trkpt>
      <trkpt lat="47.29792" lon="11.64306">
        <ele>647.47</ele>
      </trkpt>
      <trkpt lat="47.29848" lon="11.64289">
        <ele>631.28</ele>
      </trkpt>
      <trkpt lat="47.29896" lon="11.6429">
        <ele>616.58</ele>
      </trkpt>
      <trkpt lat="47.29921" lon="11.64274">
        <ele>613.71</ele>
      </trkpt>
      <trkpt lat="47.29951" lon="11.64197">
        <ele>612.69</ele>
      </trkpt>
      <trkpt lat="47.29975" lon="11.64179">
        <ele>609.34</ele>
      </trkpt>
      <trkpt lat="47.30001" lon="11.64177">
        <ele>603.32</ele>
      </trkpt>
      <trkpt lat="47.3002" lon="11.64161">
        <ele>601.17</ele>
      </trkpt>
      <trkpt lat="47.30033" lon="11.64158">
        <ele>597.36</ele>
      </trkpt>
      <trkpt lat="47.30051" lon="11.64168">
        <ele>590.93</ele>
      </trkpt>
      <trkpt lat="47.30097" lon="11.6418">
        <ele>577.15</ele>
      </trkpt>
      <trkpt lat="47.30107" lon="11.64176">
        <ele>575.45</ele>
      </trkpt>
      <trkpt lat="47.301" lon="11.64163">
        <ele>578.05</ele>
      </trkpt>
      <trkpt lat="47.30115" lon="11.64166">
        <ele>574.38</ele>
      </trkpt>
      <trkpt lat="47.3013" lon="11.64165">
        <ele>571.12</ele>
      </trkpt>
      <trkpt lat="47.30155" lon="11.64153">
        <ele>566.93</ele>
      </trkpt>
      <trkpt lat="47.30174" lon="11.6415">
        <ele>564.7</ele>
      </trkpt>
      <trkpt lat="47.30196" lon="11.64132">
        <ele>563.82</ele>
      </trkpt>
      <trkpt lat="47.301957" lon="11.641321">
        <ele>564.75</ele>
        </trkpt>
      <trkpt lat="47.301957" lon="11.641319">
        <ele>564.75</ele>
        </trkpt>
      <trkpt lat="47.302094" lon="11.641041">
        <ele>564.5</ele>
        </trkpt>
      <trkpt lat="47.302361" lon="11.640311">
        <ele>563</ele>
        </trkpt>
      <trkpt lat="47.302491" lon="11.639991">
        <ele>562</ele>
        </trkpt>
      <trkpt lat="47.302515" lon="11.639906">
        <ele>562</ele>
        </trkpt>
      <trkpt lat="47.302549" lon="11.639781">
        <ele>562.25</ele>
        </trkpt>
      <trkpt lat="47.302651" lon="11.639479">
        <ele>562.5</ele>
        </trkpt>
      <trkpt lat="47.302724" lon="11.639342">
        <ele>562.5</ele>
        </trkpt>
      <trkpt lat="47.302749" lon="11.639296">
        <ele>562.5</ele>
        </trkpt>
      <trkpt lat="47.303014" lon="11.639018">
        <ele>561</ele>
        </trkpt>
      <trkpt lat="47.303217" lon="11.638875">
        <ele>560</ele>
        </trkpt>
      <trkpt lat="47.303334" lon="11.638793">
        <ele>559.5</ele>
        </trkpt>
      <trkpt lat="47.303638" lon="11.638553">
        <ele>559.25</ele>
        </trkpt>
      <trkpt lat="47.303719" lon="11.638472">
        <ele>559.25</ele>
        </trkpt>
      <trkpt lat="47.303848" lon="11.638341">
        <ele>559.5</ele>
        </trkpt>
      <trkpt lat="47.303952" lon="11.638242">
        <ele>559.5</ele>
        </trkpt>
      <trkpt lat="47.304022" lon="11.638186">
        <ele>559.5</ele>
        </trkpt>
      <trkpt lat="47.304529" lon="11.637784">
        <ele>557.75</ele>
        </trkpt>
      <trkpt lat="47.305096" lon="11.637409">
        <ele>554</ele>
        </trkpt>
      <trkpt lat="47.305327" lon="11.637293">
        <ele>553</ele>
        </trkpt>
      <trkpt lat="47.305419" lon="11.637237">
        <ele>552.5</ele>
        </trkpt>
      <trkpt lat="47.305605" lon="11.637085">
        <ele>551.5</ele>
        </trkpt>
      <trkpt lat="47.305896" lon="11.636784">
        <ele>550.25</ele>
        </trkpt>
      <trkpt lat="47.306998" lon="11.635541">
        <ele>549.5</ele>
        </trkpt>
      <trkpt lat="47.307208" lon="11.635305">
        <ele>549.5</ele>
        </trkpt>
      <trkpt lat="47.307578" lon="11.634904">
        <ele>550</ele>
        </trkpt>
      <trkpt lat="47.307892" lon="11.634482">
        <ele>550.5</ele>
        </trkpt>
      <trkpt lat="47.308085" lon="11.63419">
        <ele>551.25</ele>
        </trkpt>
      <trkpt lat="47.308112" lon="11.634156">
        <ele>551.25</ele>
        </trkpt>
      <trkpt lat="47.308268" lon="11.634015">
        <ele>551.75</ele>
        </trkpt>
      <trkpt lat="47.308297" lon="11.633966">
        <ele>551.75</ele>
        </trkpt>
      <trkpt lat="47.308303" lon="11.633909">
        <ele>551.75</ele>
        </trkpt>
      <trkpt lat="47.308299" lon="11.633854">
        <ele>551.75</ele>
        </trkpt>
      <trkpt lat="47.308198" lon="11.633473">
        <ele>551.25</ele>
        </trkpt>
      <trkpt lat="47.308181" lon="11.633371">
        <ele>551.25</ele>
        </trkpt>
      <trkpt lat="47.308171" lon="11.633251">
        <ele>551</ele>
        </trkpt>
      <trkpt lat="47.308165" lon="11.632468">
        <ele>548.75</ele>
        </trkpt>
      <trkpt lat="47.308171" lon="11.632153">
        <ele>548</ele>
        </trkpt>
      <trkpt lat="47.308171" lon="11.632153">
        <ele>548</ele>
        </trkpt>
      <trkpt lat="47.308175" lon="11.631991">
        <ele>547.75</ele>
        </trkpt>
      <trkpt lat="47.308405" lon="11.631975">
        <ele>548.75</ele>
        </trkpt>
      <trkpt lat="47.308508" lon="11.631885">
        <ele>549</ele>
        </trkpt>
      <trkpt lat="47.308667" lon="11.631882">
        <ele>549.5</ele>
        </trkpt>
      <trkpt lat="47.308858" lon="11.632091">
        <ele>550.25</ele>
        </trkpt>
      <trkpt lat="47.309011" lon="11.632181">
        <ele>550.5</ele>
        </trkpt>
      <trkpt lat="47.30923" lon="11.632413">
        <ele>551</ele>
        </trkpt>
      <trkpt lat="47.309261" lon="11.632404">
        <ele>551.25</ele>
        </trkpt>
      <trkpt lat="47.309312" lon="11.632419">
        <ele>551.25</ele>
        </trkpt>
      <trkpt lat="47.30942" lon="11.632497">
        <ele>551.75</ele>
        </trkpt>
      <trkpt lat="47.309524" lon="11.632531">
        <ele>552.25</ele>
        </trkpt>
      <trkpt lat="47.309672" lon="11.6326">
        <ele>552.5</ele>
        </trkpt>
      <trkpt lat="47.309819" lon="11.632634">
        <ele>553</ele>
        </trkpt>
      <trkpt lat="47.309988" lon="11.632638">
        <ele>553.75</ele>
        </trkpt>
      <trkpt lat="47.310052" lon="11.632768">
        <ele>553.25</ele>
        </trkpt>
      <trkpt lat="47.310222" lon="11.633055">
        <ele>550.75</ele>
        </trkpt>
      <trkpt lat="47.310248" lon="11.633101">
        <ele>550.25</ele>
        </trkpt>
      <trkpt lat="47.310268" lon="11.633137">
        <ele>550</ele>
        </trkpt>
      <trkpt lat="47.310689" lon="11.633992">
        <ele>550</ele>
        </trkpt>
      <trkpt lat="47.310754" lon="11.634094">
        <ele>550</ele>
        </trkpt>
      <trkpt lat="47.310901" lon="11.634035">
        <ele>550</ele>
        </trkpt>
      <trkpt lat="47.310977" lon="11.634021">
        <ele>550</ele>
        </trkpt>
      <trkpt lat="47.311408" lon="11.634034">
        <ele>549.5</ele>
        </trkpt>
      <trkpt lat="47.311487" lon="11.634032">
        <ele>549.5</ele>
        </trkpt>
      <trkpt lat="47.311566" lon="11.634017">
        <ele>549.25</ele>
        </trkpt>
      <trkpt lat="47.311701" lon="11.633956">
        <ele>548.75</ele>
        </trkpt>
      <trkpt lat="47.311796" lon="11.633886">
        <ele>548</ele>
        </trkpt>
      <trkpt lat="47.311906" lon="11.633773">
        <ele>547.5</ele>
        </trkpt>
      <trkpt lat="47.312529" lon="11.632956">
        <ele>543.25</ele>
        </trkpt>
      <trkpt lat="47.312908" lon="11.632441">
        <ele>543.25</ele>
        </trkpt>
      <trkpt lat="47.313174" lon="11.632092">
        <ele>543.5</ele>
        </trkpt>
      <trkpt lat="47.313292" lon="11.631969">
        <ele>543.75</ele>
        </trkpt>
      <trkpt lat="47.313361" lon="11.631924">
        <ele>544</ele>
        </trkpt>
      <trkpt lat="47.313441" lon="11.631885">
        <ele>544.25</ele>
        </trkpt>
      <trkpt lat="47.313555" lon="11.63185">
        <ele>544.75</ele>
        </trkpt>
      <trkpt lat="47.313697" lon="11.631841">
        <ele>545.25</ele>
        </trkpt>
      <trkpt lat="47.313696" lon="11.632072">
        <ele>545</ele>
        </trkpt>
      <trkpt lat="47.313712" lon="11.632127">
        <ele>545</ele>
        </trkpt>
      <trkpt lat="47.313757" lon="11.632208">
        <ele>545</ele>
        </trkpt>
      <trkpt lat="47.313842" lon="11.632273">
        <ele>545</ele>
        </trkpt>
      <trkpt lat="47.31389" lon="11.632294">
        <ele>545</ele>
        </trkpt>
      <trkpt lat="47.314139" lon="11.632367">
        <ele>545.25</ele>
        </trkpt>
      <trkpt lat="47.314234" lon="11.63242">
        <ele>545.75</ele>
        </trkpt>
      <trkpt lat="47.314329" lon="11.632499">
        <ele>546</ele>
        </trkpt>
      <trkpt lat="47.314457" lon="11.632717">
        <ele>546.5</ele>
        </trkpt>
      <trkpt lat="47.314704" lon="11.633381">
        <ele>544.75</ele>
        </trkpt>
      <trkpt lat="47.31489" lon="11.634002">
        <ele>544.25</ele>
        </trkpt>
      <trkpt lat="47.314972" lon="11.634135">
        <ele>544</ele>
        </trkpt>
      <trkpt lat="47.315043" lon="11.634181">
        <ele>544.25</ele>
        </trkpt>
      <trkpt lat="47.315645" lon="11.634584">
        <ele>547.75</ele>
        </trkpt>
      <trkpt lat="47.315672" lon="11.634494">
        <ele>548.25</ele>
        </trkpt>
      <trkpt lat="47.315819" lon="11.634317">
        <ele>550.5</ele>
        </trkpt>
      <trkpt lat="47.315794" lon="11.634254">
        <ele>551.25</ele>
        </trkpt>
      <trkpt lat="47.315951" lon="11.634102">
        <ele>553.75</ele>
        </trkpt>
      <trkpt lat="47.315966" lon="11.634125">
        <ele>553.75</ele>
        </trkpt>
      <trkpt lat="47.315929" lon="11.634166">
        <ele>552.75</ele>
        </trkpt>
    </trkseg>
  </trk>
</gpx>