<?xml version='1.0' encoding='utf-8'?>
<gpx creator="https://tiroltrailhead.com" version="1.1" schemaLocation="http://www.topografix.com/GPX/1/1 http://www.topografix.com/GPX/1/1/gpx.xsd">
  <metadata>
    <name>Al_Ha_Wa_Fr__Trailspotting</name>
    <desc>This file contains a Trailspotting-Route with bike ride segments. For the transfers between bike ride segments, public transport is available (train or local bus services). See this site for details: https://tiroltrailhead.com/webmaps/trailspotting

If your application is having issues with opening this gpx file (some apps might have issues with opening files that contain more than one track) - use one of the following apps instead:
Apple: https://apps.apple.com/de/app/gaia-gps-wander-app/id1201979492
Android: https://play.google.com/store/apps/details?id=menion.android.locus.pro
Web: https://gpx.studio/de/app#0/0/0</desc>
    <author>
      <name>tiroltrailhead.com</name>
      <link href="https://tiroltrailhead.com" />
    </author>
  </metadata>
  <trk>
    <name>Segment 1</name>
    <trkseg>
      <name>Segment 1</name>
      <desc>distance: 11.5km, elevation_gain: 376m, elevation_loss: 724m, est_duration_moving: 01:12, est_duration_incl_pauses: 01:24, avg_km_per_hour: 8.2, avg_km_hr_moving: 9.5</desc>
      <trkpt lat="47.241721" lon="11.456669">
        <ele>911</ele>
      </trkpt>
      <trkpt lat="47.24165" lon="11.456558">
        <ele>912</ele>
      </trkpt>
      <trkpt lat="47.24159" lon="11.456466">
        <ele>912</ele>
      </trkpt>
      <trkpt lat="47.241537" lon="11.456346">
        <ele>911.5</ele>
      </trkpt>
      <trkpt lat="47.241516" lon="11.456472">
        <ele>913.25</ele>
      </trkpt>
      <trkpt lat="47.24156" lon="11.456714">
        <ele>915</ele>
      </trkpt>
      <trkpt lat="47.241597" lon="11.456933">
        <ele>916.5</ele>
      </trkpt>
      <trkpt lat="47.241639" lon="11.457297">
        <ele>918.75</ele>
      </trkpt>
      <trkpt lat="47.241668" lon="11.457423">
        <ele>918.75</ele>
      </trkpt>
      <trkpt lat="47.241796" lon="11.457977">
        <ele>919.5</ele>
      </trkpt>
      <trkpt lat="47.241917" lon="11.458672">
        <ele>920.75</ele>
      </trkpt>
      <trkpt lat="47.241953" lon="11.458986">
        <ele>921.5</ele>
      </trkpt>
      <trkpt lat="47.241967" lon="11.45916">
        <ele>922.25</ele>
      </trkpt>
      <trkpt lat="47.241982" lon="11.459768">
        <ele>921</ele>
      </trkpt>
      <trkpt lat="47.24199" lon="11.459864">
        <ele>920.75</ele>
      </trkpt>
      <trkpt lat="47.24196" lon="11.459981">
        <ele>921</ele>
      </trkpt>
      <trkpt lat="47.241954" lon="11.460057">
        <ele>921.25</ele>
      </trkpt>
      <trkpt lat="47.241945" lon="11.46074">
        <ele>922.5</ele>
      </trkpt>
      <trkpt lat="47.241923" lon="11.461271">
        <ele>923.75</ele>
      </trkpt>
      <trkpt lat="47.241845" lon="11.461729">
        <ele>924.25</ele>
      </trkpt>
      <trkpt lat="47.241843" lon="11.461791">
        <ele>924.25</ele>
      </trkpt>
      <trkpt lat="47.241848" lon="11.461864">
        <ele>924.25</ele>
      </trkpt>
      <trkpt lat="47.241873" lon="11.46199">
        <ele>924.25</ele>
      </trkpt>
      <trkpt lat="47.241914" lon="11.462105">
        <ele>924.25</ele>
      </trkpt>
      <trkpt lat="47.241978" lon="11.462236">
        <ele>924.5</ele>
      </trkpt>
      <trkpt lat="47.241699" lon="11.462424">
        <ele>923</ele>
      </trkpt>
      <trkpt lat="47.241406" lon="11.4626">
        <ele>923.75</ele>
      </trkpt>
      <trkpt lat="47.241327" lon="11.462639">
        <ele>924.25</ele>
      </trkpt>
      <trkpt lat="47.240875" lon="11.462852">
        <ele>927</ele>
      </trkpt>
      <trkpt lat="47.240757" lon="11.462892">
        <ele>927.75</ele>
      </trkpt>
      <trkpt lat="47.240685" lon="11.462894">
        <ele>928</ele>
      </trkpt>
      <trkpt lat="47.240613" lon="11.462885">
        <ele>928.25</ele>
      </trkpt>
      <trkpt lat="47.240363" lon="11.462814">
        <ele>929.25</ele>
      </trkpt>
      <trkpt lat="47.240266" lon="11.462805">
        <ele>929.75</ele>
      </trkpt>
      <trkpt lat="47.239915" lon="11.462838">
        <ele>932.75</ele>
      </trkpt>
      <trkpt lat="47.239965" lon="11.462945">
        <ele>932.25</ele>
      </trkpt>
      <trkpt lat="47.240153" lon="11.463467">
        <ele>933.5</ele>
      </trkpt>
      <trkpt lat="47.240212" lon="11.463601">
        <ele>934.5</ele>
      </trkpt>
      <trkpt lat="47.240329" lon="11.463779">
        <ele>935.25</ele>
      </trkpt>
      <trkpt lat="47.240391" lon="11.463857">
        <ele>935.25</ele>
      </trkpt>
      <trkpt lat="47.240444" lon="11.463909">
        <ele>935</ele>
      </trkpt>
      <trkpt lat="47.240624" lon="11.464022">
        <ele>933.75</ele>
      </trkpt>
      <trkpt lat="47.240676" lon="11.464069">
        <ele>933.5</ele>
      </trkpt>
      <trkpt lat="47.240727" lon="11.46413">
        <ele>933</ele>
      </trkpt>
      <trkpt lat="47.240761" lon="11.464197">
        <ele>933</ele>
      </trkpt>
      <trkpt lat="47.240786" lon="11.464284">
        <ele>932.75</ele>
      </trkpt>
      <trkpt lat="47.240843" lon="11.464571">
        <ele>932.75</ele>
      </trkpt>
      <trkpt lat="47.240947" lon="11.464973">
        <ele>932</ele>
      </trkpt>
      <trkpt lat="47.240984" lon="11.4651">
        <ele>931.75</ele>
      </trkpt>
      <trkpt lat="47.24109" lon="11.465411">
        <ele>931.5</ele>
      </trkpt>
      <trkpt lat="47.241193" lon="11.465812">
        <ele>932</ele>
      </trkpt>
      <trkpt lat="47.241497" lon="11.466891">
        <ele>932</ele>
      </trkpt>
      <trkpt lat="47.241715" lon="11.467627">
        <ele>931.75</ele>
      </trkpt>
      <trkpt lat="47.241747" lon="11.467731">
        <ele>931.75</ele>
      </trkpt>
      <trkpt lat="47.241816" lon="11.46789">
        <ele>931.5</ele>
      </trkpt>
      <trkpt lat="47.241909" lon="11.468056">
        <ele>931.25</ele>
      </trkpt>
      <trkpt lat="47.241934" lon="11.468123">
        <ele>931.25</ele>
      </trkpt>
      <trkpt lat="47.24196" lon="11.468217">
        <ele>931.25</ele>
      </trkpt>
      <trkpt lat="47.242004" lon="11.468449">
        <ele>931.5</ele>
      </trkpt>
      <trkpt lat="47.242052" lon="11.468674">
        <ele>931.25</ele>
      </trkpt>
      <trkpt lat="47.24208" lon="11.468741">
        <ele>931.25</ele>
      </trkpt>
      <trkpt lat="47.242101" lon="11.46877">
        <ele>931</ele>
      </trkpt>
      <trkpt lat="47.242148" lon="11.468798">
        <ele>930.75</ele>
      </trkpt>
      <trkpt lat="47.242161" lon="11.46918">
        <ele>931.25</ele>
      </trkpt>
      <trkpt lat="47.242152" lon="11.46955">
        <ele>931.75</ele>
      </trkpt>
      <trkpt lat="47.242107" lon="11.470009">
        <ele>932.75</ele>
      </trkpt>
      <trkpt lat="47.24205" lon="11.470288">
        <ele>933.75</ele>
      </trkpt>
      <trkpt lat="47.241974" lon="11.470577">
        <ele>935.25</ele>
      </trkpt>
      <trkpt lat="47.241931" lon="11.470703">
        <ele>936</ele>
      </trkpt>
      <trkpt lat="47.241773" lon="11.471104">
        <ele>937.5</ele>
      </trkpt>
      <trkpt lat="47.241743" lon="11.471202">
        <ele>937.75</ele>
      </trkpt>
      <trkpt lat="47.241721" lon="11.471323">
        <ele>937.75</ele>
      </trkpt>
      <trkpt lat="47.241712" lon="11.471536">
        <ele>937.75</ele>
      </trkpt>
      <trkpt lat="47.241725" lon="11.471801">
        <ele>938.5</ele>
      </trkpt>
      <trkpt lat="47.241723" lon="11.472035">
        <ele>940.75</ele>
      </trkpt>
      <trkpt lat="47.241728" lon="11.472154">
        <ele>941.75</ele>
      </trkpt>
      <trkpt lat="47.241745" lon="11.472255">
        <ele>942.5</ele>
      </trkpt>
      <trkpt lat="47.241922" lon="11.472914">
        <ele>947.25</ele>
      </trkpt>
      <trkpt lat="47.241943" lon="11.473015">
        <ele>948.25</ele>
      </trkpt>
      <trkpt lat="47.242083" lon="11.473952">
        <ele>955</ele>
      </trkpt>
      <trkpt lat="47.242132" lon="11.474273">
        <ele>957.5</ele>
      </trkpt>
      <trkpt lat="47.242148" lon="11.474558">
        <ele>957.75</ele>
      </trkpt>
      <trkpt lat="47.242148" lon="11.474701">
        <ele>958</ele>
      </trkpt>
      <trkpt lat="47.242125" lon="11.475059">
        <ele>960</ele>
      </trkpt>
      <trkpt lat="47.242087" lon="11.475256">
        <ele>964.25</ele>
      </trkpt>
      <trkpt lat="47.242041" lon="11.475447">
        <ele>968.5</ele>
      </trkpt>
      <trkpt lat="47.242001" lon="11.475721">
        <ele>973.75</ele>
      </trkpt>
      <trkpt lat="47.241998" lon="11.475807">
        <ele>975.25</ele>
      </trkpt>
      <trkpt lat="47.242038" lon="11.476422">
        <ele>986</ele>
      </trkpt>
      <trkpt lat="47.242024" lon="11.476543">
        <ele>988.25</ele>
      </trkpt>
      <trkpt lat="47.241992" lon="11.476668">
        <ele>990.5</ele>
      </trkpt>
      <trkpt lat="47.24195" lon="11.476798">
        <ele>991.25</ele>
      </trkpt>
      <trkpt lat="47.241785" lon="11.476965">
        <ele>992</ele>
      </trkpt>
      <trkpt lat="47.241658" lon="11.477079">
        <ele>992</ele>
      </trkpt>
      <trkpt lat="47.24157" lon="11.477141">
        <ele>993</ele>
      </trkpt>
      <trkpt lat="47.241481" lon="11.477179">
        <ele>994</ele>
      </trkpt>
      <trkpt lat="47.24137" lon="11.477253">
        <ele>995.25</ele>
      </trkpt>
      <trkpt lat="47.241307" lon="11.47731">
        <ele>996</ele>
      </trkpt>
      <trkpt lat="47.241246" lon="11.47739">
        <ele>997</ele>
      </trkpt>
      <trkpt lat="47.241179" lon="11.4775">
        <ele>998.25</ele>
      </trkpt>
      <trkpt lat="47.24111" lon="11.477668">
        <ele>1000</ele>
      </trkpt>
      <trkpt lat="47.241032" lon="11.477911">
        <ele>1003</ele>
      </trkpt>
      <trkpt lat="47.241097" lon="11.478024">
        <ele>1002.75</ele>
      </trkpt>
      <trkpt lat="47.241158" lon="11.478205">
        <ele>1003.25</ele>
      </trkpt>
      <trkpt lat="47.24127" lon="11.47856">
        <ele>1003.5</ele>
      </trkpt>
      <trkpt lat="47.241301" lon="11.478966">
        <ele>1004.75</ele>
      </trkpt>
      <trkpt lat="47.241319" lon="11.479199">
        <ele>1005.75</ele>
      </trkpt>
      <trkpt lat="47.241403" lon="11.479831">
        <ele>1006</ele>
      </trkpt>
      <trkpt lat="47.241524" lon="11.480394">
        <ele>1004.25</ele>
      </trkpt>
      <trkpt lat="47.241675" lon="11.480822">
        <ele>1000.5</ele>
      </trkpt>
      <trkpt lat="47.241807" lon="11.481341">
        <ele>1000.25</ele>
      </trkpt>
      <trkpt lat="47.241993" lon="11.481988">
        <ele>1002</ele>
      </trkpt>
      <trkpt lat="47.24217" lon="11.482567">
        <ele>1003.25</ele>
      </trkpt>
      <trkpt lat="47.242194" lon="11.482784">
        <ele>1004.7877413259583</ele>
      </trkpt>
      <trkpt lat="47.242355779929795" lon="11.482532871764477">
        <ele>994.0391368433347</ele>
      </trkpt>
      <trkpt lat="47.24275146701717" lon="11.482593005546107">
        <ele>983.8049239470204</ele>
      </trkpt>
      <trkpt lat="47.24318251051618" lon="11.482781616210795">
        <ele>979.6201307861061</ele>
      </trkpt>
      <trkpt lat="47.24322224492212" lon="11.48279900269901">
        <ele>979.0725879422082</ele>
      </trkpt>
      <trkpt lat="47.24349231301517" lon="11.482775874167118">
        <ele>975.4882469575922</ele>
      </trkpt>
      <trkpt lat="47.243790642448516" lon="11.482863762586703">
        <ele>967.9415045027708</ele>
      </trkpt>
      <trkpt lat="47.24388799168935" lon="11.483044165132071">
        <ele>965.0666247022685</ele>
      </trkpt>
      <trkpt lat="47.24398240673963" lon="11.483206651847212">
        <ele>962.9243572204846</ele>
      </trkpt>
      <trkpt lat="47.24411743902061" lon="11.483313043091528">
        <ele>959.2319755479789</ele>
      </trkpt>
      <trkpt lat="47.24425057017069" lon="11.483099531789179">
        <ele>953.7893504652901</ele>
      </trkpt>
      <trkpt lat="47.24460856016495" lon="11.482715598167516">
        <ele>944.401588929813</ele>
      </trkpt>
      <trkpt lat="47.24498600239639" lon="11.482606388519116">
        <ele>935.6063418205447</ele>
      </trkpt>
      <trkpt lat="47.245186976742474" lon="11.482462991624288">
        <ele>935.1768629166642</ele>
      </trkpt>
      <trkpt lat="47.245409" lon="11.482589">
        <ele>940</ele>
      </trkpt>
      <trkpt lat="47.245413" lon="11.482518">
        <ele>940.25</ele>
      </trkpt>
      <trkpt lat="47.245356" lon="11.482388">
        <ele>940.75</ele>
      </trkpt>
      <trkpt lat="47.245362" lon="11.482042">
        <ele>944</ele>
      </trkpt>
      <trkpt lat="47.245357" lon="11.48184">
        <ele>945.75</ele>
      </trkpt>
      <trkpt lat="47.245356" lon="11.481785">
        <ele>946.25</ele>
      </trkpt>
      <trkpt lat="47.245308" lon="11.481549">
        <ele>948.75</ele>
      </trkpt>
      <trkpt lat="47.245097" lon="11.481163">
        <ele>955</ele>
      </trkpt>
      <trkpt lat="47.243978" lon="11.480124">
        <ele>972</ele>
      </trkpt>
      <trkpt lat="47.243425" lon="11.479808">
        <ele>977.25</ele>
      </trkpt>
      <trkpt lat="47.242827" lon="11.479499">
        <ele>985.75</ele>
      </trkpt>
      <trkpt lat="47.242611" lon="11.479451">
        <ele>987</ele>
      </trkpt>
      <trkpt lat="47.242429" lon="11.479242">
        <ele>990.75</ele>
      </trkpt>
      <trkpt lat="47.24227" lon="11.478725">
        <ele>995.75</ele>
      </trkpt>
      <trkpt lat="47.242149" lon="11.478271">
        <ele>998.25</ele>
      </trkpt>
      <trkpt lat="47.242109" lon="11.477952">
        <ele>997.75</ele>
      </trkpt>
      <trkpt lat="47.242165" lon="11.477553">
        <ele>997.75</ele>
      </trkpt>
      <trkpt lat="47.242133" lon="11.477304">
        <ele>994.7266993034465</ele>
      </trkpt>
      <trkpt lat="47.24224434934749" lon="11.477167040630803">
        <ele>994.8677885910504</ele>
      </trkpt>
      <trkpt lat="47.24231489001235" lon="11.477277439056849">
        <ele>996.7076338005721</ele>
      </trkpt>
      <trkpt lat="47.242482423715444" lon="11.477134570506337">
        <ele>997.9740126113413</ele>
      </trkpt>
      <trkpt lat="47.24262791307993" lon="11.476939749755246">
        <ele>997.8081616740367</ele>
      </trkpt>
      <trkpt lat="47.24278662829485" lon="11.476582578377531">
        <ele>991.3810740961698</ele>
      </trkpt>
      <trkpt lat="47.24315028470973" lon="11.476193004626795">
        <ele>983.8009392417973</ele>
      </trkpt>
      <trkpt lat="47.24341707570326" lon="11.475907199774298">
        <ele>976.2844314375864</ele>
      </trkpt>
      <trkpt lat="47.24373890959973" lon="11.475809789398141">
        <ele>968.3926611918259</ele>
      </trkpt>
      <trkpt lat="47.24409806187862" lon="11.47591430246436">
        <ele>954.5979861765948</ele>
      </trkpt>
      <trkpt lat="47.2445168810448" lon="11.476070159064733">
        <ele>939.3645298815734</ele>
      </trkpt>
      <trkpt lat="47.24489601975057" lon="11.476174063465834">
        <ele>931.0031391916802</ele>
      </trkpt>
      <trkpt lat="47.24517816772337" lon="11.476245497741104">
        <ele>928.4993698072165</ele>
      </trkpt>
      <trkpt lat="47.245310424068435" lon="11.476089641139424">
        <ele>924.284659023677</ele>
      </trkpt>
      <trkpt lat="47.24540073092058" lon="11.475946642505392">
        <ele>920.4689090048904</ele>
      </trkpt>
      <trkpt lat="47.245486" lon="11.475864">
        <ele>910.75</ele>
      </trkpt>
      <trkpt lat="47.245549" lon="11.475736">
        <ele>908</ele>
      </trkpt>
      <trkpt lat="47.245643" lon="11.47525">
        <ele>901.25</ele>
      </trkpt>
      <trkpt lat="47.245654" lon="11.475047">
        <ele>899</ele>
      </trkpt>
      <trkpt lat="47.245582" lon="11.474571">
        <ele>899.5</ele>
      </trkpt>
      <trkpt lat="47.245571" lon="11.474141">
        <ele>899.5</ele>
      </trkpt>
      <trkpt lat="47.245634" lon="11.473769">
        <ele>899.5</ele>
      </trkpt>
      <trkpt lat="47.245674" lon="11.473421">
        <ele>900</ele>
      </trkpt>
      <trkpt lat="47.245728" lon="11.473236">
        <ele>898.5</ele>
      </trkpt>
      <trkpt lat="47.245812" lon="11.473272">
        <ele>896.25</ele>
      </trkpt>
      <trkpt lat="47.245975" lon="11.473417">
        <ele>894</ele>
      </trkpt>
      <trkpt lat="47.246049" lon="11.473452">
        <ele>893.25</ele>
      </trkpt>
      <trkpt lat="47.246111" lon="11.473451">
        <ele>892.5</ele>
      </trkpt>
      <trkpt lat="47.246523" lon="11.473358">
        <ele>889</ele>
      </trkpt>
      <trkpt lat="47.246544" lon="11.473353">
        <ele>889</ele>
      </trkpt>
      <trkpt lat="47.246682" lon="11.473324">
        <ele>887.75</ele>
      </trkpt>
      <trkpt lat="47.246837" lon="11.473293">
        <ele>886.75</ele>
      </trkpt>
      <trkpt lat="47.246953" lon="11.473284">
        <ele>886.25</ele>
      </trkpt>
      <trkpt lat="47.247086" lon="11.47329">
        <ele>885.5</ele>
      </trkpt>
      <trkpt lat="47.24719" lon="11.473323">
        <ele>884.75</ele>
      </trkpt>
      <trkpt lat="47.247407" lon="11.473462">
        <ele>883.25</ele>
      </trkpt>
      <trkpt lat="47.247453" lon="11.473483">
        <ele>883</ele>
      </trkpt>
      <trkpt lat="47.247489" lon="11.473485">
        <ele>883</ele>
      </trkpt>
      <trkpt lat="47.24754" lon="11.473469">
        <ele>883.25</ele>
      </trkpt>
      <trkpt lat="47.247578" lon="11.473422">
        <ele>883.75</ele>
      </trkpt>
      <trkpt lat="47.247675" lon="11.473385">
        <ele>884.75</ele>
      </trkpt>
      <trkpt lat="47.24802" lon="11.47316">
        <ele>888.5</ele>
      </trkpt>
      <trkpt lat="47.248137" lon="11.473096">
        <ele>889.75</ele>
      </trkpt>
      <trkpt lat="47.248271" lon="11.473054">
        <ele>891</ele>
      </trkpt>
      <trkpt lat="47.248404" lon="11.473021">
        <ele>892</ele>
      </trkpt>
      <trkpt lat="47.248528" lon="11.473207">
        <ele>893.75</ele>
      </trkpt>
      <trkpt lat="47.248636" lon="11.473483">
        <ele>895.25</ele>
      </trkpt>
      <trkpt lat="47.248659" lon="11.47354">
        <ele>895.75</ele>
      </trkpt>
      <trkpt lat="47.248695" lon="11.473652">
        <ele>896</ele>
      </trkpt>
      <trkpt lat="47.249025" lon="11.47449">
        <ele>901.25</ele>
      </trkpt>
      <trkpt lat="47.249185" lon="11.474299">
        <ele>902.5</ele>
      </trkpt>
      <trkpt lat="47.249491" lon="11.474095">
        <ele>901</ele>
      </trkpt>
      <trkpt lat="47.250207" lon="11.473882">
        <ele>899</ele>
      </trkpt>
      <trkpt lat="47.250437" lon="11.473707">
        <ele>898</ele>
      </trkpt>
      <trkpt lat="47.250585" lon="11.473596">
        <ele>897.5</ele>
      </trkpt>
      <trkpt lat="47.250752" lon="11.473596">
        <ele>897</ele>
      </trkpt>
      <trkpt lat="47.250885" lon="11.473702">
        <ele>896.5</ele>
      </trkpt>
      <trkpt lat="47.251013" lon="11.473726">
        <ele>894.5</ele>
      </trkpt>
      <trkpt lat="47.25124" lon="11.473433">
        <ele>890</ele>
      </trkpt>
      <trkpt lat="47.251394" lon="11.47368">
        <ele>888.75</ele>
      </trkpt>
      <trkpt lat="47.251533" lon="11.473825">
        <ele>887.25</ele>
      </trkpt>
      <trkpt lat="47.251539" lon="11.473587">
        <ele>886</ele>
      </trkpt>
      <trkpt lat="47.251519" lon="11.473294">
        <ele>885</ele>
      </trkpt>
      <trkpt lat="47.251535" lon="11.473017">
        <ele>883.75</ele>
      </trkpt>
      <trkpt lat="47.251539" lon="11.472958">
        <ele>883.75</ele>
      </trkpt>
      <trkpt lat="47.251564" lon="11.47277">
        <ele>882.5</ele>
      </trkpt>
      <trkpt lat="47.251628" lon="11.472546">
        <ele>880.75</ele>
      </trkpt>
      <trkpt lat="47.251728" lon="11.472424">
        <ele>878</ele>
      </trkpt>
      <trkpt lat="47.251732" lon="11.472323">
        <ele>876.5</ele>
      </trkpt>
      <trkpt lat="47.251796" lon="11.472171">
        <ele>873.5</ele>
      </trkpt>
      <trkpt lat="47.251885" lon="11.472038">
        <ele>871.25</ele>
      </trkpt>
      <trkpt lat="47.251908" lon="11.471994">
        <ele>870.5</ele>
      </trkpt>
      <trkpt lat="47.251953" lon="11.471914">
        <ele>869.5</ele>
      </trkpt>
      <trkpt lat="47.252069" lon="11.471977">
        <ele>870</ele>
      </trkpt>
      <trkpt lat="47.252158" lon="11.471979">
        <ele>869.75</ele>
      </trkpt>
      <trkpt lat="47.252251" lon="11.471955">
        <ele>869.5</ele>
      </trkpt>
      <trkpt lat="47.252312" lon="11.471904">
        <ele>869</ele>
      </trkpt>
      <trkpt lat="47.252392" lon="11.471786">
        <ele>868.25</ele>
      </trkpt>
      <trkpt lat="47.252468" lon="11.471438">
        <ele>867.5</ele>
      </trkpt>
      <trkpt lat="47.252518" lon="11.470768">
        <ele>867</ele>
      </trkpt>
      <trkpt lat="47.252504" lon="11.470455">
        <ele>864.25</ele>
      </trkpt>
      <trkpt lat="47.25264" lon="11.470146">
        <ele>866</ele>
      </trkpt>
      <trkpt lat="47.252798" lon="11.46974">
        <ele>865.75</ele>
      </trkpt>
      <trkpt lat="47.253133" lon="11.468953">
        <ele>862</ele>
      </trkpt>
      <trkpt lat="47.253234" lon="11.468958">
        <ele>864</ele>
      </trkpt>
      <trkpt lat="47.253384" lon="11.469246">
        <ele>869.75</ele>
      </trkpt>
      <trkpt lat="47.253409" lon="11.469293">
        <ele>870.75</ele>
      </trkpt>
      <trkpt lat="47.253656" lon="11.469613">
        <ele>876.25</ele>
      </trkpt>
      <trkpt lat="47.25383" lon="11.470078">
        <ele>886.25</ele>
      </trkpt>
      <trkpt lat="47.254157" lon="11.470553">
        <ele>896</ele>
      </trkpt>
      <trkpt lat="47.254259" lon="11.470832">
        <ele>898</ele>
      </trkpt>
      <trkpt lat="47.254261" lon="11.470982">
        <ele>899.25</ele>
      </trkpt>
      <trkpt lat="47.254232" lon="11.47107">
        <ele>901.25</ele>
      </trkpt>
      <trkpt lat="47.253836" lon="11.471827">
        <ele>904.5</ele>
      </trkpt>
      <trkpt lat="47.253993" lon="11.473436">
        <ele>913.5</ele>
      </trkpt>
      <trkpt lat="47.254332" lon="11.474492">
        <ele>913.5</ele>
      </trkpt>
      <trkpt lat="47.254439" lon="11.475676">
        <ele>910</ele>
      </trkpt>
      <trkpt lat="47.254581" lon="11.476556">
        <ele>903.75</ele>
      </trkpt>
      <trkpt lat="47.254692" lon="11.477883">
        <ele>895.5</ele>
      </trkpt>
      <trkpt lat="47.254727" lon="11.478292">
        <ele>893.25</ele>
      </trkpt>
      <trkpt lat="47.254632" lon="11.478766">
        <ele>889.25</ele>
      </trkpt>
      <trkpt lat="47.254594" lon="11.4792">
        <ele>886.75</ele>
      </trkpt>
      <trkpt lat="47.254752" lon="11.479723">
        <ele>884</ele>
      </trkpt>
      <trkpt lat="47.25512" lon="11.481013">
        <ele>873.75</ele>
      </trkpt>
      <trkpt lat="47.255273" lon="11.482199">
        <ele>864</ele>
      </trkpt>
      <trkpt lat="47.25539" lon="11.483855">
        <ele>852</ele>
      </trkpt>
      <trkpt lat="47.255498" lon="11.484325">
        <ele>850.75</ele>
      </trkpt>
      <trkpt lat="47.25556" lon="11.484647">
        <ele>850</ele>
      </trkpt>
      <trkpt lat="47.255732" lon="11.485544">
        <ele>848.25</ele>
      </trkpt>
      <trkpt lat="47.255924" lon="11.485785">
        <ele>852</ele>
      </trkpt>
      <trkpt lat="47.256006" lon="11.486852">
        <ele>839.5</ele>
      </trkpt>
      <trkpt lat="47.2561" lon="11.486887">
        <ele>839.25</ele>
      </trkpt>
      <trkpt lat="47.256263" lon="11.486863">
        <ele>841</ele>
      </trkpt>
      <trkpt lat="47.256469" lon="11.486756">
        <ele>845.25</ele>
      </trkpt>
      <trkpt lat="47.25682" lon="11.486556">
        <ele>850.25</ele>
      </trkpt>
      <trkpt lat="47.256942" lon="11.486487">
        <ele>852</ele>
      </trkpt>
      <trkpt lat="47.256961" lon="11.486325">
        <ele>853.719604850554</ele>
      </trkpt>
      <trkpt lat="47.25727662510034" lon="11.486796886925989">
        <ele>841.6281419900142</ele>
      </trkpt>
      <trkpt lat="47.257509047307934" lon="11.487144378304066">
        <ele>840.2010860897195</ele>
      </trkpt>
      <trkpt lat="47.25764127286351" lon="11.487508043706697">
        <ele>838.2755911407284</ele>
      </trkpt>
      <trkpt lat="47.257988488311526" lon="11.487929025354555">
        <ele>840.6860701076382</ele>
      </trkpt>
      <trkpt lat="47.258303716388326" lon="11.488311223888587">
        <ele>841.9882105095317</ele>
      </trkpt>
      <trkpt lat="47.258727020374906" lon="11.488534718741105">
        <ele>843.7476553836948</ele>
      </trkpt>
      <trkpt lat="47.258832608691705" lon="11.488590466964695">
        <ele>842.780386946451</ele>
      </trkpt>
      <trkpt lat="47.259004497552894" lon="11.488460586463958">
        <ele>845.5446075910172</ele>
      </trkpt>
      <trkpt lat="47.2591631636985" lon="11.48848656256493">
        <ele>844.1793667162616</ele>
      </trkpt>
      <trkpt lat="47.259414384123744" lon="11.48848656256493">
        <ele>842.7107642287843</ele>
      </trkpt>
      <trkpt lat="47.25962152989308" lon="11.488519032689481">
        <ele>841.5865585125528</ele>
      </trkpt>
      <trkpt lat="47.25998421644078" lon="11.488910686831405">
        <ele>836.0764091068803</ele>
      </trkpt>
      <trkpt lat="47.26001143240515" lon="11.488940076521317">
        <ele>836.00191187258</ele>
      </trkpt>
      <trkpt lat="47.26016568823067" lon="11.489141391297352">
        <ele>835.9119948942243</ele>
      </trkpt>
      <trkpt lat="47.26028468527497" lon="11.48942063437346">
        <ele>834.5646332829726</ele>
      </trkpt>
      <trkpt lat="47.26013042979619" lon="11.489563502925364">
        <ele>825.7960977148665</ele>
      </trkpt>
      <trkpt lat="47.2602097612411" lon="11.489979120527153">
        <ele>818.2873495015165</ele>
      </trkpt>
      <trkpt lat="47.260229" lon="11.489968">
        <ele>822.5</ele>
      </trkpt>
      <trkpt lat="47.260275" lon="11.490176">
        <ele>819</ele>
      </trkpt>
      <trkpt lat="47.260653" lon="11.49081">
        <ele>812.5</ele>
      </trkpt>
      <trkpt lat="47.261076" lon="11.491769">
        <ele>805.25</ele>
      </trkpt>
      <trkpt lat="47.261328" lon="11.492295">
        <ele>802</ele>
      </trkpt>
      <trkpt lat="47.261976" lon="11.492901">
        <ele>796.5</ele>
      </trkpt>
      <trkpt lat="47.262152" lon="11.492957">
        <ele>795.5</ele>
      </trkpt>
      <trkpt lat="47.262422" lon="11.492925">
        <ele>797.5</ele>
      </trkpt>
      <trkpt lat="47.262742" lon="11.493022">
        <ele>795.75</ele>
      </trkpt>
      <trkpt lat="47.262935" lon="11.493298">
        <ele>792</ele>
      </trkpt>
      <trkpt lat="47.26305" lon="11.493561">
        <ele>789</ele>
      </trkpt>
      <trkpt lat="47.26325" lon="11.493775">
        <ele>788.75</ele>
      </trkpt>
      <trkpt lat="47.263392" lon="11.494204">
        <ele>785.75</ele>
      </trkpt>
      <trkpt lat="47.263466" lon="11.494795">
        <ele>778</ele>
      </trkpt>
      <trkpt lat="47.263574" lon="11.495186">
        <ele>773.75</ele>
      </trkpt>
      <trkpt lat="47.263727" lon="11.495494">
        <ele>771.25</ele>
      </trkpt>
      <trkpt lat="47.26402" lon="11.495816">
        <ele>770.25</ele>
      </trkpt>
      <trkpt lat="47.264279" lon="11.49599">
        <ele>774.5</ele>
      </trkpt>
      <trkpt lat="47.264482" lon="11.495994">
        <ele>775.75</ele>
      </trkpt>
      <trkpt lat="47.264624" lon="11.495967">
        <ele>776.25</ele>
      </trkpt>
      <trkpt lat="47.264715" lon="11.495927">
        <ele>775.5</ele>
      </trkpt>
      <trkpt lat="47.264809" lon="11.495874">
        <ele>774.25</ele>
      </trkpt>
      <trkpt lat="47.265106" lon="11.49564">
        <ele>773.75</ele>
      </trkpt>
      <trkpt lat="47.265283" lon="11.495511">
        <ele>773.5</ele>
      </trkpt>
      <trkpt lat="47.265412" lon="11.495433">
        <ele>772.75</ele>
      </trkpt>
      <trkpt lat="47.265515" lon="11.495387">
        <ele>772</ele>
      </trkpt>
      <trkpt lat="47.265541" lon="11.495553">
        <ele>774</ele>
      </trkpt>
      <trkpt lat="47.265883" lon="11.495658">
        <ele>775.5</ele>
      </trkpt>
      <trkpt lat="47.26601" lon="11.495728">
        <ele>774.5</ele>
      </trkpt>
      <trkpt lat="47.266233" lon="11.495997">
        <ele>778.5</ele>
      </trkpt>
      <trkpt lat="47.266477" lon="11.496271">
        <ele>783</ele>
      </trkpt>
      <trkpt lat="47.266762" lon="11.496523">
        <ele>783.75</ele>
      </trkpt>
      <trkpt lat="47.26693" lon="11.49666">
        <ele>783.25</ele>
      </trkpt>
      <trkpt lat="47.266935" lon="11.496746">
        <ele>785.25</ele>
      </trkpt>
      <trkpt lat="47.266944" lon="11.496786">
        <ele>786</ele>
      </trkpt>
      <trkpt lat="47.267042" lon="11.497103">
        <ele>790.25</ele>
      </trkpt>
      <trkpt lat="47.267097" lon="11.497262">
        <ele>791.5</ele>
      </trkpt>
      <trkpt lat="47.267171" lon="11.497429">
        <ele>791.75</ele>
      </trkpt>
      <trkpt lat="47.267224" lon="11.497521">
        <ele>791</ele>
      </trkpt>
      <trkpt lat="47.267332" lon="11.497683">
        <ele>789.5</ele>
      </trkpt>
      <trkpt lat="47.26768" lon="11.498097">
        <ele>787.75</ele>
      </trkpt>
      <trkpt lat="47.267797" lon="11.498271">
        <ele>788.5</ele>
      </trkpt>
      <trkpt lat="47.267834" lon="11.498346">
        <ele>789</ele>
      </trkpt>
      <trkpt lat="47.267867" lon="11.498437">
        <ele>790</ele>
      </trkpt>
      <trkpt lat="47.267933" lon="11.498779">
        <ele>795.25</ele>
      </trkpt>
      <trkpt lat="47.267952" lon="11.499019">
        <ele>799.75</ele>
      </trkpt>
      <trkpt lat="47.267949" lon="11.49918">
        <ele>803.25</ele>
      </trkpt>
      <trkpt lat="47.268093" lon="11.499305">
        <ele>802.25</ele>
      </trkpt>
      <trkpt lat="47.268177" lon="11.499455">
        <ele>803.5</ele>
      </trkpt>
      <trkpt lat="47.268403" lon="11.49991">
        <ele>808</ele>
      </trkpt>
      <trkpt lat="47.268512" lon="11.500304">
        <ele>810.75</ele>
      </trkpt>
      <trkpt lat="47.268537" lon="11.500395">
        <ele>811.5</ele>
      </trkpt>
      <trkpt lat="47.268707" lon="11.500824">
        <ele>811.75</ele>
      </trkpt>
      <trkpt lat="47.268887" lon="11.501079">
        <ele>806.5</ele>
      </trkpt>
      <trkpt lat="47.268941" lon="11.5015">
        <ele>810</ele>
      </trkpt>
      <trkpt lat="47.269047" lon="11.50183">
        <ele>811.5</ele>
      </trkpt>
      <trkpt lat="47.269256" lon="11.502211">
        <ele>810</ele>
      </trkpt>
      <trkpt lat="47.269491" lon="11.502455">
        <ele>800.25</ele>
      </trkpt>
      <trkpt lat="47.269719" lon="11.502629">
        <ele>789.25</ele>
      </trkpt>
      <trkpt lat="47.269877" lon="11.50323">
        <ele>793.5</ele>
      </trkpt>
      <trkpt lat="47.270017" lon="11.503463">
        <ele>790.75</ele>
      </trkpt>
      <trkpt lat="47.270183" lon="11.503785">
        <ele>783.75</ele>
      </trkpt>
      <trkpt lat="47.270274" lon="11.504145">
        <ele>782.75</ele>
      </trkpt>
      <trkpt lat="47.270367" lon="11.504287">
        <ele>778</ele>
      </trkpt>
      <trkpt lat="47.270438" lon="11.504393">
        <ele>774.75</ele>
      </trkpt>
      <trkpt lat="47.270629" lon="11.50452">
        <ele>764</ele>
      </trkpt>
      <trkpt lat="47.270729" lon="11.50478">
        <ele>763.5</ele>
      </trkpt>
      <trkpt lat="47.270927" lon="11.504915">
        <ele>756.25</ele>
      </trkpt>
      <trkpt lat="47.271082" lon="11.505078">
        <ele>754.5</ele>
      </trkpt>
      <trkpt lat="47.271118" lon="11.505435">
        <ele>766</ele>
      </trkpt>
      <trkpt lat="47.271369" lon="11.505716">
        <ele>764.25</ele>
      </trkpt>
      <trkpt lat="47.271548" lon="11.505759">
        <ele>757</ele>
      </trkpt>
      <trkpt lat="47.27164" lon="11.505998">
        <ele>759</ele>
      </trkpt>
      <trkpt lat="47.271737" lon="11.506189">
        <ele>758.5</ele>
      </trkpt>
      <trkpt lat="47.271881" lon="11.506513">
        <ele>759</ele>
      </trkpt>
      <trkpt lat="47.271926" lon="11.506789">
        <ele>762</ele>
      </trkpt>
      <trkpt lat="47.272015" lon="11.506985">
        <ele>759</ele>
      </trkpt>
      <trkpt lat="47.272118" lon="11.507099">
        <ele>754.5</ele>
      </trkpt>
      <trkpt lat="47.272364" lon="11.507452">
        <ele>743.25</ele>
      </trkpt>
      <trkpt lat="47.272495" lon="11.507692">
        <ele>739</ele>
      </trkpt>
      <trkpt lat="47.272559" lon="11.507774">
        <ele>735.25</ele>
      </trkpt>
      <trkpt lat="47.272675" lon="11.507888">
        <ele>728.5</ele>
      </trkpt>
      <trkpt lat="47.272775" lon="11.508194">
        <ele>726.5</ele>
      </trkpt>
      <trkpt lat="47.272872" lon="11.508308">
        <ele>722</ele>
      </trkpt>
      <trkpt lat="47.272994" lon="11.508616">
        <ele>719.75</ele>
      </trkpt>
      <trkpt lat="47.273014" lon="11.508699">
        <ele>720</ele>
      </trkpt>
      <trkpt lat="47.273105" lon="11.509079">
        <ele>721.5</ele>
      </trkpt>
      <trkpt lat="47.27311" lon="11.509371">
        <ele>724.25</ele>
      </trkpt>
      <trkpt lat="47.273145" lon="11.509726">
        <ele>724</ele>
      </trkpt>
      <trkpt lat="47.273141" lon="11.510056">
        <ele>725</ele>
      </trkpt>
      <trkpt lat="47.273181" lon="11.510657">
        <ele>710.75</ele>
      </trkpt>
      <trkpt lat="47.273236" lon="11.510917">
        <ele>702.75</ele>
      </trkpt>
      <trkpt lat="47.273238" lon="11.511455">
        <ele>700.75</ele>
      </trkpt>
      <trkpt lat="47.273264" lon="11.511937">
        <ele>697.5</ele>
      </trkpt>
      <trkpt lat="47.273249" lon="11.512293">
        <ele>698</ele>
      </trkpt>
      <trkpt lat="47.273268" lon="11.512433">
        <ele>696.5</ele>
      </trkpt>
      <trkpt lat="47.273249" lon="11.51258">
        <ele>696.75</ele>
      </trkpt>
      <trkpt lat="47.273216" lon="11.512778">
        <ele>696.5</ele>
      </trkpt>
      <trkpt lat="47.273189" lon="11.512944">
        <ele>696.5</ele>
      </trkpt>
      <trkpt lat="47.273198" lon="11.513338">
        <ele>691</ele>
      </trkpt>
      <trkpt lat="47.273216" lon="11.513621">
        <ele>686.5</ele>
      </trkpt>
      <trkpt lat="47.273198" lon="11.513886">
        <ele>685</ele>
      </trkpt>
      <trkpt lat="47.273254" lon="11.514228">
        <ele>676.5</ele>
      </trkpt>
      <trkpt lat="47.273303" lon="11.514289">
        <ele>671.5</ele>
      </trkpt>
      <trkpt lat="47.273336" lon="11.514331">
        <ele>668.5</ele>
      </trkpt>
      <trkpt lat="47.273453" lon="11.514262">
        <ele>663.5</ele>
      </trkpt>
      <trkpt lat="47.273624" lon="11.514092">
        <ele>656.75</ele>
      </trkpt>
      <trkpt lat="47.273741" lon="11.5139">
        <ele>652.5</ele>
      </trkpt>
      <trkpt lat="47.273849" lon="11.513699">
        <ele>648.75</ele>
      </trkpt>
      <trkpt lat="47.273961" lon="11.513321">
        <ele>647</ele>
      </trkpt>
      <trkpt lat="47.274049" lon="11.512874">
        <ele>643</ele>
      </trkpt>
      <trkpt lat="47.274163" lon="11.512407">
        <ele>636.25</ele>
      </trkpt>
      <trkpt lat="47.27437" lon="11.511789">
        <ele>628</ele>
      </trkpt>
      <trkpt lat="47.27444" lon="11.51154">
        <ele>626</ele>
      </trkpt>
      <trkpt lat="47.274499" lon="11.511397">
        <ele>624.5</ele>
      </trkpt>
      <trkpt lat="47.274597" lon="11.51112">
        <ele>622.25</ele>
      </trkpt>
      <trkpt lat="47.274739" lon="11.510764">
        <ele>618.75</ele>
      </trkpt>
      <trkpt lat="47.274806" lon="11.510666">
        <ele>615.75</ele>
      </trkpt>
      <trkpt lat="47.274905" lon="11.510577">
        <ele>611.5</ele>
      </trkpt>
      <trkpt lat="47.275011" lon="11.510582">
        <ele>606.75</ele>
      </trkpt>
      <trkpt lat="47.275038" lon="11.510322">
        <ele>606</ele>
      </trkpt>
      <trkpt lat="47.275091" lon="11.510084">
        <ele>604.25</ele>
      </trkpt>
      <trkpt lat="47.27513" lon="11.510064">
        <ele>603</ele>
      </trkpt>
      <trkpt lat="47.275148" lon="11.509966">
        <ele>602.5</ele>
      </trkpt>
      <trkpt lat="47.275281" lon="11.509897">
        <ele>597.5</ele>
      </trkpt>
      <trkpt lat="47.275379" lon="11.509809">
        <ele>593.75</ele>
      </trkpt>
      <trkpt lat="47.275497" lon="11.509704">
        <ele>589.25</ele>
      </trkpt>
      <trkpt lat="47.275475" lon="11.509984">
        <ele>590.25</ele>
      </trkpt>
      <trkpt lat="47.275512" lon="11.510228">
        <ele>588</ele>
      </trkpt>
      <trkpt lat="47.275627" lon="11.509999">
        <ele>584.5</ele>
      </trkpt>
      <trkpt lat="47.275683" lon="11.510087">
        <ele>582</ele>
      </trkpt>
      <trkpt lat="47.275732" lon="11.510532">
        <ele>577.75</ele>
      </trkpt>
      <trkpt lat="47.275827" lon="11.510283">
        <ele>576</ele>
      </trkpt>
      <trkpt lat="47.275968" lon="11.509919">
        <ele>574</ele>
      </trkpt>
      <trkpt lat="47.276087" lon="11.509591">
        <ele>571.25</ele>
      </trkpt>
      <trkpt lat="47.276164" lon="11.509325">
        <ele>569.5</ele>
      </trkpt>
      <trkpt lat="47.276216" lon="11.50904">
        <ele>568.25</ele>
      </trkpt>
      <trkpt lat="47.276233" lon="11.508808">
        <ele>567</ele>
      </trkpt>
      <trkpt lat="47.276233" lon="11.508669">
        <ele>566.75</ele>
      </trkpt>
      <trkpt lat="47.276282" lon="11.50867">
        <ele>565.75</ele>
      </trkpt>
      <trkpt lat="47.276295" lon="11.50868">
        <ele>565.5</ele>
      </trkpt>
      <trkpt lat="47.276342" lon="11.508719">
        <ele>564.75</ele>
      </trkpt>
      <trkpt lat="47.276378" lon="11.508701">
        <ele>564</ele>
      </trkpt>
      <trkpt lat="47.277203" lon="11.508454">
        <ele>561</ele>
      </trkpt>
      <trkpt lat="47.277262" lon="11.508429">
        <ele>561.25</ele>
      </trkpt>
      <trkpt lat="47.27751" lon="11.508328">
        <ele>562.75</ele>
      </trkpt>
      <trkpt lat="47.27777" lon="11.508197">
        <ele>562</ele>
      </trkpt>
      <trkpt lat="47.27778" lon="11.508271">
        <ele>562.25</ele>
      </trkpt>
      <trkpt lat="47.277822" lon="11.50826">
        <ele>562</ele>
      </trkpt>
      <trkpt lat="47.277872" lon="11.508628">
        <ele>561.25</ele>
      </trkpt>
      <trkpt lat="47.278036" lon="11.508567">
        <ele>561</ele>
      </trkpt>
      <trkpt lat="47.278241" lon="11.50848">
        <ele>560.75</ele>
      </trkpt>
      <trkpt lat="47.27806" lon="11.508016">
        <ele>561.5</ele>
      </trkpt>
      <trkpt lat="47.278028" lon="11.507991">
        <ele>561.5</ele>
      </trkpt>
      <trkpt lat="47.277998" lon="11.507889">
        <ele>561.5</ele>
      </trkpt>
      <trkpt lat="47.277954" lon="11.507611">
        <ele>561.5</ele>
      </trkpt>
      <trkpt lat="47.277947" lon="11.507513">
        <ele>561.5</ele>
      </trkpt>
      <trkpt lat="47.277997" lon="11.507387">
        <ele>561.75</ele>
      </trkpt>
      <trkpt lat="47.27787" lon="11.506926">
        <ele>562.25</ele>
      </trkpt>
      <trkpt lat="47.277752" lon="11.506211">
        <ele>562.75</ele>
      </trkpt>
      <trkpt lat="47.277751" lon="11.50615">
        <ele>562.75</ele>
      </trkpt>
      <trkpt lat="47.27787" lon="11.505431">
        <ele>562.25</ele>
      </trkpt>
      <trkpt lat="47.277871" lon="11.505208">
        <ele>561.75</ele>
      </trkpt>
      <trkpt lat="47.277865" lon="11.504933">
        <ele>561.5</ele>
      </trkpt>
      <trkpt lat="47.277852" lon="11.504241">
        <ele>561</ele>
      </trkpt>
      <trkpt lat="47.277844" lon="11.503507">
        <ele>559.25</ele>
      </trkpt>
      <trkpt lat="47.277805" lon="11.503496">
        <ele>559.25</ele>
      </trkpt>
      <trkpt lat="47.277762" lon="11.50345">
        <ele>559.25</ele>
      </trkpt>
      <trkpt lat="47.27773" lon="11.503373">
        <ele>559</ele>
      </trkpt>
      <trkpt lat="47.277514" lon="11.501833">
        <ele>562.5</ele>
      </trkpt>
      <trkpt lat="47.277486" lon="11.501625">
        <ele>562.75</ele>
      </trkpt>
      <trkpt lat="47.277474" lon="11.501536">
        <ele>562.5</ele>
      </trkpt>
    </trkseg>
  </trk>
  <trk>
    <name>Segment 2</name>
    <trkseg>
      <name>Segment 2</name>
      <desc>distance: 13.3km, elevation_gain: 591m, elevation_loss: 819m, est_duration_moving: 01:37, est_duration_incl_pauses: 01:53, avg_km_per_hour: 7.0, avg_km_hr_moving: 8.2</desc>
      <trkpt lat="47.308435" lon="11.523624">
        <ele>781</ele>
      </trkpt>
      <trkpt lat="47.308637" lon="11.52386">
        <ele>782.25</ele>
      </trkpt>
      <trkpt lat="47.309129" lon="11.524397">
        <ele>783.5</ele>
      </trkpt>
      <trkpt lat="47.309255" lon="11.524521">
        <ele>784</ele>
      </trkpt>
      <trkpt lat="47.30947" lon="11.524672">
        <ele>785.25</ele>
      </trkpt>
      <trkpt lat="47.309644" lon="11.524831">
        <ele>786.25</ele>
      </trkpt>
      <trkpt lat="47.309803" lon="11.525023">
        <ele>787.25</ele>
      </trkpt>
      <trkpt lat="47.31027" lon="11.525704">
        <ele>790</ele>
      </trkpt>
      <trkpt lat="47.310658" lon="11.526316">
        <ele>790.75</ele>
      </trkpt>
      <trkpt lat="47.310781" lon="11.526535">
        <ele>790.25</ele>
      </trkpt>
      <trkpt lat="47.310891" lon="11.526782">
        <ele>790.5</ele>
      </trkpt>
      <trkpt lat="47.310934" lon="11.526962">
        <ele>791</ele>
      </trkpt>
      <trkpt lat="47.31097" lon="11.527225">
        <ele>791.5</ele>
      </trkpt>
      <trkpt lat="47.310996" lon="11.527586">
        <ele>793.25</ele>
      </trkpt>
      <trkpt lat="47.311011" lon="11.527906">
        <ele>798.75</ele>
      </trkpt>
      <trkpt lat="47.311007" lon="11.52834">
        <ele>805.75</ele>
      </trkpt>
      <trkpt lat="47.311047" lon="11.528675">
        <ele>808.25</ele>
      </trkpt>
      <trkpt lat="47.311129" lon="11.528934">
        <ele>811</ele>
      </trkpt>
      <trkpt lat="47.311233" lon="11.529196">
        <ele>813.5</ele>
      </trkpt>
      <trkpt lat="47.311452" lon="11.529584">
        <ele>812.75</ele>
      </trkpt>
      <trkpt lat="47.311647" lon="11.52993">
        <ele>812.25</ele>
      </trkpt>
      <trkpt lat="47.311704" lon="11.530118">
        <ele>812.5</ele>
      </trkpt>
      <trkpt lat="47.311751" lon="11.530355">
        <ele>813.25</ele>
      </trkpt>
      <trkpt lat="47.311779" lon="11.530802">
        <ele>812.75</ele>
      </trkpt>
      <trkpt lat="47.311793" lon="11.531679">
        <ele>815.75</ele>
      </trkpt>
      <trkpt lat="47.311856" lon="11.532132">
        <ele>816.5</ele>
      </trkpt>
      <trkpt lat="47.311898" lon="11.532321">
        <ele>817</ele>
      </trkpt>
      <trkpt lat="47.311927" lon="11.532455">
        <ele>817.25</ele>
      </trkpt>
      <trkpt lat="47.311927" lon="11.532453">
        <ele>817.25</ele>
      </trkpt>
      <trkpt lat="47.312073" lon="11.533104">
        <ele>818.5</ele>
      </trkpt>
      <trkpt lat="47.312168" lon="11.533401">
        <ele>819.25</ele>
      </trkpt>
      <trkpt lat="47.312291" lon="11.53363">
        <ele>820</ele>
      </trkpt>
      <trkpt lat="47.312736" lon="11.53414">
        <ele>824</ele>
      </trkpt>
      <trkpt lat="47.3129" lon="11.534466">
        <ele>824.25</ele>
      </trkpt>
      <trkpt lat="47.313144" lon="11.535296">
        <ele>823.5</ele>
      </trkpt>
      <trkpt lat="47.313293" lon="11.535669">
        <ele>824.75</ele>
      </trkpt>
      <trkpt lat="47.313408" lon="11.535897">
        <ele>826</ele>
      </trkpt>
      <trkpt lat="47.313784" lon="11.536511">
        <ele>831</ele>
      </trkpt>
      <trkpt lat="47.313927" lon="11.536787">
        <ele>833</ele>
      </trkpt>
      <trkpt lat="47.31401" lon="11.536975">
        <ele>834.5</ele>
      </trkpt>
      <trkpt lat="47.31409" lon="11.537196">
        <ele>835.5</ele>
      </trkpt>
      <trkpt lat="47.314154" lon="11.537419">
        <ele>835.75</ele>
      </trkpt>
      <trkpt lat="47.314206" lon="11.53765">
        <ele>836</ele>
      </trkpt>
      <trkpt lat="47.314236" lon="11.537783">
        <ele>836.25</ele>
      </trkpt>
      <trkpt lat="47.314244" lon="11.537814">
        <ele>836.25</ele>
      </trkpt>
      <trkpt lat="47.314349" lon="11.537835">
        <ele>837.5</ele>
      </trkpt>
      <trkpt lat="47.314443" lon="11.537894">
        <ele>838.75</ele>
      </trkpt>
      <trkpt lat="47.314593" lon="11.538286">
        <ele>840.5</ele>
      </trkpt>
      <trkpt lat="47.31483" lon="11.538479">
        <ele>844.75</ele>
      </trkpt>
      <trkpt lat="47.314969" lon="11.538713">
        <ele>847.5</ele>
      </trkpt>
      <trkpt lat="47.315068" lon="11.538901">
        <ele>849.25</ele>
      </trkpt>
      <trkpt lat="47.315185" lon="11.539055">
        <ele>851</ele>
      </trkpt>
      <trkpt lat="47.315322" lon="11.539306">
        <ele>853.25</ele>
      </trkpt>
      <trkpt lat="47.315449" lon="11.539452">
        <ele>855.25</ele>
      </trkpt>
      <trkpt lat="47.315593" lon="11.53958">
        <ele>857.25</ele>
      </trkpt>
      <trkpt lat="47.315771" lon="11.539738">
        <ele>859.75</ele>
      </trkpt>
      <trkpt lat="47.316068" lon="11.540118">
        <ele>866.25</ele>
      </trkpt>
      <trkpt lat="47.316323" lon="11.54056">
        <ele>874</ele>
      </trkpt>
      <trkpt lat="47.316372" lon="11.54085">
        <ele>876.75</ele>
      </trkpt>
      <trkpt lat="47.316371" lon="11.540899">
        <ele>876.5</ele>
      </trkpt>
      <trkpt lat="47.31637" lon="11.541056">
        <ele>876.25</ele>
      </trkpt>
      <trkpt lat="47.316666" lon="11.542444">
        <ele>879</ele>
      </trkpt>
      <trkpt lat="47.316759" lon="11.542871">
        <ele>878.75</ele>
      </trkpt>
      <trkpt lat="47.316999" lon="11.543068">
        <ele>881.75</ele>
      </trkpt>
      <trkpt lat="47.317073" lon="11.54311">
        <ele>882.75</ele>
      </trkpt>
      <trkpt lat="47.317266" lon="11.543222">
        <ele>885.5</ele>
      </trkpt>
      <trkpt lat="47.317376" lon="11.543359">
        <ele>886.75</ele>
      </trkpt>
      <trkpt lat="47.317444" lon="11.543471">
        <ele>887.25</ele>
      </trkpt>
      <trkpt lat="47.317553" lon="11.543515">
        <ele>888</ele>
      </trkpt>
      <trkpt lat="47.317768" lon="11.5436">
        <ele>888.75</ele>
      </trkpt>
      <trkpt lat="47.317858" lon="11.543608">
        <ele>889.25</ele>
      </trkpt>
      <trkpt lat="47.317963" lon="11.543632">
        <ele>890</ele>
      </trkpt>
      <trkpt lat="47.318076" lon="11.543707">
        <ele>890.5</ele>
      </trkpt>
      <trkpt lat="47.318218" lon="11.543831">
        <ele>891.5</ele>
      </trkpt>
      <trkpt lat="47.318328" lon="11.544046">
        <ele>892.75</ele>
      </trkpt>
      <trkpt lat="47.318381" lon="11.544147">
        <ele>893.5</ele>
      </trkpt>
      <trkpt lat="47.318458" lon="11.544206">
        <ele>894.75</ele>
      </trkpt>
      <trkpt lat="47.318557" lon="11.544166">
        <ele>896</ele>
      </trkpt>
      <trkpt lat="47.318805" lon="11.544127">
        <ele>899.5</ele>
      </trkpt>
      <trkpt lat="47.319053" lon="11.543945">
        <ele>902</ele>
      </trkpt>
      <trkpt lat="47.319444" lon="11.543501">
        <ele>904.5</ele>
      </trkpt>
      <trkpt lat="47.319636" lon="11.543351">
        <ele>906.25</ele>
      </trkpt>
      <trkpt lat="47.319812" lon="11.543269">
        <ele>908</ele>
      </trkpt>
      <trkpt lat="47.320028" lon="11.543186">
        <ele>910.5</ele>
      </trkpt>
      <trkpt lat="47.320208" lon="11.543088">
        <ele>911.75</ele>
      </trkpt>
      <trkpt lat="47.320435" lon="11.542905">
        <ele>913.25</ele>
      </trkpt>
      <trkpt lat="47.320631" lon="11.542677">
        <ele>914</ele>
      </trkpt>
      <trkpt lat="47.320631" lon="11.542677">
        <ele>914</ele>
      </trkpt>
      <trkpt lat="47.320828" lon="11.543055">
        <ele>918.25</ele>
      </trkpt>
      <trkpt lat="47.320855" lon="11.54321">
        <ele>919.25</ele>
      </trkpt>
      <trkpt lat="47.32077" lon="11.543482">
        <ele>920</ele>
      </trkpt>
      <trkpt lat="47.320732" lon="11.543728">
        <ele>920.75</ele>
      </trkpt>
      <trkpt lat="47.320755" lon="11.543966">
        <ele>922</ele>
      </trkpt>
      <trkpt lat="47.320808" lon="11.544113">
        <ele>923.25</ele>
      </trkpt>
      <trkpt lat="47.320808" lon="11.544277">
        <ele>924.5</ele>
      </trkpt>
      <trkpt lat="47.320749" lon="11.544488">
        <ele>925.25</ele>
      </trkpt>
      <trkpt lat="47.320708" lon="11.54467">
        <ele>925.75</ele>
      </trkpt>
      <trkpt lat="47.320698" lon="11.544857">
        <ele>927</ele>
      </trkpt>
      <trkpt lat="47.320716" lon="11.545238">
        <ele>930.25</ele>
      </trkpt>
      <trkpt lat="47.320725" lon="11.545299">
        <ele>931</ele>
      </trkpt>
      <trkpt lat="47.320764" lon="11.545334">
        <ele>932</ele>
      </trkpt>
      <trkpt lat="47.320787" lon="11.545324">
        <ele>932.75</ele>
      </trkpt>
      <trkpt lat="47.320834" lon="11.545305">
        <ele>932.75</ele>
      </trkpt>
      <trkpt lat="47.320948" lon="11.545084">
        <ele>932.25</ele>
      </trkpt>
      <trkpt lat="47.321062" lon="11.544998">
        <ele>932.75</ele>
      </trkpt>
      <trkpt lat="47.321419" lon="11.544963">
        <ele>937.25</ele>
      </trkpt>
      <trkpt lat="47.321419" lon="11.544963">
        <ele>937.25</ele>
      </trkpt>
      <trkpt lat="47.321724" lon="11.544812">
        <ele>940.5</ele>
      </trkpt>
      <trkpt lat="47.321943" lon="11.544592">
        <ele>941.75</ele>
      </trkpt>
      <trkpt lat="47.322063" lon="11.544605">
        <ele>943.5</ele>
      </trkpt>
      <trkpt lat="47.322385" lon="11.544907">
        <ele>952.5</ele>
      </trkpt>
      <trkpt lat="47.32244" lon="11.544926">
        <ele>953.5</ele>
      </trkpt>
      <trkpt lat="47.32247" lon="11.544937">
        <ele>954.25</ele>
      </trkpt>
      <trkpt lat="47.322704" lon="11.54486">
        <ele>957.75</ele>
      </trkpt>
      <trkpt lat="47.322912" lon="11.544907">
        <ele>962.5</ele>
      </trkpt>
      <trkpt lat="47.323123" lon="11.545132">
        <ele>969</ele>
      </trkpt>
      <trkpt lat="47.323261" lon="11.545127">
        <ele>971.5</ele>
      </trkpt>
      <trkpt lat="47.32334" lon="11.544942">
        <ele>971.5</ele>
      </trkpt>
      <trkpt lat="47.323498" lon="11.544756">
        <ele>973.75</ele>
      </trkpt>
      <trkpt lat="47.323943" lon="11.544255">
        <ele>984.5</ele>
      </trkpt>
      <trkpt lat="47.324024" lon="11.544255">
        <ele>987</ele>
      </trkpt>
      <trkpt lat="47.324024" lon="11.544367">
        <ele>987</ele>
      </trkpt>
      <trkpt lat="47.323953" lon="11.544477">
        <ele>985</ele>
      </trkpt>
      <trkpt lat="47.323853" lon="11.544994">
        <ele>983</ele>
      </trkpt>
      <trkpt lat="47.323645" lon="11.54532">
        <ele>980.75</ele>
      </trkpt>
      <trkpt lat="47.323538" lon="11.545858">
        <ele>982.75</ele>
      </trkpt>
      <trkpt lat="47.323324" lon="11.546417">
        <ele>984</ele>
      </trkpt>
      <trkpt lat="47.323131" lon="11.546923">
        <ele>985.5</ele>
      </trkpt>
      <trkpt lat="47.323121" lon="11.547012">
        <ele>986</ele>
      </trkpt>
      <trkpt lat="47.323092" lon="11.547219">
        <ele>986.75</ele>
      </trkpt>
      <trkpt lat="47.323076" lon="11.547344">
        <ele>987.25</ele>
      </trkpt>
      <trkpt lat="47.323036" lon="11.547476">
        <ele>987.25</ele>
      </trkpt>
      <trkpt lat="47.322967" lon="11.547619">
        <ele>986</ele>
      </trkpt>
      <trkpt lat="47.322962" lon="11.54774">
        <ele>985.75</ele>
      </trkpt>
      <trkpt lat="47.322968" lon="11.547792">
        <ele>986</ele>
      </trkpt>
      <trkpt lat="47.322914" lon="11.547835">
        <ele>984.75</ele>
      </trkpt>
      <trkpt lat="47.32288" lon="11.547838">
        <ele>984</ele>
      </trkpt>
      <trkpt lat="47.322839" lon="11.54782">
        <ele>983.25</ele>
      </trkpt>
      <trkpt lat="47.322758" lon="11.547761">
        <ele>981.5</ele>
      </trkpt>
      <trkpt lat="47.322574" lon="11.547706">
        <ele>977.75</ele>
      </trkpt>
      <trkpt lat="47.322478" lon="11.547664">
        <ele>975.75</ele>
      </trkpt>
      <trkpt lat="47.322399" lon="11.547641">
        <ele>974.25</ele>
      </trkpt>
      <trkpt lat="47.322239" lon="11.547551">
        <ele>971.5</ele>
      </trkpt>
      <trkpt lat="47.322146" lon="11.547519">
        <ele>970</ele>
      </trkpt>
      <trkpt lat="47.32187738683235" lon="11.547921448500311">
        <ele>963.6381096881353</ele>
      </trkpt>
      <trkpt lat="47.321861" lon="11.547946">
        <ele>963.25</ele>
      </trkpt>
      <trkpt lat="47.32124" lon="11.548077">
        <ele>950</ele>
      </trkpt>
      <trkpt lat="47.320925" lon="11.548144">
        <ele>943.5</ele>
      </trkpt>
      <trkpt lat="47.320466" lon="11.548562">
        <ele>930.5</ele>
      </trkpt>
      <trkpt lat="47.319593" lon="11.548658">
        <ele>913.5</ele>
      </trkpt>
      <trkpt lat="47.319332" lon="11.548396">
        <ele>909.5</ele>
      </trkpt>
      <trkpt lat="47.319044" lon="11.548331">
        <ele>904.75</ele>
      </trkpt>
      <trkpt lat="47.319032" lon="11.548021">
        <ele>903.75</ele>
      </trkpt>
      <trkpt lat="47.318937" lon="11.547862">
        <ele>901.5</ele>
      </trkpt>
      <trkpt lat="47.318857" lon="11.547728">
        <ele>899.75</ele>
      </trkpt>
      <trkpt lat="47.31872" lon="11.547745">
        <ele>897.5</ele>
      </trkpt>
      <trkpt lat="47.318709" lon="11.547951">
        <ele>897.75</ele>
      </trkpt>
      <trkpt lat="47.318773" lon="11.548457">
        <ele>899.75</ele>
      </trkpt>
      <trkpt lat="47.318749" lon="11.548758">
        <ele>899.5</ele>
      </trkpt>
      <trkpt lat="47.318813" lon="11.54905">
        <ele>900.75</ele>
      </trkpt>
      <trkpt lat="47.319052" lon="11.549384">
        <ele>903.75</ele>
      </trkpt>
      <trkpt lat="47.319097" lon="11.549763">
        <ele>903.25</ele>
      </trkpt>
      <trkpt lat="47.31911" lon="11.549865">
        <ele>903.25</ele>
      </trkpt>
      <trkpt lat="47.31925" lon="11.550062">
        <ele>904.25</ele>
      </trkpt>
      <trkpt lat="47.319286" lon="11.550226">
        <ele>903</ele>
      </trkpt>
      <trkpt lat="47.31932" lon="11.55038">
        <ele>902</ele>
      </trkpt>
      <trkpt lat="47.319361" lon="11.550425">
        <ele>902</ele>
      </trkpt>
      <trkpt lat="47.319454" lon="11.550434">
        <ele>903.25</ele>
      </trkpt>
      <trkpt lat="47.319581" lon="11.550375">
        <ele>905.75</ele>
      </trkpt>
      <trkpt lat="47.319619" lon="11.550405">
        <ele>906</ele>
      </trkpt>
      <trkpt lat="47.319656" lon="11.550564">
        <ele>905.25</ele>
      </trkpt>
      <trkpt lat="47.319627" lon="11.550688">
        <ele>903.75</ele>
      </trkpt>
      <trkpt lat="47.319522" lon="11.550924">
        <ele>900.5</ele>
      </trkpt>
      <trkpt lat="47.319538" lon="11.550998">
        <ele>900.5</ele>
      </trkpt>
      <trkpt lat="47.319604" lon="11.551074">
        <ele>901</ele>
      </trkpt>
      <trkpt lat="47.319739" lon="11.551195">
        <ele>902.25</ele>
      </trkpt>
      <trkpt lat="47.319881" lon="11.551238">
        <ele>904</ele>
      </trkpt>
      <trkpt lat="47.31995" lon="11.551215">
        <ele>905</ele>
      </trkpt>
      <trkpt lat="47.32001" lon="11.551155">
        <ele>906.25</ele>
      </trkpt>
      <trkpt lat="47.320235" lon="11.55108">
        <ele>910.5</ele>
      </trkpt>
      <trkpt lat="47.320286" lon="11.551071">
        <ele>911.5</ele>
      </trkpt>
      <trkpt lat="47.32034" lon="11.551078">
        <ele>912.25</ele>
      </trkpt>
      <trkpt lat="47.320352" lon="11.551094">
        <ele>912.25</ele>
      </trkpt>
      <trkpt lat="47.320365" lon="11.551138">
        <ele>912</ele>
      </trkpt>
      <trkpt lat="47.320433" lon="11.551142">
        <ele>913</ele>
      </trkpt>
      <trkpt lat="47.320595" lon="11.551257">
        <ele>914.25</ele>
      </trkpt>
      <trkpt lat="47.320872" lon="11.551422">
        <ele>917</ele>
      </trkpt>
      <trkpt lat="47.320941" lon="11.551478">
        <ele>918.25</ele>
      </trkpt>
      <trkpt lat="47.321022" lon="11.551603">
        <ele>919.25</ele>
      </trkpt>
      <trkpt lat="47.321243" lon="11.552019">
        <ele>923.5</ele>
      </trkpt>
      <trkpt lat="47.321264" lon="11.552054">
        <ele>924</ele>
      </trkpt>
      <trkpt lat="47.321262" lon="11.552107">
        <ele>923.75</ele>
      </trkpt>
      <trkpt lat="47.32127" lon="11.552148">
        <ele>923.75</ele>
      </trkpt>
      <trkpt lat="47.321262" lon="11.552107">
        <ele>923.75</ele>
      </trkpt>
      <trkpt lat="47.321264" lon="11.552054">
        <ele>924</ele>
      </trkpt>
      <trkpt lat="47.321319" lon="11.552141">
        <ele>925.25</ele>
      </trkpt>
      <trkpt lat="47.321359" lon="11.552281">
        <ele>926</ele>
      </trkpt>
      <trkpt lat="47.321415" lon="11.552521">
        <ele>926.5</ele>
      </trkpt>
      <trkpt lat="47.321816" lon="11.553309">
        <ele>935.25</ele>
      </trkpt>
      <trkpt lat="47.322013" lon="11.553546">
        <ele>940</ele>
      </trkpt>
      <trkpt lat="47.322143" lon="11.553777">
        <ele>942</ele>
      </trkpt>
      <trkpt lat="47.322765" lon="11.55453">
        <ele>953</ele>
      </trkpt>
      <trkpt lat="47.323045" lon="11.554748">
        <ele>960.5</ele>
      </trkpt>
      <trkpt lat="47.323287" lon="11.554851">
        <ele>967.5</ele>
      </trkpt>
      <trkpt lat="47.323377" lon="11.554951">
        <ele>970</ele>
      </trkpt>
      <trkpt lat="47.323514" lon="11.555166">
        <ele>973.5</ele>
      </trkpt>
      <trkpt lat="47.323564" lon="11.555172">
        <ele>975.5</ele>
      </trkpt>
      <trkpt lat="47.323602" lon="11.555126">
        <ele>977.25</ele>
      </trkpt>
      <trkpt lat="47.323606" lon="11.555071">
        <ele>977.75</ele>
      </trkpt>
      <trkpt lat="47.323488" lon="11.554777">
        <ele>975.25</ele>
      </trkpt>
      <trkpt lat="47.323241" lon="11.554015">
        <ele>974</ele>
      </trkpt>
      <trkpt lat="47.323219" lon="11.553901">
        <ele>974.75</ele>
      </trkpt>
      <trkpt lat="47.323068" lon="11.553122">
        <ele>980.75</ele>
      </trkpt>
      <trkpt lat="47.322858" lon="11.552589">
        <ele>980.25</ele>
      </trkpt>
      <trkpt lat="47.322844" lon="11.552444">
        <ele>981</ele>
      </trkpt>
      <trkpt lat="47.32291" lon="11.551664">
        <ele>986</ele>
      </trkpt>
      <trkpt lat="47.322991" lon="11.551318">
        <ele>992.5</ele>
      </trkpt>
      <trkpt lat="47.322963" lon="11.550946">
        <ele>994.75</ele>
      </trkpt>
      <trkpt lat="47.323006" lon="11.550436">
        <ele>1001.5</ele>
      </trkpt>
      <trkpt lat="47.322991" lon="11.550169">
        <ele>1003.5</ele>
      </trkpt>
      <trkpt lat="47.323097" lon="11.549297">
        <ele>1005.25</ele>
      </trkpt>
      <trkpt lat="47.323102" lon="11.549077">
        <ele>1003</ele>
      </trkpt>
      <trkpt lat="47.323132" lon="11.549031">
        <ele>1003</ele>
      </trkpt>
      <trkpt lat="47.323181" lon="11.54902">
        <ele>1004</ele>
      </trkpt>
      <trkpt lat="47.32324" lon="11.549048">
        <ele>1006.5</ele>
      </trkpt>
      <trkpt lat="47.323274" lon="11.549096">
        <ele>1008.5</ele>
      </trkpt>
      <trkpt lat="47.323417" lon="11.549743">
        <ele>1018.75</ele>
      </trkpt>
      <trkpt lat="47.323424" lon="11.549762">
        <ele>1018.75</ele>
      </trkpt>
      <trkpt lat="47.323686" lon="11.550455">
        <ele>1025.5</ele>
      </trkpt>
      <trkpt lat="47.323786" lon="11.550669">
        <ele>1028</ele>
      </trkpt>
      <trkpt lat="47.323846" lon="11.551075">
        <ele>1027.25</ele>
      </trkpt>
      <trkpt lat="47.32391" lon="11.551226">
        <ele>1028.25</ele>
      </trkpt>
      <trkpt lat="47.324066" lon="11.551366">
        <ele>1032.5</ele>
      </trkpt>
      <trkpt lat="47.324115" lon="11.551421">
        <ele>1033.75</ele>
      </trkpt>
      <trkpt lat="47.324271" lon="11.551821">
        <ele>1034.5</ele>
      </trkpt>
      <trkpt lat="47.324331" lon="11.551938">
        <ele>1035.25</ele>
      </trkpt>
      <trkpt lat="47.32467" lon="11.552227">
        <ele>1043</ele>
      </trkpt>
      <trkpt lat="47.324757" lon="11.552419">
        <ele>1043.75</ele>
      </trkpt>
      <trkpt lat="47.324937" lon="11.552539">
        <ele>1048.25</ele>
      </trkpt>
      <trkpt lat="47.325028" lon="11.552646">
        <ele>1050.5</ele>
      </trkpt>
      <trkpt lat="47.325079" lon="11.552904">
        <ele>1050.25</ele>
      </trkpt>
      <trkpt lat="47.325177" lon="11.553115">
        <ele>1053.25</ele>
      </trkpt>
      <trkpt lat="47.325231" lon="11.553254">
        <ele>1054.75</ele>
      </trkpt>
      <trkpt lat="47.325288" lon="11.55325">
        <ele>1057.75</ele>
      </trkpt>
      <trkpt lat="47.325308" lon="11.553111">
        <ele>1059.75</ele>
      </trkpt>
      <trkpt lat="47.32528" lon="11.552838">
        <ele>1060.5</ele>
      </trkpt>
      <trkpt lat="47.325298" lon="11.552642">
        <ele>1062.75</ele>
      </trkpt>
      <trkpt lat="47.325339" lon="11.552202">
        <ele>1068.25</ele>
      </trkpt>
      <trkpt lat="47.325256" lon="11.551906">
        <ele>1067.5</ele>
      </trkpt>
      <trkpt lat="47.325248" lon="11.551705">
        <ele>1069.25</ele>
      </trkpt>
      <trkpt lat="47.325346" lon="11.551298">
        <ele>1072.5</ele>
      </trkpt>
      <trkpt lat="47.325355" lon="11.551114">
        <ele>1072.25</ele>
      </trkpt>
      <trkpt lat="47.325323" lon="11.550924">
        <ele>1071.75</ele>
      </trkpt>
      <trkpt lat="47.325344" lon="11.550872">
        <ele>1071.75</ele>
      </trkpt>
      <trkpt lat="47.325408" lon="11.550839">
        <ele>1072.25</ele>
      </trkpt>
      <trkpt lat="47.325747" lon="11.551044">
        <ele>1078</ele>
      </trkpt>
      <trkpt lat="47.325963" lon="11.551047">
        <ele>1082.75</ele>
      </trkpt>
      <trkpt lat="47.326064" lon="11.55106">
        <ele>1085.75</ele>
      </trkpt>
      <trkpt lat="47.326236" lon="11.551185">
        <ele>1092.75</ele>
      </trkpt>
      <trkpt lat="47.326364" lon="11.551239">
        <ele>1097.25</ele>
      </trkpt>
      <trkpt lat="47.326671" lon="11.551261">
        <ele>1106.25</ele>
      </trkpt>
      <trkpt lat="47.326848" lon="11.551214">
        <ele>1112.25</ele>
      </trkpt>
      <trkpt lat="47.326946" lon="11.551154">
        <ele>1114.5</ele>
      </trkpt>
      <trkpt lat="47.327036" lon="11.551009">
        <ele>1113.75</ele>
      </trkpt>
      <trkpt lat="47.327189" lon="11.550638">
        <ele>1115.25</ele>
      </trkpt>
      <trkpt lat="47.327251" lon="11.550575">
        <ele>1117.75</ele>
      </trkpt>
      <trkpt lat="47.327304" lon="11.550584">
        <ele>1119.75</ele>
      </trkpt>
      <trkpt lat="47.327409" lon="11.550387">
        <ele>1124.75</ele>
      </trkpt>
      <trkpt lat="47.327455" lon="11.550342">
        <ele>1126.75</ele>
      </trkpt>
      <trkpt lat="47.327606" lon="11.550199">
        <ele>1133.75</ele>
      </trkpt>
      <trkpt lat="47.327637" lon="11.550116">
        <ele>1135.25</ele>
      </trkpt>
      <trkpt lat="47.327593" lon="11.550037">
        <ele>1134</ele>
      </trkpt>
      <trkpt lat="47.327425" lon="11.55">
        <ele>1128</ele>
      </trkpt>
      <trkpt lat="47.327301" lon="11.549887">
        <ele>1127.75</ele>
      </trkpt>
      <trkpt lat="47.327189" lon="11.549769">
        <ele>1128</ele>
      </trkpt>
      <trkpt lat="47.327139" lon="11.54959">
        <ele>1132.75</ele>
      </trkpt>
      <trkpt lat="47.327136" lon="11.549506">
        <ele>1135.5</ele>
      </trkpt>
      <trkpt lat="47.327131" lon="11.549359">
        <ele>1141</ele>
      </trkpt>
      <trkpt lat="47.32706" lon="11.549181">
        <ele>1144.25</ele>
      </trkpt>
      <trkpt lat="47.326922" lon="11.548982">
        <ele>1143.5</ele>
      </trkpt>
      <trkpt lat="47.326771" lon="11.548854">
        <ele>1139.25</ele>
      </trkpt>
      <trkpt lat="47.326685" lon="11.548732">
        <ele>1137.75</ele>
      </trkpt>
      <trkpt lat="47.32661" lon="11.548568">
        <ele>1137.5</ele>
      </trkpt>
      <trkpt lat="47.326481" lon="11.548496">
        <ele>1131.75</ele>
      </trkpt>
      <trkpt lat="47.326451" lon="11.548557">
        <ele>1128.75</ele>
      </trkpt>
      <trkpt lat="47.326393" lon="11.548506">
        <ele>1126.75</ele>
      </trkpt>
      <trkpt lat="47.326337" lon="11.548581">
        <ele>1122</ele>
      </trkpt>
      <trkpt lat="47.326275" lon="11.548541">
        <ele>1119.5</ele>
      </trkpt>
      <trkpt lat="47.326241" lon="11.548648">
        <ele>1115.5</ele>
      </trkpt>
      <trkpt lat="47.326164" lon="11.548606">
        <ele>1112</ele>
      </trkpt>
      <trkpt lat="47.326096" lon="11.54864">
        <ele>1107.75</ele>
      </trkpt>
      <trkpt lat="47.325973" lon="11.548465">
        <ele>1103.75</ele>
      </trkpt>
      <trkpt lat="47.325907" lon="11.548501">
        <ele>1099.5</ele>
      </trkpt>
      <trkpt lat="47.325775" lon="11.548453">
        <ele>1093</ele>
      </trkpt>
      <trkpt lat="47.325697" lon="11.548387">
        <ele>1090</ele>
      </trkpt>
      <trkpt lat="47.325456" lon="11.548272">
        <ele>1078.25</ele>
      </trkpt>
      <trkpt lat="47.32541" lon="11.548204">
        <ele>1076.25</ele>
      </trkpt>
      <trkpt lat="47.325372" lon="11.5481">
        <ele>1074.75</ele>
      </trkpt>
      <trkpt lat="47.3253" lon="11.548031">
        <ele>1071.5</ele>
      </trkpt>
      <trkpt lat="47.325256" lon="11.54809">
        <ele>1068.75</ele>
      </trkpt>
      <trkpt lat="47.325214" lon="11.548117">
        <ele>1066.5</ele>
      </trkpt>
      <trkpt lat="47.325083" lon="11.548148">
        <ele>1059.5</ele>
      </trkpt>
      <trkpt lat="47.325031" lon="11.548086">
        <ele>1057.25</ele>
      </trkpt>
      <trkpt lat="47.324937" lon="11.548133">
        <ele>1052.5</ele>
      </trkpt>
      <trkpt lat="47.324869" lon="11.548032">
        <ele>1050.25</ele>
      </trkpt>
      <trkpt lat="47.324809" lon="11.548104">
        <ele>1047.25</ele>
      </trkpt>
      <trkpt lat="47.324753" lon="11.548032">
        <ele>1045.25</ele>
      </trkpt>
      <trkpt lat="47.324714" lon="11.54808">
        <ele>1043.25</ele>
      </trkpt>
      <trkpt lat="47.324663" lon="11.548077">
        <ele>1041</ele>
      </trkpt>
      <trkpt lat="47.324636" lon="11.548">
        <ele>1040.25</ele>
      </trkpt>
      <trkpt lat="47.324578" lon="11.547996">
        <ele>1037.75</ele>
      </trkpt>
      <trkpt lat="47.324518" lon="11.547972">
        <ele>1035.5</ele>
      </trkpt>
      <trkpt lat="47.324485" lon="11.547932">
        <ele>1034.25</ele>
      </trkpt>
      <trkpt lat="47.324424" lon="11.547771">
        <ele>1032.5</ele>
      </trkpt>
      <trkpt lat="47.324392" lon="11.547637">
        <ele>1032</ele>
      </trkpt>
      <trkpt lat="47.324369" lon="11.547583">
        <ele>1031.25</ele>
      </trkpt>
      <trkpt lat="47.324332" lon="11.547545">
        <ele>1030</ele>
      </trkpt>
      <trkpt lat="47.32418" lon="11.547594">
        <ele>1023</ele>
      </trkpt>
      <trkpt lat="47.324132" lon="11.547591">
        <ele>1021.25</ele>
      </trkpt>
      <trkpt lat="47.324065" lon="11.547642">
        <ele>1018.5</ele>
      </trkpt>
      <trkpt lat="47.324005" lon="11.547655">
        <ele>1016.5</ele>
      </trkpt>
      <trkpt lat="47.323945" lon="11.547653">
        <ele>1014.5</ele>
      </trkpt>
      <trkpt lat="47.323872" lon="11.547682">
        <ele>1011.75</ele>
      </trkpt>
      <trkpt lat="47.323803" lon="11.547636">
        <ele>1009.75</ele>
      </trkpt>
      <trkpt lat="47.323745" lon="11.547637">
        <ele>1007.75</ele>
      </trkpt>
      <trkpt lat="47.323716" lon="11.547581">
        <ele>1007</ele>
      </trkpt>
      <trkpt lat="47.323683" lon="11.547597">
        <ele>1005.75</ele>
      </trkpt>
      <trkpt lat="47.323656" lon="11.547569">
        <ele>1005</ele>
      </trkpt>
      <trkpt lat="47.323638" lon="11.547682">
        <ele>1004</ele>
      </trkpt>
      <trkpt lat="47.32361" lon="11.547756">
        <ele>1002.75</ele>
      </trkpt>
      <trkpt lat="47.323591" lon="11.547784">
        <ele>1002</ele>
      </trkpt>
      <trkpt lat="47.323534" lon="11.547784">
        <ele>1000.25</ele>
      </trkpt>
      <trkpt lat="47.323492" lon="11.547771">
        <ele>998.75</ele>
      </trkpt>
      <trkpt lat="47.32344" lon="11.547792">
        <ele>997</ele>
      </trkpt>
      <trkpt lat="47.323261" lon="11.547781">
        <ele>992</ele>
      </trkpt>
      <trkpt lat="47.323231" lon="11.547741">
        <ele>991.5</ele>
      </trkpt>
      <trkpt lat="47.323217" lon="11.547751">
        <ele>991</ele>
      </trkpt>
      <trkpt lat="47.323217" lon="11.547751">
        <ele>991</ele>
      </trkpt>
      <trkpt lat="47.3232" lon="11.547765">
        <ele>990.75</ele>
      </trkpt>
      <trkpt lat="47.323167" lon="11.547755">
        <ele>990</ele>
      </trkpt>
      <trkpt lat="47.323111" lon="11.547714">
        <ele>989</ele>
      </trkpt>
      <trkpt lat="47.323054" lon="11.547708">
        <ele>987.75</ele>
      </trkpt>
      <trkpt lat="47.322962" lon="11.54774">
        <ele>985.75</ele>
      </trkpt>
      <trkpt lat="47.322968" lon="11.547792">
        <ele>986</ele>
      </trkpt>
      <trkpt lat="47.322914" lon="11.547835">
        <ele>984.75</ele>
      </trkpt>
      <trkpt lat="47.32288" lon="11.547838">
        <ele>984</ele>
      </trkpt>
      <trkpt lat="47.322839" lon="11.54782">
        <ele>983.25</ele>
      </trkpt>
      <trkpt lat="47.322758" lon="11.547761">
        <ele>981.5</ele>
      </trkpt>
      <trkpt lat="47.322574" lon="11.547706">
        <ele>977.75</ele>
      </trkpt>
      <trkpt lat="47.322478" lon="11.547664">
        <ele>975.75</ele>
      </trkpt>
      <trkpt lat="47.322399" lon="11.547641">
        <ele>974.25</ele>
      </trkpt>
      <trkpt lat="47.322239" lon="11.547551">
        <ele>971.5</ele>
      </trkpt>
      <trkpt lat="47.322146" lon="11.547519">
        <ele>970</ele>
      </trkpt>
      <trkpt lat="47.321861" lon="11.547946">
        <ele>963.25</ele>
      </trkpt>
      <trkpt lat="47.320925" lon="11.548144">
        <ele>943.5</ele>
      </trkpt>
      <trkpt lat="47.320466" lon="11.548562">
        <ele>930.5</ele>
      </trkpt>
      <trkpt lat="47.319593" lon="11.548658">
        <ele>913.5</ele>
      </trkpt>
      <trkpt lat="47.319332" lon="11.548396">
        <ele>909.5</ele>
      </trkpt>
      <trkpt lat="47.319044" lon="11.548331">
        <ele>904.75</ele>
      </trkpt>
      <trkpt lat="47.319032" lon="11.548021">
        <ele>903.75</ele>
      </trkpt>
      <trkpt lat="47.318857" lon="11.547728">
        <ele>899.75</ele>
      </trkpt>
      <trkpt lat="47.31872" lon="11.547745">
        <ele>897.5</ele>
      </trkpt>
      <trkpt lat="47.318713" lon="11.547875">
        <ele>897.5</ele>
      </trkpt>
      <trkpt lat="47.318709" lon="11.547951">
        <ele>897.75</ele>
      </trkpt>
      <trkpt lat="47.318773" lon="11.548457">
        <ele>899.75</ele>
      </trkpt>
      <trkpt lat="47.318749" lon="11.548758">
        <ele>899.5</ele>
      </trkpt>
      <trkpt lat="47.318813" lon="11.54905">
        <ele>900.75</ele>
      </trkpt>
      <trkpt lat="47.319052" lon="11.549384">
        <ele>903.75</ele>
      </trkpt>
      <trkpt lat="47.31911" lon="11.549865">
        <ele>903.25</ele>
      </trkpt>
      <trkpt lat="47.31925" lon="11.550062">
        <ele>904.25</ele>
      </trkpt>
      <trkpt lat="47.319286" lon="11.550226">
        <ele>903</ele>
      </trkpt>
      <trkpt lat="47.3191" lon="11.550336">
        <ele>899.25</ele>
      </trkpt>
      <trkpt lat="47.319094" lon="11.55034">
        <ele>899.25</ele>
      </trkpt>
      <trkpt lat="47.319" lon="11.550466">
        <ele>896.5</ele>
      </trkpt>
      <trkpt lat="47.318872" lon="11.550523">
        <ele>894.5</ele>
      </trkpt>
      <trkpt lat="47.318686" lon="11.550575">
        <ele>891.5</ele>
      </trkpt>
      <trkpt lat="47.318518" lon="11.550602">
        <ele>889.25</ele>
      </trkpt>
      <trkpt lat="47.318425" lon="11.550584">
        <ele>888</ele>
      </trkpt>
      <trkpt lat="47.31827" lon="11.550556">
        <ele>886.5</ele>
      </trkpt>
      <trkpt lat="47.318098" lon="11.550648">
        <ele>883.75</ele>
      </trkpt>
      <trkpt lat="47.317984" lon="11.550773">
        <ele>881.5</ele>
      </trkpt>
      <trkpt lat="47.31778" lon="11.550597">
        <ele>880</ele>
      </trkpt>
      <trkpt lat="47.317716" lon="11.550536">
        <ele>879.5</ele>
      </trkpt>
      <trkpt lat="47.317617" lon="11.550535">
        <ele>878.25</ele>
      </trkpt>
      <trkpt lat="47.317782" lon="11.550954">
        <ele>878</ele>
      </trkpt>
      <trkpt lat="47.317825" lon="11.551061">
        <ele>878</ele>
      </trkpt>
      <trkpt lat="47.317898" lon="11.551237">
        <ele>878.5</ele>
      </trkpt>
      <trkpt lat="47.318093" lon="11.551671">
        <ele>879.75</ele>
      </trkpt>
      <trkpt lat="47.318287" lon="11.55192">
        <ele>882.5</ele>
      </trkpt>
      <trkpt lat="47.318511" lon="11.552148">
        <ele>884</ele>
      </trkpt>
      <trkpt lat="47.318804" lon="11.552424">
        <ele>884.75</ele>
      </trkpt>
      <trkpt lat="47.318907" lon="11.552501">
        <ele>884.5</ele>
      </trkpt>
      <trkpt lat="47.318853" lon="11.552607">
        <ele>883.5</ele>
      </trkpt>
      <trkpt lat="47.318798" lon="11.55267">
        <ele>882.5</ele>
      </trkpt>
      <trkpt lat="47.318733" lon="11.552705">
        <ele>882</ele>
      </trkpt>
      <trkpt lat="47.318433" lon="11.55273">
        <ele>880</ele>
      </trkpt>
      <trkpt lat="47.318135" lon="11.552787">
        <ele>876</ele>
      </trkpt>
      <trkpt lat="47.317836" lon="11.552775">
        <ele>871.5</ele>
      </trkpt>
      <trkpt lat="47.316747" lon="11.552733">
        <ele>855.5</ele>
      </trkpt>
      <trkpt lat="47.316736" lon="11.552609">
        <ele>856.75</ele>
      </trkpt>
      <trkpt lat="47.316745" lon="11.552533">
        <ele>857.75</ele>
      </trkpt>
      <trkpt lat="47.316401" lon="11.552669">
        <ele>851.75</ele>
      </trkpt>
      <trkpt lat="47.316004" lon="11.552796">
        <ele>848.5</ele>
      </trkpt>
      <trkpt lat="47.316004" lon="11.552796">
        <ele>848.5</ele>
      </trkpt>
      <trkpt lat="47.315355" lon="11.553005">
        <ele>843.75</ele>
      </trkpt>
      <trkpt lat="47.315227" lon="11.553127">
        <ele>844</ele>
      </trkpt>
      <trkpt lat="47.315152" lon="11.553118">
        <ele>844</ele>
      </trkpt>
      <trkpt lat="47.314912" lon="11.553218">
        <ele>844.75</ele>
      </trkpt>
      <trkpt lat="47.314748" lon="11.553326">
        <ele>845.75</ele>
      </trkpt>
      <trkpt lat="47.314683" lon="11.553358">
        <ele>846.25</ele>
      </trkpt>
      <trkpt lat="47.314606" lon="11.553355">
        <ele>846.5</ele>
      </trkpt>
      <trkpt lat="47.314575" lon="11.553483">
        <ele>848</ele>
      </trkpt>
      <trkpt lat="47.314414" lon="11.553636">
        <ele>849.75</ele>
      </trkpt>
      <trkpt lat="47.314316" lon="11.553598">
        <ele>849.5</ele>
      </trkpt>
      <trkpt lat="47.313957" lon="11.553906">
        <ele>854.75</ele>
      </trkpt>
      <trkpt lat="47.313864" lon="11.553987">
        <ele>856.5</ele>
      </trkpt>
      <trkpt lat="47.313599" lon="11.554419">
        <ele>860.75</ele>
      </trkpt>
      <trkpt lat="47.313525" lon="11.554689">
        <ele>861</ele>
      </trkpt>
      <trkpt lat="47.313481" lon="11.554851">
        <ele>861.5</ele>
      </trkpt>
      <trkpt lat="47.313252" lon="11.555162">
        <ele>861.75</ele>
      </trkpt>
      <trkpt lat="47.312698" lon="11.556322">
        <ele>864.5</ele>
      </trkpt>
      <trkpt lat="47.312684" lon="11.556293">
        <ele>864.75</ele>
      </trkpt>
      <trkpt lat="47.312698" lon="11.556322">
        <ele>864.5</ele>
      </trkpt>
      <trkpt lat="47.312641" lon="11.556464">
        <ele>865.75</ele>
      </trkpt>
      <trkpt lat="47.312513" lon="11.556587">
        <ele>868.5</ele>
      </trkpt>
      <trkpt lat="47.312397" lon="11.556711">
        <ele>867</ele>
      </trkpt>
      <trkpt lat="47.312297" lon="11.556777">
        <ele>865</ele>
      </trkpt>
      <trkpt lat="47.312294" lon="11.556778">
        <ele>864.75</ele>
      </trkpt>
      <trkpt lat="47.312297" lon="11.556777">
        <ele>865</ele>
      </trkpt>
      <trkpt lat="47.312162" lon="11.557063">
        <ele>860.25</ele>
      </trkpt>
      <trkpt lat="47.312143" lon="11.557207">
        <ele>858.5</ele>
      </trkpt>
      <trkpt lat="47.312174" lon="11.557412">
        <ele>857.5</ele>
      </trkpt>
      <trkpt lat="47.312246" lon="11.557666">
        <ele>857.25</ele>
      </trkpt>
      <trkpt lat="47.312249" lon="11.557699">
        <ele>857</ele>
      </trkpt>
      <trkpt lat="47.312303" lon="11.558258">
        <ele>854</ele>
      </trkpt>
      <trkpt lat="47.312468" lon="11.559016">
        <ele>859.25</ele>
      </trkpt>
      <trkpt lat="47.312433" lon="11.559966">
        <ele>865</ele>
      </trkpt>
      <trkpt lat="47.312424" lon="11.56024">
        <ele>866.75</ele>
      </trkpt>
      <trkpt lat="47.312348" lon="11.560518">
        <ele>866.25</ele>
      </trkpt>
      <trkpt lat="47.312424" lon="11.561324">
        <ele>866.5</ele>
      </trkpt>
      <trkpt lat="47.312655" lon="11.562142">
        <ele>862.25</ele>
      </trkpt>
      <trkpt lat="47.31264" lon="11.562644">
        <ele>859.5</ele>
      </trkpt>
      <trkpt lat="47.31239" lon="11.563159">
        <ele>856</ele>
      </trkpt>
      <trkpt lat="47.312228" lon="11.563494">
        <ele>854</ele>
      </trkpt>
      <trkpt lat="47.312046" lon="11.563706">
        <ele>850.75</ele>
      </trkpt>
      <trkpt lat="47.312007" lon="11.564305">
        <ele>846.75</ele>
      </trkpt>
      <trkpt lat="47.311887" lon="11.565318">
        <ele>840.75</ele>
      </trkpt>
      <trkpt lat="47.311346" lon="11.567048">
        <ele>831</ele>
      </trkpt>
      <trkpt lat="47.310888" lon="11.567563">
        <ele>824.75</ele>
      </trkpt>
      <trkpt lat="47.310619" lon="11.568085">
        <ele>821.75</ele>
      </trkpt>
      <trkpt lat="47.310318" lon="11.568326">
        <ele>822.5</ele>
      </trkpt>
      <trkpt lat="47.310183" lon="11.568589">
        <ele>822.75</ele>
      </trkpt>
      <trkpt lat="47.310022" lon="11.568685">
        <ele>824.75</ele>
      </trkpt>
      <trkpt lat="47.309875" lon="11.568929">
        <ele>821.75</ele>
      </trkpt>
      <trkpt lat="47.309824" lon="11.569015">
        <ele>821</ele>
      </trkpt>
      <trkpt lat="47.309824" lon="11.569788">
        <ele>811</ele>
      </trkpt>
      <trkpt lat="47.310072" lon="11.570367">
        <ele>800.75</ele>
      </trkpt>
      <trkpt lat="47.31008" lon="11.570573">
        <ele>795</ele>
      </trkpt>
      <trkpt lat="47.309947" lon="11.571059">
        <ele>784.5</ele>
      </trkpt>
      <trkpt lat="47.309992" lon="11.571899">
        <ele>764.75</ele>
      </trkpt>
      <trkpt lat="47.309955" lon="11.572499">
        <ele>748.5</ele>
      </trkpt>
      <trkpt lat="47.309868" lon="11.572778">
        <ele>743.75</ele>
      </trkpt>
      <trkpt lat="47.309761" lon="11.572848">
        <ele>740.75</ele>
      </trkpt>
      <trkpt lat="47.309744" lon="11.572871">
        <ele>740.25</ele>
      </trkpt>
      <trkpt lat="47.309281" lon="11.573533">
        <ele>729.5</ele>
      </trkpt>
      <trkpt lat="47.309092" lon="11.57422">
        <ele>728.25</ele>
      </trkpt>
      <trkpt lat="47.309084" lon="11.574553">
        <ele>727.75</ele>
      </trkpt>
      <trkpt lat="47.309226" lon="11.574805">
        <ele>731</ele>
      </trkpt>
      <trkpt lat="47.308388" lon="11.575295">
        <ele>706</ele>
      </trkpt>
      <trkpt lat="47.307882" lon="11.575407">
        <ele>692.25</ele>
      </trkpt>
      <trkpt lat="47.307277" lon="11.575542">
        <ele>676.25</ele>
      </trkpt>
      <trkpt lat="47.30702" lon="11.575617">
        <ele>667.75</ele>
      </trkpt>
      <trkpt lat="47.30678" lon="11.575413">
        <ele>660.092280261731</ele>
      </trkpt>
      <trkpt lat="47.3066126411608" lon="11.575739304388634">
        <ele>652.8828108865779</ele>
      </trkpt>
      <trkpt lat="47.30670270565949" lon="11.57618521334635">
        <ele>654.0012161601738</ele>
      </trkpt>
      <trkpt lat="47.306684" lon="11.576198">
        <ele>657.75</ele>
      </trkpt>
      <trkpt lat="47.306765" lon="11.576426">
        <ele>661</ele>
      </trkpt>
      <trkpt lat="47.30651" lon="11.576964">
        <ele>650.5</ele>
      </trkpt>
      <trkpt lat="47.306511" lon="11.577118">
        <ele>650.25</ele>
      </trkpt>
      <trkpt lat="47.306616" lon="11.577288">
        <ele>654</ele>
      </trkpt>
      <trkpt lat="47.306626" lon="11.577577">
        <ele>654</ele>
      </trkpt>
      <trkpt lat="47.306601" lon="11.578032">
        <ele>651.25</ele>
      </trkpt>
      <trkpt lat="47.306593" lon="11.578195">
        <ele>650.5</ele>
      </trkpt>
      <trkpt lat="47.306614" lon="11.578715">
        <ele>653.75</ele>
      </trkpt>
      <trkpt lat="47.306531" lon="11.578799">
        <ele>650.75</ele>
      </trkpt>
      <trkpt lat="47.306389" lon="11.579407">
        <ele>648</ele>
      </trkpt>
      <trkpt lat="47.306311" lon="11.5798">
        <ele>644.4479396215407</ele>
      </trkpt>
      <trkpt lat="47.3061862730336" lon="11.579767693176507">
        <ele>638.310178233963</ele>
      </trkpt>
      <trkpt lat="47.3061862730336" lon="11.580194627284385">
        <ele>639.9648824562795</ele>
      </trkpt>
      <trkpt lat="47.3062513834591" lon="11.580850776056275">
        <ele>636.288038049483</ele>
      </trkpt>
      <trkpt lat="47.306263471807654" lon="11.580972596102725">
        <ele>634.4248986927611</ele>
      </trkpt>
      <trkpt lat="47.30617340655985" lon="11.581446967333704">
        <ele>622.9017147461659</ele>
      </trkpt>
      <trkpt lat="47.30605760815925" lon="11.581285681115617">
        <ele>620.8060813482455</ele>
      </trkpt>
      <trkpt lat="47.3058581769852" lon="11.58082079730903">
        <ele>621.2065874530009</ele>
      </trkpt>
      <trkpt lat="47.305748811182696" lon="11.58081130988461">
        <ele>617.4522431085172</ele>
      </trkpt>
      <trkpt lat="47.305542945529936" lon="11.580763872761537">
        <ele>610.947480387427</ele>
      </trkpt>
      <trkpt lat="47.30541427908963" lon="11.580650023665498">
        <ele>606.9642611986031</ele>
      </trkpt>
      <trkpt lat="47.30525344559891" lon="11.580668998515307">
        <ele>599.7698614686501</ele>
      </trkpt>
      <trkpt lat="47.30513764518227" lon="11.580450787748703">
        <ele>594.9270128672022</ele>
      </trkpt>
      <trkpt lat="47.30497681084981" lon="11.580460275173095">
        <ele>587.2800353463743</ele>
      </trkpt>
      <trkpt lat="47.304808" lon="11.580407">
        <ele>584</ele>
      </trkpt>
      <trkpt lat="47.304807" lon="11.580406">
        <ele>583.75</ele>
      </trkpt>
      <trkpt lat="47.304803" lon="11.580406">
        <ele>583.75</ele>
      </trkpt>
      <trkpt lat="47.304641" lon="11.58002">
        <ele>577</ele>
      </trkpt>
      <trkpt lat="47.304594" lon="11.580292">
        <ele>574.75</ele>
      </trkpt>
      <trkpt lat="47.304454" lon="11.579829">
        <ele>569.5</ele>
      </trkpt>
      <trkpt lat="47.304265" lon="11.579638">
        <ele>562.25</ele>
      </trkpt>
      <trkpt lat="47.304166" lon="11.579272">
        <ele>560.25</ele>
      </trkpt>
      <trkpt lat="47.304067" lon="11.579303">
        <ele>559</ele>
      </trkpt>
      <trkpt lat="47.303942" lon="11.579343">
        <ele>557.75</ele>
      </trkpt>
      <trkpt lat="47.303684" lon="11.579391">
        <ele>555.25</ele>
      </trkpt>
      <trkpt lat="47.303625" lon="11.579376">
        <ele>554.75</ele>
      </trkpt>
      <trkpt lat="47.303498" lon="11.579343">
        <ele>553.75</ele>
      </trkpt>
      <trkpt lat="47.302707" lon="11.579049">
        <ele>553</ele>
      </trkpt>
      <trkpt lat="47.302738" lon="11.579425">
        <ele>552.25</ele>
      </trkpt>
      <trkpt lat="47.302751" lon="11.57956">
        <ele>551.75</ele>
      </trkpt>
      <trkpt lat="47.302748" lon="11.579631">
        <ele>551.5</ele>
      </trkpt>
      <trkpt lat="47.302733" lon="11.579696">
        <ele>551.5</ele>
      </trkpt>
      <trkpt lat="47.302703" lon="11.579754">
        <ele>551.25</ele>
      </trkpt>
      <trkpt lat="47.302604" lon="11.579854">
        <ele>551</ele>
      </trkpt>
      <trkpt lat="47.302542" lon="11.579905">
        <ele>551</ele>
      </trkpt>
      <trkpt lat="47.302449" lon="11.579731">
        <ele>551.5</ele>
      </trkpt>
      <trkpt lat="47.302439" lon="11.579715">
        <ele>551.25</ele>
      </trkpt>
      <trkpt lat="47.302438" lon="11.579714">
        <ele>551.25</ele>
      </trkpt>
      <trkpt lat="47.302302" lon="11.579505">
        <ele>551.25</ele>
      </trkpt>
      <trkpt lat="47.302233" lon="11.57937">
        <ele>551.25</ele>
      </trkpt>
      <trkpt lat="47.302187" lon="11.57926">
        <ele>551</ele>
      </trkpt>
      <trkpt lat="47.302144" lon="11.57912">
        <ele>550.75</ele>
      </trkpt>
      <trkpt lat="47.302103" lon="11.57894">
        <ele>550</ele>
      </trkpt>
      <trkpt lat="47.301959" lon="11.57816">
        <ele>548</ele>
      </trkpt>
      <trkpt lat="47.301804" lon="11.577447">
        <ele>547</ele>
      </trkpt>
      <trkpt lat="47.301752" lon="11.577064">
        <ele>549</ele>
      </trkpt>
      <trkpt lat="47.301707" lon="11.576868">
        <ele>549.75</ele>
      </trkpt>
      <trkpt lat="47.301649" lon="11.576693">
        <ele>550.75</ele>
      </trkpt>
      <trkpt lat="47.301623" lon="11.576773">
        <ele>550.25</ele>
      </trkpt>
      <trkpt lat="47.301646" lon="11.577012">
        <ele>548.75</ele>
      </trkpt>
      <trkpt lat="47.301505" lon="11.577082">
        <ele>548.5</ele>
      </trkpt>
      <trkpt lat="47.301496" lon="11.577087">
        <ele>548.5</ele>
      </trkpt>
      <trkpt lat="47.301395" lon="11.576902">
        <ele>549.5</ele>
      </trkpt>
      <trkpt lat="47.30131" lon="11.576478">
        <ele>551</ele>
      </trkpt>
      <trkpt lat="47.301226" lon="11.576109">
        <ele>551.25</ele>
      </trkpt>
      <trkpt lat="47.301057" lon="11.57558">
        <ele>551</ele>
      </trkpt>
      <trkpt lat="47.300997" lon="11.575362">
        <ele>550.75</ele>
      </trkpt>
      <trkpt lat="47.300942" lon="11.575114">
        <ele>550.25</ele>
      </trkpt>
      <trkpt lat="47.300907" lon="11.574955">
        <ele>550</ele>
      </trkpt>
      <trkpt lat="47.300769" lon="11.574486">
        <ele>549.75</ele>
      </trkpt>
      <trkpt lat="47.300545" lon="11.57361">
        <ele>551.25</ele>
      </trkpt>
      <trkpt lat="47.300498" lon="11.573405">
        <ele>551.75</ele>
      </trkpt>
      <trkpt lat="47.300393" lon="11.573034">
        <ele>551.75</ele>
      </trkpt>
      <trkpt lat="47.300234" lon="11.572541">
        <ele>550.75</ele>
      </trkpt>
      <trkpt lat="47.300007" lon="11.571943">
        <ele>550</ele>
      </trkpt>
      <trkpt lat="47.299941" lon="11.571782">
        <ele>550</ele>
      </trkpt>
      <trkpt lat="47.299799" lon="11.571335">
        <ele>552</ele>
      </trkpt>
      <trkpt lat="47.299347" lon="11.570194">
        <ele>553.5</ele>
      </trkpt>
      <trkpt lat="47.299108" lon="11.569647">
        <ele>554.75</ele>
      </trkpt>
      <trkpt lat="47.298839" lon="11.569083">
        <ele>558.25</ele>
      </trkpt>
      <trkpt lat="47.298597" lon="11.568605">
        <ele>560.5</ele>
      </trkpt>
      <trkpt lat="47.298372" lon="11.568183">
        <ele>560.5</ele>
      </trkpt>
      <trkpt lat="47.297963" lon="11.567441">
        <ele>559</ele>
      </trkpt>
      <trkpt lat="47.297482" lon="11.566632">
        <ele>554.75</ele>
      </trkpt>
      <trkpt lat="47.29715" lon="11.566081">
        <ele>554.25</ele>
      </trkpt>
      <trkpt lat="47.297087" lon="11.565983">
        <ele>554</ele>
      </trkpt>
      <trkpt lat="47.296909" lon="11.565736">
        <ele>553.5</ele>
      </trkpt>
      <trkpt lat="47.29641" lon="11.564935">
        <ele>552.5</ele>
      </trkpt>
      <trkpt lat="47.296299" lon="11.564755">
        <ele>552.25</ele>
      </trkpt>
      <trkpt lat="47.296329" lon="11.564753">
        <ele>552.25</ele>
      </trkpt>
      <trkpt lat="47.296329" lon="11.564753">
        <ele>552.25</ele>
      </trkpt>
      <trkpt lat="47.296374" lon="11.564751">
        <ele>552.25</ele>
      </trkpt>
      <trkpt lat="47.296651" lon="11.565216">
        <ele>552.75</ele>
      </trkpt>
      <trkpt lat="47.296696" lon="11.565159">
        <ele>553</ele>
      </trkpt>
      <trkpt lat="47.296696" lon="11.565159">
        <ele>553</ele>
      </trkpt>
      <trkpt lat="47.296651" lon="11.565216">
        <ele>552.75</ele>
      </trkpt>
      <trkpt lat="47.296374" lon="11.564751">
        <ele>552.25</ele>
      </trkpt>
      <trkpt lat="47.296299" lon="11.564755">
        <ele>552.25</ele>
      </trkpt>
      <trkpt lat="47.29641" lon="11.564935">
        <ele>552.5</ele>
      </trkpt>
      <trkpt lat="47.296418" lon="11.564947">
        <ele>553.5</ele>
      </trkpt>
      <trkpt lat="47.296417" lon="11.564946">
        <ele>552.5</ele>
      </trkpt>
      <trkpt lat="47.296798" lon="11.565557">
        <ele>553.5</ele>
      </trkpt>
    </trkseg>
  </trk>
</gpx>