<?xml version='1.0' encoding='utf-8'?>
<gpx creator="https://tiroltrailhead.com" version="1.1" schemaLocation="http://www.topografix.com/GPX/1/1 http://www.topografix.com/GPX/1/1/gpx.xsd http://www.garmin.com/xmlschemas/GpxExtensions/v3 http://www.garmin.com/xmlschemas/GpxExtensionsv3.xsd http://www.garmin.com/xmlschemas/TrackPointExtension/v1 http://www.garmin.com/xmlschemas/TrackPointExtensionv1.xsd http://www.garmin.com/xmlschemas/PowerExtension/v1 http://www.garmin.com/xmlschemas/PowerExtensionv1.xsd http://www.topografix.com/GPX/gpx_style/0/2 http://www.topografix.com/GPX/gpx_style/0/2/gpx_style.xsd">
  <metadata>
    <name>K__Trailspotting</name>
    <author>
      <name>tiroltrailhead.com</name>
      <link href="https://tiroltrailhead.com" />
    </author>
  </metadata>
  <trk>
    <name>Segment 1</name>
    <trkseg>
      <name>Segment 1</name>
      <desc>distance: 8.0km, elevation_gain: 408.0m, elevation_loss: 641.0m, estimated_duration: 01:09, avg_km_per_hour: 7.3</desc>
      <trkpt lat="47.247442" lon="11.451283">
        <ele>832.5</ele>
      </trkpt>
      <trkpt lat="47.247472" lon="11.451332">
        <ele>831.75</ele>
      </trkpt>
      <trkpt lat="47.247517" lon="11.451331">
        <ele>830.25</ele>
      </trkpt>
      <trkpt lat="47.247568" lon="11.45135">
        <ele>829.5</ele>
      </trkpt>
      <trkpt lat="47.247635" lon="11.451394">
        <ele>828.25</ele>
      </trkpt>
      <trkpt lat="47.24765" lon="11.451418">
        <ele>828</ele>
      </trkpt>
      <trkpt lat="47.247667" lon="11.451444">
        <ele>827.75</ele>
        </trkpt>
      <trkpt lat="47.247808" lon="11.451778">
        <ele>826.25</ele>
        </trkpt>
      <trkpt lat="47.247869" lon="11.451899">
        <ele>826</ele>
        </trkpt>
      <trkpt lat="47.247929" lon="11.451992">
        <ele>825.25</ele>
        </trkpt>
      <trkpt lat="47.248017" lon="11.452081">
        <ele>823.75</ele>
        </trkpt>
      <trkpt lat="47.248107" lon="11.452147">
        <ele>822</ele>
        </trkpt>
      <trkpt lat="47.248153" lon="11.452169">
        <ele>821</ele>
        </trkpt>
      <trkpt lat="47.248216" lon="11.45218">
        <ele>819.5</ele>
        </trkpt>
      <trkpt lat="47.248287" lon="11.452186">
        <ele>817.5</ele>
        </trkpt>
      <trkpt lat="47.248367" lon="11.45218">
        <ele>816.25</ele>
        </trkpt>
      <trkpt lat="47.248667" lon="11.452098">
        <ele>814</ele>
        </trkpt>
      <trkpt lat="47.24878" lon="11.45206">
        <ele>813</ele>
        </trkpt>
      <trkpt lat="47.248908" lon="11.452004">
        <ele>811.75</ele>
        </trkpt>
      <trkpt lat="47.248981" lon="11.451968">
        <ele>811</ele>
        </trkpt>
      <trkpt lat="47.248992" lon="11.452021">
        <ele>811.5</ele>
        </trkpt>
      <trkpt lat="47.249006" lon="11.452078">
        <ele>811.75</ele>
        </trkpt>
      <trkpt lat="47.248879" lon="11.452802">
        <ele>819.25</ele>
        </trkpt>
      <trkpt lat="47.248975" lon="11.453409">
        <ele>826</ele>
        </trkpt>
      <trkpt lat="47.248987" lon="11.453448">
        <ele>826.25</ele>
        </trkpt>
      <trkpt lat="47.249122" lon="11.453852">
        <ele>830</ele>
        </trkpt>
      <trkpt lat="47.249344" lon="11.454522">
        <ele>834.5</ele>
        </trkpt>
      <trkpt lat="47.249411" lon="11.454704">
        <ele>835</ele>
        </trkpt>
      <trkpt lat="47.249383" lon="11.45566">
        <ele>835.75</ele>
        </trkpt>
      <trkpt lat="47.249433" lon="11.456329">
        <ele>837</ele>
        </trkpt>
      <trkpt lat="47.24941" lon="11.456878">
        <ele>839.5</ele>
        </trkpt>
      <trkpt lat="47.249478" lon="11.457208">
        <ele>842.25</ele>
        </trkpt>
      <trkpt lat="47.249501" lon="11.457303">
        <ele>842.75</ele>
        </trkpt>
      <trkpt lat="47.249667" lon="11.457605">
        <ele>843</ele>
        </trkpt>
      <trkpt lat="47.249722" lon="11.457875">
        <ele>841.5</ele>
        </trkpt>
      <trkpt lat="47.249787" lon="11.458194">
        <ele>840.25</ele>
        </trkpt>
      <trkpt lat="47.250126" lon="11.458489">
        <ele>833</ele>
        </trkpt>
      <trkpt lat="47.250794" lon="11.458532">
        <ele>825.25</ele>
        </trkpt>
      <trkpt lat="47.250809" lon="11.458533">
        <ele>825.25</ele>
        </trkpt>
      <trkpt lat="47.251179" lon="11.458397">
        <ele>826.75</ele>
        </trkpt>
      <trkpt lat="47.251452" lon="11.45836">
        <ele>827.5</ele>
        </trkpt>
      <trkpt lat="47.251713" lon="11.458415">
        <ele>826.25</ele>
        </trkpt>
      <trkpt lat="47.252042" lon="11.458694">
        <ele>822.25</ele>
        </trkpt>
      <trkpt lat="47.252353" lon="11.459073">
        <ele>820.25</ele>
        </trkpt>
      <trkpt lat="47.252531" lon="11.459378">
        <ele>818.5</ele>
        </trkpt>
      <trkpt lat="47.252624" lon="11.45965">
        <ele>815.75</ele>
        </trkpt>
      <trkpt lat="47.252715" lon="11.459792">
        <ele>815</ele>
        </trkpt>
      <trkpt lat="47.253057" lon="11.459909">
        <ele>816.75</ele>
        </trkpt>
      <trkpt lat="47.253376" lon="11.459906">
        <ele>818.5</ele>
        </trkpt>
      <trkpt lat="47.253748" lon="11.460004">
        <ele>813.75</ele>
        </trkpt>
      <trkpt lat="47.254348" lon="11.459922">
        <ele>807</ele>
        </trkpt>
      <trkpt lat="47.254712" lon="11.460117">
        <ele>799.75</ele>
        </trkpt>
      <trkpt lat="47.255104" lon="11.459973">
        <ele>797.7656507738407</ele>
        </trkpt>
      <trkpt lat="47.25519053885586" lon="11.459877824928554">
        <ele>799.612235135329</ele>
        </trkpt>
      <trkpt lat="47.25525615522122" lon="11.459587800923174">
        <ele>804.482597767577</ele>
        </trkpt>
      <trkpt lat="47.25555962985251" lon="11.459430704585401">
        <ele>804.3532908473155</ele>
        </trkpt>
      <trkpt lat="47.255674457637866" lon="11.458959415575748">
        <ele>807.0920956036614</ele>
        </trkpt>
      <trkpt lat="47.255797487131275" lon="11.458886909573835">
        <ele>806.74177184451</ele>
        </trkpt>
      <trkpt lat="47.25612556438375" lon="11.458911078241528">
        <ele>805.4049211328852</ele>
        </trkpt>
      <trkpt lat="47.25657430302975" lon="11.45895347192834">
        <ele>800.0741987102901</ele>
        </trkpt>
      <trkpt lat="47.25674875571519" lon="11.458969952997165">
        <ele>796.607216530806</ele>
      </trkpt>
      <trkpt lat="47.25699480942501" lon="11.458849109660974">
        <ele>791.3984586780293</ele>
      </trkpt>
      <trkpt lat="47.257175248085105" lon="11.45870409765709">
        <ele>786.4881818586357</ele>
      </trkpt>
      <trkpt lat="47.257126037602546" lon="11.458559085654429">
        <ele>784.8439165355746</ele>
      </trkpt>
      <trkpt lat="47.25727366891343" lon="11.458559085654429">
        <ele>781.0754349671649</ele>
      </trkpt>
      <trkpt lat="47.25742950200535" lon="11.458426158969473">
        <ele>772.6892367562288</ele>
      </trkpt>
      <trkpt lat="47.257527922361106" lon="11.45855908663836">
        <ele>774.0235537378069</ele>
      </trkpt>
      <trkpt lat="47.25765914921743" lon="11.458643676974134">
        <ele>770.064251669579</ele>
      </trkpt>
      <trkpt lat="47.257732964181145" lon="11.45900620698265">
        <ele>769.1019322384412</ele>
      </trkpt>
      <trkpt lat="47.257970811697874" lon="11.459308315321891">
        <ele>757.6212950847383</ele>
      </trkpt>
      <trkpt lat="47.25820073153895" lon="11.459234134117395">
        <ele>743.686529425853</ele>
      </trkpt>
      <trkpt lat="47.25828274731984" lon="11.45904078477929">
        <ele>734.9108221920982</ele>
      </trkpt>
      <trkpt lat="47.25840577075354" lon="11.458980363112374">
        <ele>726.138740770333</ele>
      </trkpt>
      <trkpt lat="47.25847138313475" lon="11.459161628115453">
        <ele>724.2534882968071</ele>
      </trkpt>
      <trkpt lat="47.258595" lon="11.459174">
        <ele>711.5</ele>
      </trkpt>
      <trkpt lat="47.258595" lon="11.459513">
        <ele>718</ele>
      </trkpt>
      <trkpt lat="47.258621" lon="11.459648">
        <ele>719</ele>
      </trkpt>
      <trkpt lat="47.258658" lon="11.45977">
        <ele>719.25</ele>
      </trkpt>
      <trkpt lat="47.258786" lon="11.459967">
        <ele>715.75</ele>
      </trkpt>
      <trkpt lat="47.259038" lon="11.460322">
        <ele>707.25</ele>
      </trkpt>
      <trkpt lat="47.259139" lon="11.460424">
        <ele>703</ele>
      </trkpt>
      <trkpt lat="47.259217" lon="11.46053">
        <ele>701</ele>
      </trkpt>
      <trkpt lat="47.259253" lon="11.460632">
        <ele>701</ele>
      </trkpt>
      <trkpt lat="47.259278" lon="11.460745">
        <ele>701.75</ele>
      </trkpt>
      <trkpt lat="47.259278" lon="11.461182">
        <ele>707</ele>
      </trkpt>
      <trkpt lat="47.259236" lon="11.461475">
        <ele>711.5</ele>
      </trkpt>
      <trkpt lat="47.259237" lon="11.461527">
        <ele>711.75</ele>
      </trkpt>
      <trkpt lat="47.259238" lon="11.461562">
        <ele>712.25</ele>
      </trkpt>
      <trkpt lat="47.259246" lon="11.461583">
        <ele>712.25</ele>
      </trkpt>
      <trkpt lat="47.259286" lon="11.461699">
        <ele>712</ele>
      </trkpt>
      <trkpt lat="47.259296" lon="11.461727">
        <ele>711.75</ele>
      </trkpt>
      <trkpt lat="47.259391" lon="11.461841">
        <ele>709.75</ele>
      </trkpt>
      <trkpt lat="47.259687" lon="11.462087">
        <ele>705.25</ele>
      </trkpt>
      <trkpt lat="47.25974" lon="11.462152">
        <ele>705.25</ele>
      </trkpt>
      <trkpt lat="47.259787" lon="11.462249">
        <ele>706.25</ele>
      </trkpt>
      <trkpt lat="47.259798" lon="11.462311">
        <ele>707.25</ele>
      </trkpt>
      <trkpt lat="47.259798" lon="11.462362">
        <ele>708.5</ele>
      </trkpt>
      <trkpt lat="47.25979" lon="11.462416">
        <ele>709.75</ele>
      </trkpt>
      <trkpt lat="47.259771" lon="11.462474">
        <ele>711</ele>
      </trkpt>
      <trkpt lat="47.259708" lon="11.462548">
        <ele>712.75</ele>
      </trkpt>
      <trkpt lat="47.259663" lon="11.462584">
        <ele>713.75</ele>
      </trkpt>
      <trkpt lat="47.259536" lon="11.46266">
        <ele>716</ele>
      </trkpt>
      <trkpt lat="47.259504" lon="11.462678">
        <ele>716.5</ele>
      </trkpt>
      <trkpt lat="47.25942" lon="11.462726">
        <ele>718</ele>
      </trkpt>
      <trkpt lat="47.259357" lon="11.462801">
        <ele>719.75</ele>
      </trkpt>
      <trkpt lat="47.259308" lon="11.462887">
        <ele>721.25</ele>
      </trkpt>
      <trkpt lat="47.259289" lon="11.462937">
        <ele>722</ele>
      </trkpt>
      <trkpt lat="47.259253" lon="11.463083">
        <ele>724</ele>
      </trkpt>
      <trkpt lat="47.259239" lon="11.463186">
        <ele>725.25</ele>
      </trkpt>
      <trkpt lat="47.259239" lon="11.46324">
        <ele>725.75</ele>
      </trkpt>
      <trkpt lat="47.259238" lon="11.463335">
        <ele>726.75</ele>
      </trkpt>
      <trkpt lat="47.259277" lon="11.463677">
        <ele>729.5</ele>
      </trkpt>
      <trkpt lat="47.2593" lon="11.463925">
        <ele>731.25</ele>
      </trkpt>
      <trkpt lat="47.2593" lon="11.464023">
        <ele>732</ele>
      </trkpt>
      <trkpt lat="47.259293" lon="11.464256">
        <ele>734.75</ele>
      </trkpt>
      <trkpt lat="47.259266" lon="11.464542">
        <ele>739.75</ele>
      </trkpt>
      <trkpt lat="47.259247" lon="11.464675">
        <ele>742.5</ele>
      </trkpt>
      <trkpt lat="47.259189" lon="11.464991">
        <ele>749.75</ele>
      </trkpt>
      <trkpt lat="47.259141" lon="11.465308">
        <ele>753.25</ele>
      </trkpt>
      <trkpt lat="47.259101" lon="11.46564">
        <ele>756.5</ele>
      </trkpt>
      <trkpt lat="47.2591" lon="11.465743">
        <ele>757</ele>
      </trkpt>
      <trkpt lat="47.259107" lon="11.465837">
        <ele>757.5</ele>
      </trkpt>
      <trkpt lat="47.259167" lon="11.466236">
        <ele>761.25</ele>
      </trkpt>
      <trkpt lat="47.259179" lon="11.466443">
        <ele>763.75</ele>
      </trkpt>
      <trkpt lat="47.259141" lon="11.467248">
        <ele>775.25</ele>
      </trkpt>
      <trkpt lat="47.259137" lon="11.46754">
        <ele>778.25</ele>
      </trkpt>
      <trkpt lat="47.25914" lon="11.467755">
        <ele>780.5</ele>
      </trkpt>
      <trkpt lat="47.259149" lon="11.467907">
        <ele>781.75</ele>
      </trkpt>
      <trkpt lat="47.259164" lon="11.46804">
        <ele>782.75</ele>
      </trkpt>
      <trkpt lat="47.259183" lon="11.468145">
        <ele>783.25</ele>
      </trkpt>
      <trkpt lat="47.259245" lon="11.468424">
        <ele>784.25</ele>
      </trkpt>
      <trkpt lat="47.259353" lon="11.468848">
        <ele>787.5</ele>
      </trkpt>
      <trkpt lat="47.259418" lon="11.469104">
        <ele>790.25</ele>
      </trkpt>
      <trkpt lat="47.259482" lon="11.469437">
        <ele>791</ele>
      </trkpt>
      <trkpt lat="47.259551" lon="11.469918">
        <ele>791.5</ele>
      </trkpt>
      <trkpt lat="47.25956" lon="11.470045">
        <ele>791.75</ele>
      </trkpt>
      <trkpt lat="47.259559" lon="11.470144">
        <ele>792</ele>
      </trkpt>
      <trkpt lat="47.259551" lon="11.470238">
        <ele>792.25</ele>
      </trkpt>
      <trkpt lat="47.259502" lon="11.470579">
        <ele>793.25</ele>
      </trkpt>
      <trkpt lat="47.259418" lon="11.470984">
        <ele>795.25</ele>
      </trkpt>
      <trkpt lat="47.259354" lon="11.471248">
        <ele>797.25</ele>
      </trkpt>
      <trkpt lat="47.259332" lon="11.471249">
        <ele>797.25</ele>
      </trkpt>
      <trkpt lat="47.259094" lon="11.471264">
        <ele>798.25</ele>
      </trkpt>
      <trkpt lat="47.258997" lon="11.471228">
        <ele>798</ele>
      </trkpt>
      <trkpt lat="47.258952" lon="11.471194">
        <ele>798</ele>
      </trkpt>
      <trkpt lat="47.258636" lon="11.470887">
        <ele>798</ele>
      </trkpt>
      <trkpt lat="47.258549" lon="11.470815">
        <ele>798.5</ele>
      </trkpt>
      <trkpt lat="47.25842" lon="11.470753">
        <ele>798.75</ele>
      </trkpt>
      <trkpt lat="47.258291" lon="11.470726">
        <ele>799.25</ele>
      </trkpt>
      <trkpt lat="47.258111" lon="11.470759">
        <ele>799.5</ele>
      </trkpt>
      <trkpt lat="47.257722" lon="11.470958">
        <ele>800.5</ele>
      </trkpt>
      <trkpt lat="47.257583" lon="11.471052">
        <ele>801.25</ele>
      </trkpt>
      <trkpt lat="47.257518" lon="11.471105">
        <ele>801.75</ele>
      </trkpt>
      <trkpt lat="47.257456" lon="11.471172">
        <ele>803</ele>
      </trkpt>
      <trkpt lat="47.257379" lon="11.471282">
        <ele>805</ele>
      </trkpt>
      <trkpt lat="47.257329" lon="11.471388">
        <ele>806.5</ele>
      </trkpt>
      <trkpt lat="47.257295" lon="11.47148">
        <ele>807.75</ele>
      </trkpt>
      <trkpt lat="47.257269" lon="11.471583">
        <ele>808.75</ele>
      </trkpt>
      <trkpt lat="47.257245" lon="11.471722">
        <ele>810</ele>
      </trkpt>
      <trkpt lat="47.257165" lon="11.472597">
        <ele>814.5</ele>
      </trkpt>
      <trkpt lat="47.257132" lon="11.472799">
        <ele>814.75</ele>
      </trkpt>
      <trkpt lat="47.257119" lon="11.472839">
        <ele>815</ele>
      </trkpt>
      <trkpt lat="47.257079" lon="11.472898">
        <ele>815.75</ele>
      </trkpt>
      <trkpt lat="47.25705" lon="11.472916">
        <ele>816.5</ele>
      </trkpt>
      <trkpt lat="47.257019" lon="11.472915">
        <ele>817.25</ele>
      </trkpt>
      <trkpt lat="47.256981" lon="11.472889">
        <ele>818.25</ele>
      </trkpt>
      <trkpt lat="47.256963" lon="11.472861">
        <ele>818.75</ele>
      </trkpt>
      <trkpt lat="47.256836" lon="11.472425">
        <ele>822.5</ele>
      </trkpt>
      <trkpt lat="47.256651" lon="11.471825">
        <ele>827.441896677702</ele>
      </trkpt>
      <trkpt lat="47.256237176435576" lon="11.472084179499978">
        <ele>829.8969617602656</ele>
      </trkpt>
      <trkpt lat="47.25612083649702" lon="11.472157043709984">
        <ele>833.6344417603864</ele>
      </trkpt>
      <trkpt lat="47.256105" lon="11.472154">
        <ele>835.75</ele>
      </trkpt>
      <trkpt lat="47.256086" lon="11.472435">
        <ele>838.75</ele>
      </trkpt>
      <trkpt lat="47.256082" lon="11.472566">
        <ele>839.75</ele>
      </trkpt>
      <trkpt lat="47.256094" lon="11.472726">
        <ele>839.75</ele>
      </trkpt>
      <trkpt lat="47.256319" lon="11.474178">
        <ele>838</ele>
      </trkpt>
      <trkpt lat="47.256413" lon="11.474943">
        <ele>844</ele>
      </trkpt>
      <trkpt lat="47.256426" lon="11.475142">
        <ele>845</ele>
      </trkpt>
      <trkpt lat="47.256434" lon="11.47526">
        <ele>845.75</ele>
      </trkpt>
      <trkpt lat="47.256433" lon="11.475537">
        <ele>848.25</ele>
      </trkpt>
      <trkpt lat="47.256354" lon="11.477015">
        <ele>857.6597788617877</ele>
      </trkpt>
      <trkpt lat="47.25646531545516" lon="11.477232463822276">
        <ele>860.8792563889434</ele>
      </trkpt>
      <trkpt lat="47.25667856321101" lon="11.47737747582616">
        <ele>864.3212034354692</ele>
      </trkpt>
      <trkpt lat="47.256973827916795" lon="11.477534572162739">
        <ele>865.4939812002704</ele>
      </trkpt>
      <trkpt lat="47.25712966140324" lon="11.47752248782885">
        <ele>865.3269491154713</ele>
      </trkpt>
      <trkpt lat="47.25739680556015" lon="11.477963403235833">
        <ele>863.1956072265289</ele>
      </trkpt>
      <trkpt lat="47.25749848708564" lon="11.47860876839243">
        <ele>862.7887152331826</ele>
      </trkpt>
      <trkpt lat="47.257503427669974" lon="11.47864012591748">
        <ele>862.8708854422133</ele>
      </trkpt>
      <trkpt lat="47.25744601579149" lon="11.479063077594077">
        <ele>861.9960934016855</ele>
      </trkpt>
      <trkpt lat="47.25762783640794" lon="11.479669028733909">
        <ele>864.4942035164787</ele>
      </trkpt>
      <trkpt lat="47.257790486128584" lon="11.480211089285348">
        <ele>868.4867113681594</ele>
      </trkpt>
      <trkpt lat="47.25770846958483" lon="11.480694462630112">
        <ele>865.9972109214407</ele>
      </trkpt>
      <trkpt lat="47.25783969599365" lon="11.481141582973208">
        <ele>862.131603804132</ele>
      </trkpt>
      <trkpt lat="47.25801193016176" lon="11.481214088975179">
        <ele>861.5974784925293</ele>
      </trkpt>
      <trkpt lat="47.258315388999506" lon="11.480730715630443">
        <ele>864.0159807758876</ele>
      </trkpt>
      <trkpt lat="47.25841380770859" lon="11.480561534960088">
        <ele>863.4429014710332</ele>
      </trkpt>
      <trkpt lat="47.25846301699437" lon="11.480718631296583">
        <ele>860.4190930213401</ele>
      </trkpt>
      <trkpt lat="47.25870086123169" lon="11.480682378296251">
        <ele>849.4018394325403</ele>
      </trkpt>
      <trkpt lat="47.25872546574709" lon="11.480464860291619">
        <ele>849.6080572476379</ele>
      </trkpt>
      <trkpt lat="47.25890589850957" lon="11.480211089285348">
        <ele>842.184688302317</ele>
      </trkpt>
      <trkpt lat="47.25911913643648" lon="11.480066077282686">
        <ele>836.2938633220589</ele>
      </trkpt>
      <trkpt lat="47.259438991716365" lon="11.479836474944165">
        <ele>832.6541187765647</ele>
      </trkpt>
      <trkpt lat="47.25970963698256" lon="11.479667294273781">
        <ele>828.6997491328605</ele>
      </trkpt>
      <trkpt lat="47.259712" lon="11.479626">
        <ele>829</ele>
      </trkpt>
      <trkpt lat="47.259788" lon="11.479634">
        <ele>828</ele>
      </trkpt>
      <trkpt lat="47.259815" lon="11.479687">
        <ele>827.5</ele>
      </trkpt>
      <trkpt lat="47.259864" lon="11.479759">
        <ele>826.75</ele>
      </trkpt>
      <trkpt lat="47.260091" lon="11.480031">
        <ele>825.5</ele>
      </trkpt>
      <trkpt lat="47.260143" lon="11.479902">
        <ele>826</ele>
      </trkpt>
      <trkpt lat="47.260154" lon="11.479851">
        <ele>826</ele>
      </trkpt>
      <trkpt lat="47.26016" lon="11.479755">
        <ele>826</ele>
      </trkpt>
      <trkpt lat="47.260161" lon="11.479461">
        <ele>825.75</ele>
      </trkpt>
      <trkpt lat="47.260197" lon="11.479125">
        <ele>825.75</ele>
      </trkpt>
      <trkpt lat="47.260197" lon="11.478894">
        <ele>824.5</ele>
      </trkpt>
      <trkpt lat="47.260204" lon="11.478764">
        <ele>824</ele>
      </trkpt>
      <trkpt lat="47.260225" lon="11.478605">
        <ele>823.5</ele>
      </trkpt>
      <trkpt lat="47.260262" lon="11.47843">
        <ele>822.75</ele>
      </trkpt>
      <trkpt lat="47.260382" lon="11.477979">
        <ele>816.75</ele>
      </trkpt>
      <trkpt lat="47.26051" lon="11.477658">
        <ele>812.25</ele>
      </trkpt>
      <trkpt lat="47.260658" lon="11.477365">
        <ele>808.75</ele>
      </trkpt>
      <trkpt lat="47.260712" lon="11.477219">
        <ele>806.75</ele>
      </trkpt>
      <trkpt lat="47.260749" lon="11.477071">
        <ele>804.5</ele>
      </trkpt>
      <trkpt lat="47.260819" lon="11.476708">
        <ele>798.5</ele>
      </trkpt>
      <trkpt lat="47.260866" lon="11.476513">
        <ele>795</ele>
      </trkpt>
      <trkpt lat="47.260914" lon="11.476367">
        <ele>792.25</ele>
      </trkpt>
      <trkpt lat="47.260945" lon="11.476313">
        <ele>791.5</ele>
      </trkpt>
      <trkpt lat="47.26103" lon="11.476255">
        <ele>790.75</ele>
      </trkpt>
      <trkpt lat="47.261049" lon="11.476239">
        <ele>790.5</ele>
      </trkpt>
      <trkpt lat="47.261243" lon="11.476086">
        <ele>789</ele>
      </trkpt>
      <trkpt lat="47.261354" lon="11.475595">
        <ele>782</ele>
      </trkpt>
      <trkpt lat="47.261359" lon="11.474721">
        <ele>763.25</ele>
      </trkpt>
      <trkpt lat="47.261575" lon="11.474109">
        <ele>743.75</ele>
      </trkpt>
      <trkpt lat="47.261932" lon="11.473863">
        <ele>729.75</ele>
      </trkpt>
      <trkpt lat="47.261688" lon="11.473761">
        <ele>730.75</ele>
      </trkpt>
      <trkpt lat="47.26195" lon="11.473691">
        <ele>723.25</ele>
      </trkpt>
      <trkpt lat="47.261663" lon="11.473573">
        <ele>725</ele>
      </trkpt>
      <trkpt lat="47.261932" lon="11.473374">
        <ele>712.25</ele>
      </trkpt>
      <trkpt lat="47.261692" lon="11.473326">
        <ele>716.25</ele>
      </trkpt>
      <trkpt lat="47.261943" lon="11.473122">
        <ele>708</ele>
      </trkpt>
      <trkpt lat="47.261706" lon="11.472993">
        <ele>713.5</ele>
      </trkpt>
      <trkpt lat="47.26171" lon="11.472894">
        <ele>712.5</ele>
      </trkpt>
      <trkpt lat="47.26171" lon="11.472894">
        <ele>712.5</ele>
      </trkpt>
      <trkpt lat="47.261713" lon="11.472834">
        <ele>712.25</ele>
      </trkpt>
      <trkpt lat="47.261682" lon="11.47279">
        <ele>713</ele>
      </trkpt>
      <trkpt lat="47.261683" lon="11.472738">
        <ele>712.75</ele>
      </trkpt>
      <trkpt lat="47.261683" lon="11.472715">
        <ele>712.5</ele>
      </trkpt>
      <trkpt lat="47.2617" lon="11.472647">
        <ele>711.5</ele>
      </trkpt>
      <trkpt lat="47.261795" lon="11.47243">
        <ele>706.75</ele>
      </trkpt>
      <trkpt lat="47.26187" lon="11.472138">
        <ele>704.5</ele>
      </trkpt>
      <trkpt lat="47.261952" lon="11.471903">
        <ele>701.25</ele>
      </trkpt>
      <trkpt lat="47.261926" lon="11.471863">
        <ele>702.75</ele>
      </trkpt>
      <trkpt lat="47.261891" lon="11.471462">
        <ele>702</ele>
      </trkpt>
      <trkpt lat="47.261988" lon="11.471084">
        <ele>689.75</ele>
      </trkpt>
      <trkpt lat="47.262005" lon="11.47093">
        <ele>686</ele>
      </trkpt>
      <trkpt lat="47.261984" lon="11.470683">
        <ele>684</ele>
      </trkpt>
      <trkpt lat="47.26194" lon="11.47049">
        <ele>684.5</ele>
      </trkpt>
      <trkpt lat="47.261725" lon="11.470177">
        <ele>694.25</ele>
      </trkpt>
      <trkpt lat="47.261696" lon="11.469718">
        <ele>687.5</ele>
      </trkpt>
      <trkpt lat="47.261435" lon="11.469419">
        <ele>697.75</ele>
      </trkpt>
      <trkpt lat="47.261363" lon="11.469241">
        <ele>698.75</ele>
      </trkpt>
      <trkpt lat="47.261168" lon="11.469047">
        <ele>707.25</ele>
      </trkpt>
      <trkpt lat="47.261213" lon="11.46873">
        <ele>695.5</ele>
      </trkpt>
      <trkpt lat="47.261191" lon="11.468592">
        <ele>693</ele>
      </trkpt>
      <trkpt lat="47.260973" lon="11.468321">
        <ele>697.75</ele>
      </trkpt>
      <trkpt lat="47.260894" lon="11.468142">
        <ele>698</ele>
      </trkpt>
      <trkpt lat="47.260814" lon="11.467833">
        <ele>695</ele>
      </trkpt>
      <trkpt lat="47.260869" lon="11.467436">
        <ele>684</ele>
      </trkpt>
      <trkpt lat="47.261043" lon="11.467226">
        <ele>675</ele>
      </trkpt>
      <trkpt lat="47.261129" lon="11.466981">
        <ele>669.75</ele>
      </trkpt>
      <trkpt lat="47.261155" lon="11.466783">
        <ele>667.75</ele>
      </trkpt>
      <trkpt lat="47.261059" lon="11.466277">
        <ele>671</ele>
      </trkpt>
      <trkpt lat="47.261041" lon="11.466065">
        <ele>671.25</ele>
      </trkpt>
      <trkpt lat="47.261164" lon="11.465699">
        <ele>664.25</ele>
      </trkpt>
      <trkpt lat="47.261149" lon="11.465547">
        <ele>665</ele>
      </trkpt>
      <trkpt lat="47.261127" lon="11.465467">
        <ele>666.25</ele>
      </trkpt>
      <trkpt lat="47.261087" lon="11.465313">
        <ele>668.75</ele>
      </trkpt>
      <trkpt lat="47.261073" lon="11.465186">
        <ele>669.5</ele>
      </trkpt>
      <trkpt lat="47.261128" lon="11.464789">
        <ele>665.75</ele>
      </trkpt>
      <trkpt lat="47.261151" lon="11.464214">
        <ele>662.25</ele>
      </trkpt>
      <trkpt lat="47.261131" lon="11.463665">
        <ele>665.25</ele>
      </trkpt>
      <trkpt lat="47.261162" lon="11.462975">
        <ele>660.25</ele>
      </trkpt>
      <trkpt lat="47.26114" lon="11.462635">
        <ele>657.75</ele>
      </trkpt>
      <trkpt lat="47.261108" lon="11.462402">
        <ele>655.5</ele>
      </trkpt>
      <trkpt lat="47.261038" lon="11.462142">
        <ele>651.5</ele>
      </trkpt>
      <trkpt lat="47.260952" lon="11.461933">
        <ele>647.5</ele>
      </trkpt>
      <trkpt lat="47.260752" lon="11.461389">
        <ele>643.5</ele>
      </trkpt>
      <trkpt lat="47.260668" lon="11.461065">
        <ele>646</ele>
      </trkpt>
      <trkpt lat="47.260678" lon="11.460939">
        <ele>645</ele>
      </trkpt>
      <trkpt lat="47.260624" lon="11.460756">
        <ele>646.25</ele>
      </trkpt>
      <trkpt lat="47.260538" lon="11.46046">
        <ele>648</ele>
      </trkpt>
      <trkpt lat="47.260478" lon="11.460336">
        <ele>648.75</ele>
      </trkpt>
      <trkpt lat="47.260446" lon="11.460236">
        <ele>648.75</ele>
      </trkpt>
      <trkpt lat="47.260433" lon="11.460163">
        <ele>648.5</ele>
      </trkpt>
      <trkpt lat="47.260426" lon="11.460073">
        <ele>647.75</ele>
      </trkpt>
      <trkpt lat="47.260444" lon="11.459884">
        <ele>647.25</ele>
      </trkpt>
      <trkpt lat="47.260428" lon="11.459766">
        <ele>648</ele>
      </trkpt>
      <trkpt lat="47.260429" lon="11.459701">
        <ele>648.25</ele>
      </trkpt>
      <trkpt lat="47.260443" lon="11.459643">
        <ele>648.25</ele>
      </trkpt>
      <trkpt lat="47.260512" lon="11.459488">
        <ele>647.5</ele>
      </trkpt>
      <trkpt lat="47.260573" lon="11.459383">
        <ele>647</ele>
      </trkpt>
      <trkpt lat="47.260622" lon="11.459268">
        <ele>646.75</ele>
      </trkpt>
      <trkpt lat="47.260642" lon="11.459185">
        <ele>646.75</ele>
      </trkpt>
      <trkpt lat="47.260653" lon="11.459089">
        <ele>649.25</ele>
      </trkpt>
      <trkpt lat="47.260658" lon="11.458787">
        <ele>659</ele>
      </trkpt>
      <trkpt lat="47.260707" lon="11.458611">
        <ele>663.75</ele>
      </trkpt>
      <trkpt lat="47.260616" lon="11.458591">
        <ele>666.25</ele>
      </trkpt>
      <trkpt lat="47.260383" lon="11.458498">
        <ele>674</ele>
      </trkpt>
      <trkpt lat="47.260163" lon="11.458462">
        <ele>679.75</ele>
      </trkpt>
      <trkpt lat="47.260078" lon="11.458477">
        <ele>681</ele>
      </trkpt>
      <trkpt lat="47.259717" lon="11.458689">
        <ele>678.25</ele>
      </trkpt>
      <trkpt lat="47.25966" lon="11.458717">
        <ele>678.25</ele>
      </trkpt>
      <trkpt lat="47.259526" lon="11.458784">
        <ele>679</ele>
      </trkpt>
      <trkpt lat="47.259487" lon="11.458762">
        <ele>680</ele>
      </trkpt>
      <trkpt lat="47.259406" lon="11.458689">
        <ele>682</ele>
      </trkpt>
      <trkpt lat="47.259333" lon="11.458563">
        <ele>684.25</ele>
      </trkpt>
      <trkpt lat="47.259227" lon="11.458302">
        <ele>686.25</ele>
      </trkpt>
      <trkpt lat="47.25931" lon="11.457929">
        <ele>690.75</ele>
      </trkpt>
      <trkpt lat="47.259325" lon="11.457832">
        <ele>692.25</ele>
      </trkpt>
      <trkpt lat="47.259318" lon="11.457696">
        <ele>693.75</ele>
      </trkpt>
      <trkpt lat="47.259378" lon="11.456999">
        <ele>699.25</ele>
      </trkpt>
      <trkpt lat="47.259411" lon="11.456689">
        <ele>701.5</ele>
      </trkpt>
      <trkpt lat="47.259452" lon="11.45648">
        <ele>701.25</ele>
      </trkpt>
      <trkpt lat="47.259468" lon="11.456428">
        <ele>701.25</ele>
      </trkpt>
      <trkpt lat="47.259503" lon="11.45632">
        <ele>701.5</ele>
      </trkpt>
      <trkpt lat="47.259571" lon="11.456168">
        <ele>701.75</ele>
      </trkpt>
      <trkpt lat="47.259618" lon="11.456063">
        <ele>702</ele>
      </trkpt>
      <trkpt lat="47.259869" lon="11.455621">
        <ele>704.25</ele>
      </trkpt>
      <trkpt lat="47.260003" lon="11.455356">
        <ele>704.75</ele>
      </trkpt>
      <trkpt lat="47.26007" lon="11.454802">
        <ele>703.5</ele>
      </trkpt>
      <trkpt lat="47.260082" lon="11.454707">
        <ele>704.25</ele>
      </trkpt>
      <trkpt lat="47.259638" lon="11.454026">
        <ele>704.5</ele>
      </trkpt>
      <trkpt lat="47.259054" lon="11.453049">
        <ele>710.5</ele>
      </trkpt>
      <trkpt lat="47.258662" lon="11.452449">
        <ele>712.75</ele>
      </trkpt>
      <trkpt lat="47.258355" lon="11.451856">
        <ele>710.25</ele>
      </trkpt>
      <trkpt lat="47.258076" lon="11.451387">
        <ele>714.5</ele>
      </trkpt>
      <trkpt lat="47.257969" lon="11.451193">
        <ele>715.25</ele>
      </trkpt>
      <trkpt lat="47.257872" lon="11.450996">
        <ele>715.25</ele>
      </trkpt>
      <trkpt lat="47.257806" lon="11.450814">
        <ele>714.75</ele>
      </trkpt>
      <trkpt lat="47.257766" lon="11.450653">
        <ele>714.75</ele>
      </trkpt>
      <trkpt lat="47.257741" lon="11.450499">
        <ele>714.75</ele>
      </trkpt>
      <trkpt lat="47.257711" lon="11.450007">
        <ele>715.25</ele>
      </trkpt>
      <trkpt lat="47.257682" lon="11.449733">
        <ele>714.25</ele>
      </trkpt>
      <trkpt lat="47.257628" lon="11.449379">
        <ele>713.5</ele>
      </trkpt>
      <trkpt lat="47.257578" lon="11.449048">
        <ele>713.25</ele>
      </trkpt>
      <trkpt lat="47.257635" lon="11.449188">
        <ele>713</ele>
      </trkpt>
      <trkpt lat="47.257725" lon="11.449469">
        <ele>714</ele>
      </trkpt>
      <trkpt lat="47.2579" lon="11.450276">
        <ele>716</ele>
      </trkpt>
      <trkpt lat="47.258005" lon="11.450579">
        <ele>716.75</ele>
      </trkpt>
      <trkpt lat="47.258102" lon="11.450768">
        <ele>717.75</ele>
      </trkpt>
      <trkpt lat="47.258374" lon="11.450986">
        <ele>718.25</ele>
      </trkpt>
      <trkpt lat="47.25841" lon="11.451051">
        <ele>715.5684817204144</ele>
      </trkpt>
      <trkpt lat="47.25846925506232" lon="11.451219818300274">
        <ele>714.6875806321399</ele>
      </trkpt>
      <trkpt lat="47.25859278624742" lon="11.451292623810872">
        <ele>717.1363363170273</ele>
      </trkpt>
      <trkpt lat="47.25871137591383" lon="11.45122709885149">
        <ele>721.3578166063384</ele>
      </trkpt>
      <trkpt lat="47.2587904355436" lon="11.451197976648075">
        <ele>723.6662682469571</ele>
      </trkpt>
      <trkpt lat="47.25888431870095" lon="11.451329026566896">
        <ele>724.659847276981</ele>
      </trkpt>
      <trkpt lat="47.259052319725015" lon="11.451678493017567">
        <ele>726.7939686014613</ele>
      </trkpt>
      <trkpt lat="47.25909431989743" lon="11.451762219353043">
        <ele>727.2858031590075</ele>
      </trkpt>
      <trkpt lat="47.259138790632164" lon="11.451787701282228">
        <ele>727.9408864124819</ele>
      </trkpt>
      <trkpt lat="47.2591956142947" lon="11.451740377699394">
        <ele>728.8858631655874</ele>
      </trkpt>
      <trkpt lat="47.25914867301282" lon="11.451591126404026">
        <ele>729.0398060374499</ele>
      </trkpt>
      <trkpt lat="47.25909679049485" lon="11.451514680617777">
        <ele>728.6053745130789</ele>
      </trkpt>
      <trkpt lat="47.25912396705823" lon="11.451438234831585">
        <ele>728.2909203653221</ele>
      </trkpt>
      <trkpt lat="47.25916843776807" lon="11.451343587667367">
        <ele>727.3689196866296</ele>
      </trkpt>
      <trkpt lat="47.25913632003673" lon="11.451154293340352">
        <ele>725.5559146239734</ele>
      </trkpt>
      <trkpt lat="47.259086908104535" lon="11.451081487829725">
        <ele>725.383591874486</ele>
      </trkpt>
      <trkpt lat="47.25903996672628" lon="11.450986840665507">
        <ele>724.897929604958</ele>
      </trkpt>
      <trkpt lat="47.25899549590852" lon="11.450841229645732">
        <ele>724.637823988066</ele>
      </trkpt>
      <trkpt lat="47.259052319724844" lon="11.450721100552272">
        <ele>722.6835318918949</ele>
      </trkpt>
      <trkpt lat="47.25916843776807" lon="11.450757503308324">
        <ele>718.8995183972795</ele>
      </trkpt>
      <trkpt lat="47.25917090836202" lon="11.450826668543328">
        <ele>719.4865374241982</ele>
      </trkpt>
      <trkpt lat="47.25924255553494" lon="11.450823028267678">
        <ele>716.468383155789</ele>
      </trkpt>
      <trkpt lat="47.25932902613158" lon="11.450884912951494">
        <ele>713.9099411974979</ele>
      </trkpt>
      <trkpt lat="47.25936855550012" lon="11.450986840665507">
        <ele>714.7814066220191</ele>
      </trkpt>
      <trkpt lat="47.25939573192403" lon="11.450910394880708">
        <ele>711.4894720891594</ele>
      </trkpt>
      <trkpt lat="47.25947231995258" lon="11.450983200391363">
        <ele>710.1849073495717</ele>
      </trkpt>
      <trkpt lat="47.25962623509599" lon="11.450951887555817">
        <ele>700.5142201567078</ele>
      </trkpt>
      <trkpt lat="47.25971764620306" lon="11.450831758463778">
        <ele>691.6402468751921</ele>
      </trkpt>
      <trkpt lat="47.25982497159532" lon="11.450832899871102">
        <ele>684.9315896558317</ele>
      </trkpt>
      <trkpt lat="47.25993149067028" lon="11.450901139751124">
        <ele>679.913490761743</ele>
      </trkpt>
      <trkpt lat="47.260007906396226" lon="11.450972791625162">
        <ele>677.1222982028022</ele>
      </trkpt>
      <trkpt lat="47.26009590012609" lon="11.451041031505184">
        <ele>673.6537773689219</ele>
      </trkpt>
      <trkpt lat="47.26002874702962" lon="11.450863607817723">
        <ele>672.6061795244192</ele>
      </trkpt>
      <trkpt lat="47.259943068817506" lon="11.45069983210513">
        <ele>674.6637555007331</ele>
      </trkpt>
      <trkpt lat="47.25991528125931" lon="11.450628180231092">
        <ele>675.0303387909379</ele>
      </trkpt>
      <trkpt lat="47.25995696259088" lon="11.450549704368882">
        <ele>670.2872229598704</ele>
      </trkpt>
      <trkpt lat="47.259996328263185" lon="11.450488288477032">
        <ele>665.7958933616106</ele>
      </trkpt>
      <trkpt lat="47.26004958765489" lon="11.450515584429581">
        <ele>662.8016845530633</ele>
      </trkpt>
      <trkpt lat="47.26008432201232" lon="11.450467816513964">
        <ele>659.082030394395</ele>
      </trkpt>
      <trkpt lat="47.26017231561471" lon="11.450508760441437">
        <ele>653.957769789058</ele>
      </trkpt>
      <trkpt lat="47.26021235291307" lon="11.450491417490696">
        <ele>650.9207043177971</ele>
      </trkpt>
      <trkpt lat="47.26035360538947" lon="11.45068931314259">
        <ele>646.173959244696</ele>
      </trkpt>
      <trkpt lat="47.26045549218733" lon="11.450716609093746">
        <ele>640.8551871845974</ele>
      </trkpt>
      <trkpt lat="47.260513382325996" lon="11.45075072903441">
        <ele>638.8332703714968</ele>
      </trkpt>
      <trkpt lat="47.26067084318342" lon="11.450743905046266">
        <ele>632.3245071151957</ele>
      </trkpt>
      <trkpt lat="47.260849071496295" lon="11.450602361256784">
        <ele>624.788672774816</ele>
      </trkpt>
      <trkpt lat="47.26087917415276" lon="11.450540945364935">
        <ele>622.1670821151141</ele>
      </trkpt>
      <trkpt lat="47.260953272926315" lon="11.450540945364935">
        <ele>619.5231920908908</ele>
      </trkpt>
      <trkpt lat="47.261027371595674" lon="11.450493177447953">
        <ele>615.5027484393568</ele>
      </trkpt>
      <trkpt lat="47.26112694151996" lon="11.450503413430141">
        <ele>612.3207255805411</ele>
      </trkpt>
      <trkpt lat="47.261189462074185" lon="11.450397641616775">
        <ele>607.4921625092355</ele>
      </trkpt>
      <trkpt lat="47.26094249393415" lon="11.449843951397822">
        <ele>602.8634148312542</ele>
      </trkpt>
      <trkpt lat="47.260818881202226" lon="11.449566817834778">
        <ele>603.1063328749011</ele>
      </trkpt>
      <trkpt lat="47.260818881202226" lon="11.449566817834778">
        <ele>603.1063328749011</ele>
      </trkpt>
      <trkpt lat="47.260647300097645" lon="11.449119638220111">
        <ele>603.1840719690257</ele>
      </trkpt>
      <trkpt lat="47.26049233240063" lon="11.448497663716031">
        <ele>600.4426385384961</ele>
      </trkpt>
      <trkpt lat="47.260392761375726" lon="11.448098027920764">
        <ele>599.4268899095338</ele>
      </trkpt>
    </trkseg>
  </trk>
  <trk>
    <name>Segment 2</name>
    <trkseg>
      <name>Segment 2</name>
      <desc>distance: 8.0km, elevation_gain: 125.0m, elevation_loss: 523.0m, estimated_duration: 00:41, avg_km_per_hour: 10.9</desc>
      <trkpt lat="47.222051" lon="11.4247">
        <ele>1001.53</ele>
        </trkpt>
      <trkpt lat="47.222089" lon="11.42482">
        <ele>1001.43</ele>
        </trkpt>
      <trkpt lat="47.222212" lon="11.424718">
        <ele>999.78</ele>
        </trkpt>
      <trkpt lat="47.222178" lon="11.42462">
        <ele>999.88</ele>
        </trkpt>
      <trkpt lat="47.222049" lon="11.424183">
        <ele>1000.24</ele>
        </trkpt>
      <trkpt lat="47.221707" lon="11.423464">
        <ele>1003.71</ele>
        </trkpt>
      <trkpt lat="47.221561" lon="11.422965">
        <ele>1004.39</ele>
        </trkpt>
      <trkpt lat="47.22155" lon="11.422756">
        <ele>1003.95</ele>
        </trkpt>
      <trkpt lat="47.221477" lon="11.422257">
        <ele>1003.28</ele>
        </trkpt>
      <trkpt lat="47.221475" lon="11.422199">
        <ele>1003.12</ele>
        </trkpt>
      <trkpt lat="47.221467" lon="11.421768">
        <ele>1002.01</ele>
        </trkpt>
      <trkpt lat="47.221247" lon="11.421624">
        <ele>1003.62</ele>
        </trkpt>
      <trkpt lat="47.22104" lon="11.421314">
        <ele>1004.47</ele>
        </trkpt>
      <trkpt lat="47.220717" lon="11.420942">
        <ele>1004.98</ele>
        </trkpt>
      <trkpt lat="47.220463" lon="11.420618">
        <ele>1005.33</ele>
        </trkpt>
      <trkpt lat="47.220509" lon="11.420572">
        <ele>1004.91</ele>
        </trkpt>
      <trkpt lat="47.220394" lon="11.420523">
        <ele>1005.58</ele>
        </trkpt>
      <trkpt lat="47.220509" lon="11.420572">
        <ele>1004.91</ele>
      </trkpt>
      <trkpt lat="47.220463" lon="11.420618">
        <ele>1005.33</ele>
      </trkpt>
      <trkpt lat="47.220175" lon="11.420898">
        <ele>1008</ele>
      </trkpt>
      <trkpt lat="47.219922" lon="11.420907">
        <ele>1009.83</ele>
      </trkpt>
      <trkpt lat="47.219901" lon="11.42078">
        <ele>1009.61</ele>
      </trkpt>
      <trkpt lat="47.219656" lon="11.420707">
        <ele>1011.53</ele>
      </trkpt>
      <trkpt lat="47.219444" lon="11.420685">
        <ele>1013.32</ele>
      </trkpt>
      <trkpt lat="47.219306" lon="11.420717">
        <ele>1014.59</ele>
      </trkpt>
      <trkpt lat="47.219235" lon="11.420694">
        <ele>1015.08</ele>
      </trkpt>
      <trkpt lat="47.219202" lon="11.420683">
        <ele>1015.3</ele>
      </trkpt>
      <trkpt lat="47.21903" lon="11.420626">
        <ele>1016.49</ele>
      </trkpt>
      <trkpt lat="47.218862" lon="11.42066">
        <ele>1017.76</ele>
      </trkpt>
      <trkpt lat="47.218585" lon="11.420683">
        <ele>1019.53</ele>
      </trkpt>
      <trkpt lat="47.218348" lon="11.420658">
        <ele>1021.26</ele>
      </trkpt>
      <trkpt lat="47.218542" lon="11.420526">
        <ele>1021.32</ele>
      </trkpt>
      <trkpt lat="47.218569" lon="11.420508">
        <ele>1021.26</ele>
      </trkpt>
      <trkpt lat="47.218592" lon="11.420192">
        <ele>1024.3</ele>
      </trkpt>
      <trkpt lat="47.218854" lon="11.420018">
        <ele>1019.7</ele>
      </trkpt>
      <trkpt lat="47.21906" lon="11.419961">
        <ele>1015.58</ele>
      </trkpt>
      <trkpt lat="47.21927" lon="11.419698">
        <ele>1012.21</ele>
      </trkpt>
      <trkpt lat="47.219369" lon="11.419627">
        <ele>1011.11</ele>
      </trkpt>
      <trkpt lat="47.219409" lon="11.419599">
        <ele>1010.71</ele>
      </trkpt>
      <trkpt lat="47.219451" lon="11.419509">
        <ele>1010.19</ele>
      </trkpt>
      <trkpt lat="47.219523" lon="11.419494">
        <ele>1009.6</ele>
      </trkpt>
      <trkpt lat="47.219544" lon="11.419347">
        <ele>1009.13</ele>
      </trkpt>
      <trkpt lat="47.219595" lon="11.419309">
        <ele>1008.64</ele>
      </trkpt>
      <trkpt lat="47.219718" lon="11.419236">
        <ele>1007.46</ele>
      </trkpt>
      <trkpt lat="47.219924" lon="11.419438">
        <ele>1006.68</ele>
      </trkpt>
      <trkpt lat="47.220266" lon="11.419331">
        <ele>1003.79</ele>
      </trkpt>
      <trkpt lat="47.220361" lon="11.419449">
        <ele>1003.53</ele>
      </trkpt>
      <trkpt lat="47.220482" lon="11.419333">
        <ele>1002.41</ele>
      </trkpt>
      <trkpt lat="47.220515" lon="11.419209">
        <ele>1001.85</ele>
      </trkpt>
      <trkpt lat="47.22069" lon="11.41887">
        <ele>999.69</ele>
      </trkpt>
      <trkpt lat="47.220786" lon="11.418803">
        <ele>999.09</ele>
      </trkpt>
      <trkpt lat="47.220937" lon="11.418808">
        <ele>998.66</ele>
      </trkpt>
      <trkpt lat="47.2209335" lon="11.4187439">
        <ele>998.5</ele>
      </trkpt>
      <trkpt lat="47.2211452" lon="11.4186661">
        <ele>998.24</ele>
      </trkpt>
      <trkpt lat="47.2213984" lon="11.4183614">
        <ele>999.22</ele>
      </trkpt>
      <trkpt lat="47.22185" lon="11.4179274">
        <ele>1001.87</ele>
      </trkpt>
      <trkpt lat="47.2222287" lon="11.4177001">
        <ele>1001.83</ele>
      </trkpt>
      <trkpt lat="47.222793" lon="11.4172381">
        <ele>992.21</ele>
      </trkpt>
      <trkpt lat="47.2228002" lon="11.417129">
        <ele>991.37</ele>
      </trkpt>
      <trkpt lat="47.2227794" lon="11.4170535">
        <ele>991.08</ele>
      </trkpt>
      <trkpt lat="47.2227175" lon="11.416932">
        <ele>990.79</ele>
      </trkpt>
      <trkpt lat="47.2226764" lon="11.4168017">
        <ele>990.08</ele>
      </trkpt>
      <trkpt lat="47.2226197" lon="11.4166714">
        <ele>989.35</ele>
      </trkpt>
      <trkpt lat="47.222576" lon="11.4165291">
        <ele>988.37</ele>
      </trkpt>
      <trkpt lat="47.2225586" lon="11.4164859">
        <ele>988.1</ele>
      </trkpt>
      <trkpt lat="47.2224838" lon="11.4164056">
        <ele>987.85</ele>
      </trkpt>
      <trkpt lat="47.2223811" lon="11.4162827">
        <ele>987.37</ele>
      </trkpt>
      <trkpt lat="47.2223294" lon="11.4161586">
        <ele>986.68</ele>
      </trkpt>
      <trkpt lat="47.2222741" lon="11.4160589">
        <ele>986.19</ele>
      </trkpt>
      <trkpt lat="47.2222421" lon="11.4159736">
        <ele>985.71</ele>
      </trkpt>
      <trkpt lat="47.2222311" lon="11.41585">
        <ele>984.84</ele>
      </trkpt>
      <trkpt lat="47.2222311" lon="11.4157284">
        <ele>983.87</ele>
      </trkpt>
      <trkpt lat="47.2222311" lon="11.4156465">
        <ele>983.22</ele>
      </trkpt>
      <trkpt lat="47.2223741" lon="11.4154376">
        <ele>980.56</ele>
      </trkpt>
      <trkpt lat="47.2224584" lon="11.415396">
        <ele>979.43</ele>
      </trkpt>
      <trkpt lat="47.2225273" lon="11.4153624">
        <ele>978.36</ele>
      </trkpt>
      <trkpt lat="47.2225955" lon="11.4153111">
        <ele>976.94</ele>
      </trkpt>
      <trkpt lat="47.2226336" lon="11.4152781">
        <ele>976.02</ele>
      </trkpt>
      <trkpt lat="47.222708" lon="11.4152106">
        <ele>974.06</ele>
      </trkpt>
      <trkpt lat="47.2227645" lon="11.4151684">
        <ele>972.57</ele>
      </trkpt>
      <trkpt lat="47.223013" lon="11.4150605">
        <ele>966.54</ele>
      </trkpt>
      <trkpt lat="47.2230701" lon="11.4150276">
        <ele>965.14</ele>
      </trkpt>
      <trkpt lat="47.2231126" lon="11.4149605">
        <ele>963.78</ele>
      </trkpt>
      <trkpt lat="47.2231611" lon="11.4148212">
        <ele>961.96</ele>
      </trkpt>
      <trkpt lat="47.2231839" lon="11.4147243">
        <ele>961.07</ele>
      </trkpt>
      <trkpt lat="47.2232126" lon="11.4146411">
        <ele>960.32</ele>
      </trkpt>
      <trkpt lat="47.2232448" lon="11.4145789">
        <ele>959.74</ele>
      </trkpt>
      <trkpt lat="47.2232896" lon="11.4145346">
        <ele>959.2</ele>
      </trkpt>
      <trkpt lat="47.2233163" lon="11.4145092">
        <ele>958.93</ele>
      </trkpt>
      <trkpt lat="47.2233756" lon="11.4144807">
        <ele>958.5</ele>
      </trkpt>
      <trkpt lat="47.2234191" lon="11.4144618">
        <ele>958.27</ele>
      </trkpt>
      <trkpt lat="47.223471" lon="11.4144256">
        <ele>958.05</ele>
      </trkpt>
      <trkpt lat="47.2235011" lon="11.4143933">
        <ele>957.95</ele>
      </trkpt>
      <trkpt lat="47.2235718" lon="11.4143837">
        <ele>957.85</ele>
      </trkpt>
      <trkpt lat="47.2236088" lon="11.4143837">
        <ele>957.84</ele>
      </trkpt>
      <trkpt lat="47.2236715" lon="11.4143837">
        <ele>957.85</ele>
      </trkpt>
      <trkpt lat="47.2237892" lon="11.4146972">
        <ele>957.93</ele>
      </trkpt>
      <trkpt lat="47.2236633" lon="11.414228">
        <ele>957.76</ele>
      </trkpt>
      <trkpt lat="47.223629" lon="11.4141904">
        <ele>957.68</ele>
      </trkpt>
      <trkpt lat="47.223598" lon="11.4140968">
        <ele>957.5</ele>
      </trkpt>
      <trkpt lat="47.2235873" lon="11.4140484">
        <ele>957.42</ele>
      </trkpt>
      <trkpt lat="47.2235863" lon="11.4139885">
        <ele>957.33</ele>
      </trkpt>
      <trkpt lat="47.2236361" lon="11.4137226">
        <ele>957.05</ele>
      </trkpt>
      <trkpt lat="47.2237461" lon="11.4135554">
        <ele>957.06</ele>
      </trkpt>
      <trkpt lat="47.2237749" lon="11.4134932">
        <ele>957.04</ele>
      </trkpt>
      <trkpt lat="47.2238078" lon="11.4133337">
        <ele>956.85</ele>
      </trkpt>
      <trkpt lat="47.2238477" lon="11.4132519">
        <ele>956.81</ele>
      </trkpt>
      <trkpt lat="47.2239104" lon="11.4131698">
        <ele>956.87</ele>
      </trkpt>
      <trkpt lat="47.2239439" lon="11.4130839">
        <ele>956.87</ele>
      </trkpt>
      <trkpt lat="47.2239803" lon="11.4130374">
        <ele>956.92</ele>
      </trkpt>
      <trkpt lat="47.2242911" lon="11.4128891">
        <ele>955.86</ele>
      </trkpt>
      <trkpt lat="47.2243512" lon="11.4128721">
        <ele>955.28</ele>
      </trkpt>
      <trkpt lat="47.2244029" lon="11.412845">
        <ele>954.63</ele>
      </trkpt>
      <trkpt lat="47.2246163" lon="11.4128076">
        <ele>951.5</ele>
      </trkpt>
      <trkpt lat="47.2246839" lon="11.4128632">
        <ele>950.96</ele>
      </trkpt>
      <trkpt lat="47.2247153" lon="11.4129764">
        <ele>951.52</ele>
      </trkpt>
      <trkpt lat="47.2247528" lon="11.4131266">
        <ele>952.33</ele>
      </trkpt>
      <trkpt lat="47.2247756" lon="11.413346">
        <ele>953.67</ele>
      </trkpt>
      <trkpt lat="47.2247874" lon="11.4133773">
        <ele>953.74</ele>
      </trkpt>
      <trkpt lat="47.2248704" lon="11.4134365">
        <ele>953.23</ele>
      </trkpt>
      <trkpt lat="47.2249421" lon="11.4134471">
        <ele>952.46</ele>
      </trkpt>
      <trkpt lat="47.2250088" lon="11.4134471">
        <ele>951.59</ele>
      </trkpt>
      <trkpt lat="47.225232" lon="11.4131075">
        <ele>945.13</ele>
      </trkpt>
      <trkpt lat="47.2254204" lon="11.4127745">
        <ele>939.22</ele>
      </trkpt>
      <trkpt lat="47.2255784" lon="11.4125057">
        <ele>935.3</ele>
      </trkpt>
      <trkpt lat="47.2256922" lon="11.4124349">
        <ele>933.36</ele>
      </trkpt>
      <trkpt lat="47.2256987" lon="11.4124319">
        <ele>933.26</ele>
      </trkpt>
      <trkpt lat="47.2258277" lon="11.4124457">
        <ele>931.68</ele>
      </trkpt>
      <trkpt lat="47.2258622" lon="11.4124926">
        <ele>931.53</ele>
      </trkpt>
      <trkpt lat="47.2259266" lon="11.4125842">
        <ele>931.02</ele>
      </trkpt>
      <trkpt lat="47.2261768" lon="11.4127046">
        <ele>927.03</ele>
      </trkpt>
      <trkpt lat="47.2262793" lon="11.4127111">
        <ele>925.21</ele>
      </trkpt>
      <trkpt lat="47.2263196" lon="11.4127375">
        <ele>924.6</ele>
      </trkpt>
      <trkpt lat="47.2263782" lon="11.4127877">
        <ele>923.82</ele>
      </trkpt>
      <trkpt lat="47.2265509" lon="11.4130394">
        <ele>922.41</ele>
      </trkpt>
      <trkpt lat="47.2266524" lon="11.413126">
        <ele>921.47</ele>
      </trkpt>
      <trkpt lat="47.2267278" lon="11.4131437">
        <ele>920.58</ele>
      </trkpt>
      <trkpt lat="47.2267839" lon="11.4130375">
        <ele>919.43</ele>
      </trkpt>
      <trkpt lat="47.2268014" lon="11.4129945">
        <ele>919.02</ele>
      </trkpt>
      <trkpt lat="47.226818" lon="11.413017">
        <ele>918.93</ele>
      </trkpt>
      <trkpt lat="47.226998" lon="11.412727">
        <ele>915.87</ele>
      </trkpt>
      <trkpt lat="47.227179" lon="11.412393">
        <ele>913.5</ele>
      </trkpt>
      <trkpt lat="47.227404" lon="11.41308">
        <ele>912.95</ele>
      </trkpt>
      <trkpt lat="47.227597" lon="11.413719">
        <ele>911.54</ele>
      </trkpt>
      <trkpt lat="47.227622" lon="11.414852">
        <ele>913.62</ele>
      </trkpt>
      <trkpt lat="47.227611" lon="11.41531">
        <ele>914.56</ele>
      </trkpt>
      <trkpt lat="47.227609" lon="11.415401">
        <ele>914.73</ele>
      </trkpt>
      <trkpt lat="47.227634" lon="11.416431">
        <ele>918.42</ele>
      </trkpt>
      <trkpt lat="47.227696" lon="11.417735">
        <ele>922.72</ele>
      </trkpt>
      <trkpt lat="47.227723" lon="11.417915">
        <ele>923.23</ele>
      </trkpt>
      <trkpt lat="47.227834" lon="11.418123">
        <ele>923.19</ele>
      </trkpt>
      <trkpt lat="47.227854" lon="11.41816">
        <ele>923.24</ele>
      </trkpt>
      <trkpt lat="47.227825" lon="11.418258">
        <ele>924.2</ele>
      </trkpt>
      <trkpt lat="47.227745" lon="11.418362">
        <ele>925.84</ele>
      </trkpt>
      <trkpt lat="47.227801" lon="11.418462">
        <ele>926.11</ele>
      </trkpt>
      <trkpt lat="47.227918" lon="11.418977">
        <ele>930.42</ele>
      </trkpt>
      <trkpt lat="47.228049" lon="11.419191">
        <ele>931.74</ele>
      </trkpt>
      <trkpt lat="47.228224" lon="11.419256">
        <ele>931.32</ele>
      </trkpt>
      <trkpt lat="47.228254" lon="11.41922">
        <ele>930.83</ele>
      </trkpt>
      <trkpt lat="47.228348" lon="11.419043">
        <ele>928.69</ele>
      </trkpt>
      <trkpt lat="47.228384" lon="11.418977">
        <ele>927.88</ele>
      </trkpt>
      <trkpt lat="47.228515" lon="11.418655">
        <ele>923.84</ele>
      </trkpt>
      <trkpt lat="47.228704" lon="11.418505">
        <ele>921.8</ele>
      </trkpt>
      <trkpt lat="47.228952" lon="11.41844">
        <ele>920.53</ele>
      </trkpt>
      <trkpt lat="47.2292" lon="11.418526">
        <ele>920.52</ele>
      </trkpt>
      <trkpt lat="47.22921" lon="11.418541">
        <ele>920.66</ele>
      </trkpt>
      <trkpt lat="47.229452" lon="11.418905">
        <ele>921.67</ele>
      </trkpt>
      <trkpt lat="47.229528" lon="11.419089">
        <ele>921.29</ele>
      </trkpt>
      <trkpt lat="47.229555" lon="11.419124">
        <ele>920.72</ele>
      </trkpt>
      <trkpt lat="47.229704" lon="11.419234">
        <ele>916.69</ele>
      </trkpt>
      <trkpt lat="47.229791" lon="11.419378">
        <ele>915.24</ele>
      </trkpt>
      <trkpt lat="47.229925" lon="11.41944">
        <ele>912.56</ele>
      </trkpt>
      <trkpt lat="47.230025" lon="11.419551">
        <ele>912.06</ele>
      </trkpt>
      <trkpt lat="47.230066" lon="11.419677">
        <ele>912.98</ele>
      </trkpt>
      <trkpt lat="47.230161" lon="11.419777">
        <ele>912.89</ele>
      </trkpt>
      <trkpt lat="47.230216" lon="11.419836">
        <ele>912.83</ele>
      </trkpt>
      <trkpt lat="47.230289" lon="11.419864">
        <ele>912.16</ele>
      </trkpt>
      <trkpt lat="47.230685" lon="11.420134">
        <ele>909.19</ele>
      </trkpt>
      <trkpt lat="47.230774" lon="11.42035">
        <ele>909.9</ele>
      </trkpt>
      <trkpt lat="47.231057" lon="11.420465">
        <ele>909.08</ele>
      </trkpt>
      <trkpt lat="47.231159" lon="11.420506">
        <ele>909.38</ele>
      </trkpt>
      <trkpt lat="47.231774" lon="11.420277">
        <ele>905.23</ele>
      </trkpt>
      <trkpt lat="47.231842" lon="11.420314">
        <ele>904.69</ele>
      </trkpt>
      <trkpt lat="47.23183" lon="11.42038">
        <ele>904.98</ele>
      </trkpt>
      <trkpt lat="47.231782" lon="11.42065">
        <ele>906.93</ele>
      </trkpt>
      <trkpt lat="47.231852" lon="11.421028">
        <ele>906.93</ele>
      </trkpt>
      <trkpt lat="47.232017" lon="11.42142">
        <ele>907.67</ele>
      </trkpt>
      <trkpt lat="47.232038" lon="11.421471">
        <ele>908.2</ele>
      </trkpt>
      <trkpt lat="47.232105" lon="11.421813">
        <ele>912.37</ele>
      </trkpt>
      <trkpt lat="47.232443" lon="11.421637">
        <ele>908.93</ele>
      </trkpt>
      <trkpt lat="47.232659" lon="11.421584">
        <ele>905.2</ele>
      </trkpt>
      <trkpt lat="47.232709" lon="11.421572">
        <ele>904.12</ele>
      </trkpt>
      <trkpt lat="47.232853" lon="11.421511">
        <ele>900.04</ele>
      </trkpt>
      <trkpt lat="47.232982" lon="11.421401">
        <ele>894.63</ele>
      </trkpt>
      <trkpt lat="47.233135" lon="11.421406">
        <ele>892.6</ele>
      </trkpt>
      <trkpt lat="47.233454" lon="11.421519">
        <ele>892.45</ele>
      </trkpt>
      <trkpt lat="47.233481" lon="11.421529">
        <ele>892.5</ele>
      </trkpt>
      <trkpt lat="47.233677" lon="11.4215">
        <ele>891.18</ele>
      </trkpt>
      <trkpt lat="47.233783" lon="11.421028">
        <ele>882.11</ele>
      </trkpt>
      <trkpt lat="47.233768" lon="11.420862">
        <ele>880.19</ele>
      </trkpt>
      <trkpt lat="47.233739" lon="11.420825">
        <ele>879.84</ele>
      </trkpt>
      <trkpt lat="47.233744" lon="11.420776">
        <ele>879.76</ele>
      </trkpt>
      <trkpt lat="47.233972" lon="11.420737">
        <ele>880.89</ele>
      </trkpt>
      <trkpt lat="47.234112" lon="11.420519">
        <ele>881</ele>
      </trkpt>
      <trkpt lat="47.234134" lon="11.420486">
        <ele>881.01</ele>
      </trkpt>
      <trkpt lat="47.234278" lon="11.420181">
        <ele>881.93</ele>
      </trkpt>
      <trkpt lat="47.234595" lon="11.419902">
        <ele>885.72</ele>
      </trkpt>
      <trkpt lat="47.234825" lon="11.419673">
        <ele>886.1</ele>
      </trkpt>
      <trkpt lat="47.234978" lon="11.419574">
        <ele>883.88</ele>
      </trkpt>
      <trkpt lat="47.235113" lon="11.419466">
        <ele>880.39</ele>
      </trkpt>
      <trkpt lat="47.235242" lon="11.419272">
        <ele>875.77</ele>
      </trkpt>
      <trkpt lat="47.235143" lon="11.419087">
        <ele>877.78</ele>
      </trkpt>
      <trkpt lat="47.235121" lon="11.418928">
        <ele>878.57</ele>
      </trkpt>
      <trkpt lat="47.235163" lon="11.4187">
        <ele>878.61</ele>
      </trkpt>
      <trkpt lat="47.235169" lon="11.418673">
        <ele>878.62</ele>
      </trkpt>
      <trkpt lat="47.235141" lon="11.418446">
        <ele>880.13</ele>
      </trkpt>
      <trkpt lat="47.235085" lon="11.418288">
        <ele>881.45</ele>
      </trkpt>
      <trkpt lat="47.235108" lon="11.417943">
        <ele>880.91</ele>
      </trkpt>
      <trkpt lat="47.235128" lon="11.417813">
        <ele>880.28</ele>
      </trkpt>
      <trkpt lat="47.235306" lon="11.417552">
        <ele>875.22</ele>
      </trkpt>
      <trkpt lat="47.23544" lon="11.417547">
        <ele>871.81</ele>
      </trkpt>
      <trkpt lat="47.235513" lon="11.417627">
        <ele>870.38</ele>
      </trkpt>
      <trkpt lat="47.235713" lon="11.417847">
        <ele>867.21</ele>
      </trkpt>
      <trkpt lat="47.235783" lon="11.417987">
        <ele>866.77</ele>
      </trkpt>
      <trkpt lat="47.235917" lon="11.417873">
        <ele>863.91</ele>
      </trkpt>
      <trkpt lat="47.235923" lon="11.417788">
        <ele>863.27</ele>
      </trkpt>
      <trkpt lat="47.236357" lon="11.417461">
        <ele>856.86</ele>
      </trkpt>
      <trkpt lat="47.236401" lon="11.417429">
        <ele>856.44</ele>
      </trkpt>
      <trkpt lat="47.236777" lon="11.417077">
        <ele>853.7</ele>
      </trkpt>
      <trkpt lat="47.236755" lon="11.41701">
        <ele>853.61</ele>
      </trkpt>
      <trkpt lat="47.236736" lon="11.416952">
        <ele>853.53</ele>
      </trkpt>
      <trkpt lat="47.236803" lon="11.416963">
        <ele>853.43</ele>
      </trkpt>
      <trkpt lat="47.236838" lon="11.416969">
        <ele>853.41</ele>
      </trkpt>
      <trkpt lat="47.236945" lon="11.416952">
        <ele>853.41</ele>
      </trkpt>
      <trkpt lat="47.237059" lon="11.416877">
        <ele>853.43</ele>
      </trkpt>
      <trkpt lat="47.237366" lon="11.416553">
        <ele>852.75</ele>
      </trkpt>
      <trkpt lat="47.237424" lon="11.416404">
        <ele>851.75</ele>
      </trkpt>
      <trkpt lat="47.237617" lon="11.416039">
        <ele>847.69</ele>
      </trkpt>
      <trkpt lat="47.237732" lon="11.415914">
        <ele>845.43</ele>
      </trkpt>
      <trkpt lat="47.237814" lon="11.415882">
        <ele>844.19</ele>
      </trkpt>
      <trkpt lat="47.237888" lon="11.415875">
        <ele>843.23</ele>
      </trkpt>
      <trkpt lat="47.237959" lon="11.415908">
        <ele>842.63</ele>
      </trkpt>
      <trkpt lat="47.238137" lon="11.416071">
        <ele>842.22</ele>
      </trkpt>
      <trkpt lat="47.238194" lon="11.416138">
        <ele>842.43</ele>
      </trkpt>
      <trkpt lat="47.238298" lon="11.416257">
        <ele>843.08</ele>
      </trkpt>
      <trkpt lat="47.238529" lon="11.416376">
        <ele>844.12</ele>
      </trkpt>
      <trkpt lat="47.23864" lon="11.416339">
        <ele>844.06</ele>
      </trkpt>
      <trkpt lat="47.238911" lon="11.416257">
        <ele>844.58</ele>
      </trkpt>
      <trkpt lat="47.239003" lon="11.41622">
        <ele>844.69</ele>
      </trkpt>
      <trkpt lat="47.239087" lon="11.416125">
        <ele>844.34</ele>
      </trkpt>
      <trkpt lat="47.239115" lon="11.416104">
        <ele>844.28</ele>
      </trkpt>
      <trkpt lat="47.239318" lon="11.416101">
        <ele>844.05</ele>
      </trkpt>
      <trkpt lat="47.239428" lon="11.416032">
        <ele>843.31</ele>
      </trkpt>
      <trkpt lat="47.239574" lon="11.416075">
        <ele>842.71</ele>
      </trkpt>
      <trkpt lat="47.23971" lon="11.416761">
        <ele>843.61</ele>
      </trkpt>
      <trkpt lat="47.239987" lon="11.41654">
        <ele>842.04</ele>
      </trkpt>
      <trkpt lat="47.240142" lon="11.416458">
        <ele>841.75</ele>
        </trkpt>
      <trkpt lat="47.240147" lon="11.416456">
        <ele>841.74</ele>
        </trkpt>
      <trkpt lat="47.240313" lon="11.416399">
        <ele>841.85</ele>
        </trkpt>
      <trkpt lat="47.24048" lon="11.416378">
        <ele>842.39</ele>
        </trkpt>
      <trkpt lat="47.240715" lon="11.416245">
        <ele>845.83</ele>
        </trkpt>
      <trkpt lat="47.240802" lon="11.41623">
        <ele>847</ele>
        </trkpt>
      <trkpt lat="47.240864" lon="11.41622">
        <ele>847.88</ele>
        </trkpt>
      <trkpt lat="47.241139" lon="11.416221">
        <ele>852.31</ele>
        </trkpt>
      <trkpt lat="47.241186" lon="11.416232">
        <ele>853.14</ele>
        </trkpt>
      <trkpt lat="47.241205" lon="11.416272">
        <ele>853.37</ele>
        </trkpt>
      <trkpt lat="47.241215" lon="11.416747">
        <ele>853.42</ele>
        </trkpt>
      <trkpt lat="47.241221" lon="11.417025">
        <ele>855.82</ele>
        </trkpt>
      <trkpt lat="47.24126" lon="11.417504">
        <ele>860.56</ele>
        </trkpt>
      <trkpt lat="47.241357" lon="11.417759">
        <ele>863.14</ele>
        </trkpt>
      <trkpt lat="47.241446" lon="11.417989">
        <ele>862.16</ele>
        </trkpt>
      <trkpt lat="47.241486" lon="11.418134">
        <ele>860.17</ele>
        </trkpt>
      <trkpt lat="47.241481" lon="11.418261">
        <ele>857.58</ele>
        </trkpt>
      <trkpt lat="47.241465" lon="11.418373">
        <ele>855.7</ele>
        </trkpt>
      <trkpt lat="47.241478" lon="11.418539">
        <ele>854.7</ele>
        </trkpt>
      <trkpt lat="47.241525" lon="11.418808">
        <ele>854.57</ele>
        </trkpt>
      <trkpt lat="47.241577" lon="11.419207">
        <ele>853.77</ele>
        </trkpt>
      <trkpt lat="47.24161" lon="11.419418">
        <ele>852.6</ele>
        </trkpt>
      <trkpt lat="47.241619" lon="11.41947">
        <ele>852.28</ele>
        </trkpt>
      <trkpt lat="47.241628" lon="11.419572">
        <ele>851.58</ele>
        </trkpt>
      <trkpt lat="47.241729" lon="11.419584">
        <ele>852.26</ele>
        </trkpt>
      <trkpt lat="47.241985" lon="11.419615">
        <ele>853.46</ele>
        </trkpt>
      <trkpt lat="47.242138" lon="11.419647">
        <ele>854.03</ele>
        </trkpt>
      <trkpt lat="47.242556" lon="11.419796">
        <ele>855.98</ele>
        </trkpt>
      <trkpt lat="47.242821" lon="11.419959">
        <ele>855.62</ele>
        </trkpt>
      <trkpt lat="47.243" lon="11.420127">
        <ele>855.47</ele>
        </trkpt>
      <trkpt lat="47.243029" lon="11.420166">
        <ele>855.67</ele>
        </trkpt>
      <trkpt lat="47.243066" lon="11.420175">
        <ele>855.61</ele>
        </trkpt>
      <trkpt lat="47.243558" lon="11.420381">
        <ele>859.83</ele>
        </trkpt>
      <trkpt lat="47.24375" lon="11.420456">
        <ele>861.51</ele>
        </trkpt>
      <trkpt lat="47.243759" lon="11.420475">
        <ele>861.42</ele>
        </trkpt>
      <trkpt lat="47.243826" lon="11.420616">
        <ele>860.21</ele>
        </trkpt>
      <trkpt lat="47.243929" lon="11.420724">
        <ele>858.59</ele>
        </trkpt>
      <trkpt lat="47.24409" lon="11.420835">
        <ele>856.22</ele>
        </trkpt>
      <trkpt lat="47.244283" lon="11.420788">
        <ele>856.88</ele>
        </trkpt>
      <trkpt lat="47.244505" lon="11.420836">
        <ele>857.16</ele>
        </trkpt>
      <trkpt lat="47.244985" lon="11.420959">
        <ele>856.99</ele>
        </trkpt>
      <trkpt lat="47.245102" lon="11.420967">
        <ele>856.27</ele>
        </trkpt>
      <trkpt lat="47.245154" lon="11.420969">
        <ele>855.85</ele>
        </trkpt>
      <trkpt lat="47.245102" lon="11.420967">
        <ele>856.27</ele>
        </trkpt>
      <trkpt lat="47.245158" lon="11.421111">
        <ele>854.02</ele>
        </trkpt>
      <trkpt lat="47.245165" lon="11.421269">
        <ele>852.37</ele>
        </trkpt>
      <trkpt lat="47.245147" lon="11.4214">
        <ele>851.28</ele>
        </trkpt>
      <trkpt lat="47.24514" lon="11.421538">
        <ele>850.23</ele>
        </trkpt>
      <trkpt lat="47.245219" lon="11.421732">
        <ele>849.4</ele>
        </trkpt>
      <trkpt lat="47.2452439" lon="11.4217088">
        <ele>849.66</ele>
        </trkpt>
      <trkpt lat="47.2452851" lon="11.4219345">
        <ele>849.43</ele>
        </trkpt>
      <trkpt lat="47.2453173" lon="11.4221004">
        <ele>849.82</ele>
      </trkpt>
      <trkpt lat="47.2453379" lon="11.4221718">
        <ele>850.2</ele>
      </trkpt>
      <trkpt lat="47.2453752" lon="11.4222676">
        <ele>850.96</ele>
      </trkpt>
      <trkpt lat="47.2454065" lon="11.4223594">
        <ele>851.69</ele>
      </trkpt>
      <trkpt lat="47.2455322" lon="11.4227279">
        <ele>854.26</ele>
      </trkpt>
      <trkpt lat="47.2456314" lon="11.4228468">
        <ele>855.45</ele>
      </trkpt>
      <trkpt lat="47.2456366" lon="11.423062">
        <ele>855.02</ele>
      </trkpt>
      <trkpt lat="47.2456491" lon="11.4231024">
        <ele>854.98</ele>
      </trkpt>
      <trkpt lat="47.2456645" lon="11.4231783">
        <ele>854.81</ele>
      </trkpt>
      <trkpt lat="47.2456648" lon="11.4233122">
        <ele>854.29</ele>
      </trkpt>
      <trkpt lat="47.2456679" lon="11.4233821">
        <ele>854.01</ele>
      </trkpt>
      <trkpt lat="47.2456679" lon="11.4234562">
        <ele>853.63</ele>
      </trkpt>
      <trkpt lat="47.2456955" lon="11.4235948">
        <ele>852.88</ele>
      </trkpt>
      <trkpt lat="47.2456962" lon="11.4236547">
        <ele>852.49</ele>
      </trkpt>
      <trkpt lat="47.2457215" lon="11.4238493">
        <ele>851.19</ele>
      </trkpt>
      <trkpt lat="47.2457855" lon="11.4238652">
        <ele>851.05</ele>
      </trkpt>
      <trkpt lat="47.2458325" lon="11.4239144">
        <ele>850.54</ele>
      </trkpt>
      <trkpt lat="47.2458804" lon="11.4239576">
        <ele>849.96</ele>
      </trkpt>
      <trkpt lat="47.2459425" lon="11.4239973">
        <ele>849.21</ele>
      </trkpt>
      <trkpt lat="47.2460957" lon="11.4243218">
        <ele>845.91</ele>
      </trkpt>
      <trkpt lat="47.2461027" lon="11.4243914">
        <ele>845.53</ele>
      </trkpt>
      <trkpt lat="47.2461228" lon="11.4244372">
        <ele>845.08</ele>
      </trkpt>
      <trkpt lat="47.2461579" lon="11.4244613">
        <ele>844.53</ele>
      </trkpt>
      <trkpt lat="47.2463236" lon="11.4246823">
        <ele>841.32</ele>
      </trkpt>
      <trkpt lat="47.2463919" lon="11.4247862">
        <ele>839.9</ele>
      </trkpt>
      <trkpt lat="47.246401" lon="11.4248848">
        <ele>839.49</ele>
      </trkpt>
      <trkpt lat="47.2464517" lon="11.425084">
        <ele>838.2</ele>
      </trkpt>
      <trkpt lat="47.246366" lon="11.4252456">
        <ele>839.17</ele>
      </trkpt>
      <trkpt lat="47.246381" lon="11.425266">
        <ele>838.91</ele>
      </trkpt>
      <trkpt lat="47.246742" lon="11.425468">
        <ele>831.69</ele>
      </trkpt>
      <trkpt lat="47.246966" lon="11.425498">
        <ele>824.92</ele>
      </trkpt>
      <trkpt lat="47.247107" lon="11.425435">
        <ele>820.04</ele>
      </trkpt>
      <trkpt lat="47.247178" lon="11.425366">
        <ele>817.51</ele>
      </trkpt>
      <trkpt lat="47.247286" lon="11.425459">
        <ele>813.33</ele>
      </trkpt>
      <trkpt lat="47.24732" lon="11.425585">
        <ele>811.88</ele>
      </trkpt>
      <trkpt lat="47.247386" lon="11.425679">
        <ele>809.28</ele>
      </trkpt>
      <trkpt lat="47.247457" lon="11.425831">
        <ele>806.56</ele>
      </trkpt>
      <trkpt lat="47.247523" lon="11.425886">
        <ele>804.18</ele>
      </trkpt>
      <trkpt lat="47.247578" lon="11.425931">
        <ele>802.15</ele>
      </trkpt>
      <trkpt lat="47.247666" lon="11.426135">
        <ele>799</ele>
      </trkpt>
      <trkpt lat="47.247828" lon="11.426387">
        <ele>792.83</ele>
      </trkpt>
      <trkpt lat="47.247865" lon="11.426624">
        <ele>791.67</ele>
      </trkpt>
      <trkpt lat="47.24811" lon="11.426905">
        <ele>782.28</ele>
      </trkpt>
      <trkpt lat="47.248303" lon="11.427056">
        <ele>776.36</ele>
      </trkpt>
      <trkpt lat="47.2485" lon="11.427025">
        <ele>771.29</ele>
      </trkpt>
      <trkpt lat="47.248566" lon="11.427022">
        <ele>769.92</ele>
      </trkpt>
      <trkpt lat="47.248718" lon="11.427017">
        <ele>767.12</ele>
      </trkpt>
      <trkpt lat="47.248798" lon="11.426644">
        <ele>763.17</ele>
      </trkpt>
      <trkpt lat="47.248913" lon="11.426655">
        <ele>761.05</ele>
      </trkpt>
      <trkpt lat="47.248979" lon="11.426666">
        <ele>759.84</ele>
      </trkpt>
      <trkpt lat="47.248983" lon="11.426647">
        <ele>759.67</ele>
      </trkpt>
      <trkpt lat="47.249048" lon="11.426464">
        <ele>757.73</ele>
      </trkpt>
      <trkpt lat="47.24909" lon="11.426131">
        <ele>756.3</ele>
      </trkpt>
      <trkpt lat="47.249173" lon="11.425756">
        <ele>753.59</ele>
      </trkpt>
      <trkpt lat="47.249219" lon="11.425053">
        <ele>749.71</ele>
      </trkpt>
      <trkpt lat="47.249312" lon="11.424911">
        <ele>746.87</ele>
      </trkpt>
      <trkpt lat="47.249321" lon="11.424552">
        <ele>746.46</ele>
      </trkpt>
      <trkpt lat="47.24943" lon="11.42424">
        <ele>743.8</ele>
      </trkpt>
      <trkpt lat="47.249565" lon="11.424195">
        <ele>740.31</ele>
      </trkpt>
      <trkpt lat="47.249618" lon="11.424108">
        <ele>739.31</ele>
      </trkpt>
      <trkpt lat="47.24972" lon="11.423945">
        <ele>738.01</ele>
      </trkpt>
      <trkpt lat="47.249818" lon="11.423929">
        <ele>736.14</ele>
      </trkpt>
      <trkpt lat="47.250005" lon="11.423891">
        <ele>733.19</ele>
      </trkpt>
      <trkpt lat="47.250174" lon="11.423725">
        <ele>732.4</ele>
      </trkpt>
      <trkpt lat="47.250311" lon="11.423368">
        <ele>732.98</ele>
      </trkpt>
      <trkpt lat="47.250358" lon="11.423337">
        <ele>732.24</ele>
      </trkpt>
      <trkpt lat="47.250474" lon="11.423008">
        <ele>731.29</ele>
      </trkpt>
      <trkpt lat="47.250529" lon="11.422786">
        <ele>730.9</ele>
      </trkpt>
      <trkpt lat="47.250587" lon="11.422465">
        <ele>730.13</ele>
      </trkpt>
      <trkpt lat="47.250665" lon="11.422386">
        <ele>728.36</ele>
      </trkpt>
      <trkpt lat="47.250699" lon="11.422357">
        <ele>727.58</ele>
      </trkpt>
      <trkpt lat="47.250722" lon="11.422321">
        <ele>727.02</ele>
      </trkpt>
      <trkpt lat="47.25083" lon="11.422162">
        <ele>724.29</ele>
      </trkpt>
      <trkpt lat="47.250861" lon="11.422094">
        <ele>723.41</ele>
      </trkpt>
      <trkpt lat="47.250886" lon="11.421905">
        <ele>722.11</ele>
      </trkpt>
      <trkpt lat="47.250897" lon="11.421772">
        <ele>721.25</ele>
        </trkpt>
      <trkpt lat="47.250854" lon="11.421478">
        <ele>720.38</ele>
        </trkpt>
      <trkpt lat="47.250833" lon="11.421332">
        <ele>719.72</ele>
        </trkpt>
      <trkpt lat="47.250675" lon="11.420574">
        <ele>718.15</ele>
      </trkpt>
      <trkpt lat="47.250703" lon="11.419709">
        <ele>714.42</ele>
      </trkpt>
      <trkpt lat="47.250728" lon="11.419618">
        <ele>713.41</ele>
      </trkpt>
      <trkpt lat="47.250877" lon="11.419097">
        <ele>707.6</ele>
      </trkpt>
      <trkpt lat="47.2508866" lon="11.4191029">
        <ele>707.29</ele>
      </trkpt>
      <trkpt lat="47.2512563" lon="11.4187028">
        <ele>700.29</ele>
      </trkpt>
      <trkpt lat="47.2513424" lon="11.4186311">
        <ele>699.38</ele>
      </trkpt>
      <trkpt lat="47.2513532" lon="11.4185834">
        <ele>699.52</ele>
      </trkpt>
      <trkpt lat="47.2513668" lon="11.4184522">
        <ele>700.02</ele>
      </trkpt>
      <trkpt lat="47.251402" lon="11.4183965">
        <ele>699.65</ele>
      </trkpt>
      <trkpt lat="47.2514227" lon="11.4183635">
        <ele>699.38</ele>
      </trkpt>
      <trkpt lat="47.2514842" lon="11.4182487">
        <ele>698.23</ele>
      </trkpt>
      <trkpt lat="47.2515495" lon="11.4182275">
        <ele>696.79</ele>
      </trkpt>
      <trkpt lat="47.25158" lon="11.4182018">
        <ele>695.98</ele>
      </trkpt>
      <trkpt lat="47.2516949" lon="11.4181593">
        <ele>692.62</ele>
      </trkpt>
      <trkpt lat="47.2517446" lon="11.4181347">
        <ele>690.96</ele>
      </trkpt>
      <trkpt lat="47.2518014" lon="11.4180769">
        <ele>688.81</ele>
      </trkpt>
      <trkpt lat="47.2518701" lon="11.4180208">
        <ele>686.22</ele>
      </trkpt>
      <trkpt lat="47.2519232" lon="11.4178931">
        <ele>683.58</ele>
      </trkpt>
      <trkpt lat="47.2519345" lon="11.4178646">
        <ele>683.01</ele>
      </trkpt>
      <trkpt lat="47.2519407" lon="11.4177497">
        <ele>681.99</ele>
      </trkpt>
      <trkpt lat="47.2519545" lon="11.4176506">
        <ele>680.9</ele>
      </trkpt>
      <trkpt lat="47.2519783" lon="11.4175175">
        <ele>679.44</ele>
      </trkpt>
      <trkpt lat="47.25201" lon="11.4173382">
        <ele>677.54</ele>
      </trkpt>
      <trkpt lat="47.2520323" lon="11.4172914">
        <ele>676.57</ele>
      </trkpt>
      <trkpt lat="47.2520323" lon="11.4172629">
        <ele>676.4</ele>
      </trkpt>
      <trkpt lat="47.2520261" lon="11.41721">
        <ele>676.27</ele>
      </trkpt>
      <trkpt lat="47.2520505" lon="11.4171565">
        <ele>675.18</ele>
      </trkpt>
      <trkpt lat="47.2520706" lon="11.4171446">
        <ele>674.47</ele>
      </trkpt>
      <trkpt lat="47.2520981" lon="11.4171408">
        <ele>673.57</ele>
      </trkpt>
      <trkpt lat="47.2521079" lon="11.4171166">
        <ele>673.11</ele>
      </trkpt>
      <trkpt lat="47.2521147" lon="11.4170644">
        <ele>672.57</ele>
      </trkpt>
      <trkpt lat="47.2521194" lon="11.4170221">
        <ele>672.18</ele>
      </trkpt>
      <trkpt lat="47.2521292" lon="11.4169283">
        <ele>671.39</ele>
      </trkpt>
      <trkpt lat="47.25214" lon="11.416858">
        <ele>670.76</ele>
      </trkpt>
      <trkpt lat="47.2521386" lon="11.4168272">
        <ele>670.72</ele>
      </trkpt>
      <trkpt lat="47.2522657" lon="11.4167223">
        <ele>666.2</ele>
      </trkpt>
      <trkpt lat="47.2523053" lon="11.4165176">
        <ele>665.28</ele>
      </trkpt>
      <trkpt lat="47.2523164" lon="11.4164749">
        <ele>665.13</ele>
      </trkpt>
      <trkpt lat="47.2523285" lon="11.4164221">
        <ele>665.04</ele>
      </trkpt>
      <trkpt lat="47.2523567" lon="11.4164067">
        <ele>664.12</ele>
      </trkpt>
      <trkpt lat="47.252388" lon="11.4163722">
        <ele>663.21</ele>
      </trkpt>
      <trkpt lat="47.2524248" lon="11.4163605">
        <ele>661.93</ele>
      </trkpt>
      <trkpt lat="47.2524644" lon="11.4163582">
        <ele>660.48</ele>
      </trkpt>
      <trkpt lat="47.2524771" lon="11.4163206">
        <ele>660.26</ele>
      </trkpt>
      <trkpt lat="47.2524926" lon="11.4162987">
        <ele>659.82</ele>
      </trkpt>
      <trkpt lat="47.2525094" lon="11.4162667">
        <ele>659.4</ele>
      </trkpt>
      <trkpt lat="47.2525613" lon="11.4161974">
        <ele>657.91</ele>
      </trkpt>
      <trkpt lat="47.2527047" lon="11.4161104">
        <ele>653.11</ele>
      </trkpt>
      <trkpt lat="47.2527148" lon="11.4160689">
        <ele>652.92</ele>
      </trkpt>
      <trkpt lat="47.2527996" lon="11.4160116">
        <ele>649.99</ele>
      </trkpt>
      <trkpt lat="47.2528083" lon="11.4159248">
        <ele>649.81</ele>
      </trkpt>
      <trkpt lat="47.2528157" lon="11.4158292">
        <ele>649.53</ele>
      </trkpt>
      <trkpt lat="47.252861" lon="11.4155913">
        <ele>647.1</ele>
      </trkpt>
      <trkpt lat="47.2528628" lon="11.4155319">
        <ele>646.77</ele>
      </trkpt>
      <trkpt lat="47.2528628" lon="11.4154052">
        <ele>646.1</ele>
      </trkpt>
      <trkpt lat="47.2528427" lon="11.4152837">
        <ele>646.24</ele>
      </trkpt>
      <trkpt lat="47.2527488" lon="11.414848">
        <ele>647.54</ele>
      </trkpt>
      <trkpt lat="47.2527848" lon="11.414653">
        <ele>643.86</ele>
      </trkpt>
      <trkpt lat="47.2529096" lon="11.4147394">
        <ele>638.07</ele>
      </trkpt>
      <trkpt lat="47.2529528" lon="11.4148522">
        <ele>637.14</ele>
      </trkpt>
      <trkpt lat="47.2531426" lon="11.4149323">
        <ele>628.69</ele>
      </trkpt>
      <trkpt lat="47.2531437" lon="11.4149165">
        <ele>628.43</ele>
      </trkpt>
      <trkpt lat="47.2531437" lon="11.4148064">
        <ele>626.87</ele>
      </trkpt>
      <trkpt lat="47.2531546" lon="11.4146728">
        <ele>624.24</ele>
      </trkpt>
      <trkpt lat="47.2531928" lon="11.4145388">
        <ele>620.12</ele>
        </trkpt>
      <trkpt lat="47.2531928" lon="11.414473">
        <ele>619.02</ele>
        </trkpt>
      <trkpt lat="47.2532145" lon="11.4144127">
        <ele>616.95</ele>
        </trkpt>
      <trkpt lat="47.2532768" lon="11.4143347">
        <ele>612.77</ele>
        </trkpt>
      <trkpt lat="47.2533101" lon="11.414309">
        <ele>610.94</ele>
        </trkpt>
      <trkpt lat="47.253291" lon="11.414165">
        <ele>609.72</ele>
        </trkpt>
      <trkpt lat="47.253274" lon="11.413907">
        <ele>607.17</ele>
        </trkpt>
      <trkpt lat="47.253211" lon="11.413638">
        <ele>606.96</ele>
        </trkpt>
      <trkpt lat="47.25321" lon="11.413509">
        <ele>605.81</ele>
        </trkpt>
      <trkpt lat="47.253225" lon="11.413361">
        <ele>604.15</ele>
        </trkpt>
      <trkpt lat="47.253238" lon="11.413287">
        <ele>603.31</ele>
      </trkpt>
    </trkseg>
  </trk>
</gpx>