<?xml version='1.0' encoding='utf-8'?>
<gpx creator="https://gpx.studio" version="1.1" schemaLocation="http://www.topografix.com/GPX/1/1 http://www.topografix.com/GPX/1/1/gpx.xsd http://www.garmin.com/xmlschemas/GpxExtensions/v3 http://www.garmin.com/xmlschemas/GpxExtensionsv3.xsd http://www.garmin.com/xmlschemas/TrackPointExtension/v1 http://www.garmin.com/xmlschemas/TrackPointExtensionv1.xsd http://www.garmin.com/xmlschemas/PowerExtension/v1 http://www.garmin.com/xmlschemas/PowerExtensionv1.xsd http://www.topografix.com/GPX/gpx_style/0/2 http://www.topografix.com/GPX/gpx_style/0/2/gpx_style.xsd">
  <trk>
    <name>G__Trainspotting</name>
    <trkseg>
      <name>Segment 1</name>
      <desc>distance: 19.0km, elevation_gain: 786.0m, elevation_loss: 1310.0m, estimated_duration: 02:27</desc>
      <trkpt lat="47.301203" lon="11.20085">
        <ele>1121.25</ele>
        </trkpt>
      <trkpt lat="47.301368" lon="11.200724">
        <ele>1121.25</ele>
        </trkpt>
      <trkpt lat="47.301553" lon="11.200644">
        <ele>1121.75</ele>
        </trkpt>
      <trkpt lat="47.301656" lon="11.200615">
        <ele>1122.25</ele>
        </trkpt>
      <trkpt lat="47.301805" lon="11.200588">
        <ele>1121.75</ele>
        </trkpt>
      <trkpt lat="47.302059" lon="11.200563">
        <ele>1120.75</ele>
        </trkpt>
      <trkpt lat="47.302269" lon="11.200553">
        <ele>1120.25</ele>
        </trkpt>
      <trkpt lat="47.302307" lon="11.200568">
        <ele>1120.5</ele>
        </trkpt>
      <trkpt lat="47.302337" lon="11.200596">
        <ele>1120.75</ele>
        </trkpt>
      <trkpt lat="47.302392" lon="11.200674">
        <ele>1121.5</ele>
        </trkpt>
      <trkpt lat="47.30241" lon="11.200702">
        <ele>1121.75</ele>
        </trkpt>
      <trkpt lat="47.302501" lon="11.200665">
        <ele>1121</ele>
        </trkpt>
      <trkpt lat="47.302645" lon="11.200577">
        <ele>1122</ele>
        </trkpt>
      <trkpt lat="47.302688" lon="11.200534">
        <ele>1122</ele>
        </trkpt>
      <trkpt lat="47.302818" lon="11.200373">
        <ele>1121.25</ele>
        </trkpt>
      <trkpt lat="47.303021" lon="11.200095">
        <ele>1118.5</ele>
        </trkpt>
      <trkpt lat="47.3031" lon="11.199996">
        <ele>1117.5</ele>
        </trkpt>
      <trkpt lat="47.303226" lon="11.199859">
        <ele>1116.25</ele>
        </trkpt>
      <trkpt lat="47.303436" lon="11.199687">
        <ele>1115.5</ele>
        </trkpt>
      <trkpt lat="47.303557" lon="11.199616">
        <ele>1115.75</ele>
        </trkpt>
      <trkpt lat="47.303882" lon="11.199445">
        <ele>1116</ele>
        </trkpt>
      <trkpt lat="47.304023" lon="11.199284">
        <ele>1113.75</ele>
        </trkpt>
      <trkpt lat="47.304178" lon="11.199062">
        <ele>1109.75</ele>
        </trkpt>
      <trkpt lat="47.304322" lon="11.198954">
        <ele>1107.75</ele>
        </trkpt>
      <trkpt lat="47.304454" lon="11.198899">
        <ele>1106.75</ele>
        </trkpt>
      <trkpt lat="47.304535" lon="11.198881">
        <ele>1106.25</ele>
        </trkpt>
      <trkpt lat="47.304619" lon="11.198877">
        <ele>1106.25</ele>
        </trkpt>
      <trkpt lat="47.304731" lon="11.198896">
        <ele>1106.75</ele>
        </trkpt>
      <trkpt lat="47.30482" lon="11.198946">
        <ele>1108</ele>
        </trkpt>
      <trkpt lat="47.304886" lon="11.199">
        <ele>1109.25</ele>
        </trkpt>
      <trkpt lat="47.3053" lon="11.199387">
        <ele>1115.75</ele>
        </trkpt>
      <trkpt lat="47.305644" lon="11.199648">
        <ele>1119</ele>
        </trkpt>
      <trkpt lat="47.305723" lon="11.199702">
        <ele>1119.5</ele>
        </trkpt>
      <trkpt lat="47.306218" lon="11.199896">
        <ele>1117.75</ele>
        </trkpt>
      <trkpt lat="47.306544" lon="11.199988">
        <ele>1114.5</ele>
        </trkpt>
      <trkpt lat="47.306883" lon="11.199993">
        <ele>1113</ele>
        </trkpt>
      <trkpt lat="47.3077" lon="11.199846">
        <ele>1112</ele>
        </trkpt>
      <trkpt lat="47.308061" lon="11.199805">
        <ele>1110.75</ele>
        </trkpt>
      <trkpt lat="47.30826" lon="11.199815">
        <ele>1110.5</ele>
        </trkpt>
      <trkpt lat="47.308459" lon="11.199825">
        <ele>1110.5</ele>
        </trkpt>
      <trkpt lat="47.308524" lon="11.199834">
        <ele>1110.5</ele>
        </trkpt>
      <trkpt lat="47.308523" lon="11.199833">
        <ele>1110.5</ele>
        </trkpt>
      <trkpt lat="47.308632" lon="11.199849">
        <ele>1111</ele>
        </trkpt>
      <trkpt lat="47.308936" lon="11.199904">
        <ele>1111.75</ele>
        </trkpt>
      <trkpt lat="47.30912" lon="11.199918">
        <ele>1111.75</ele>
        </trkpt>
      <trkpt lat="47.309175" lon="11.199907">
        <ele>1112</ele>
        </trkpt>
      <trkpt lat="47.30923" lon="11.199895">
        <ele>1112.25</ele>
        </trkpt>
      <trkpt lat="47.309298" lon="11.199881">
        <ele>1113</ele>
        </trkpt>
      <trkpt lat="47.309305" lon="11.199797">
        <ele>1113</ele>
        </trkpt>
      <trkpt lat="47.309313" lon="11.199714">
        <ele>1113.25</ele>
        </trkpt>
      <trkpt lat="47.309351" lon="11.19959">
        <ele>1113.75</ele>
        </trkpt>
      <trkpt lat="47.309398" lon="11.199113">
        <ele>1115</ele>
        </trkpt>
      <trkpt lat="47.309449" lon="11.199009">
        <ele>1116.25</ele>
        </trkpt>
      <trkpt lat="47.309491" lon="11.198957">
        <ele>1117</ele>
        </trkpt>
      <trkpt lat="47.309522" lon="11.198931">
        <ele>1117.5</ele>
        </trkpt>
      <trkpt lat="47.309565" lon="11.198918">
        <ele>1118.25</ele>
        </trkpt>
      <trkpt lat="47.309609" lon="11.198923">
        <ele>1118.75</ele>
        </trkpt>
      <trkpt lat="47.309778" lon="11.198971">
        <ele>1120.5</ele>
        </trkpt>
      <trkpt lat="47.309944" lon="11.19899">
        <ele>1122.25</ele>
        </trkpt>
      <trkpt lat="47.310139" lon="11.198955">
        <ele>1124.75</ele>
        </trkpt>
      <trkpt lat="47.310138" lon="11.198925">
        <ele>1128</ele>
        </trkpt>
      <trkpt lat="47.310137" lon="11.198394">
        <ele>1128</ele>
        </trkpt>
      <trkpt lat="47.310144" lon="11.197901">
        <ele>1131.25</ele>
        </trkpt>
      <trkpt lat="47.310528" lon="11.197787">
        <ele>1135.75</ele>
        </trkpt>
      <trkpt lat="47.310632" lon="11.197793">
        <ele>1136.5</ele>
        </trkpt>
      <trkpt lat="47.31086" lon="11.197806">
        <ele>1138.75</ele>
        </trkpt>
      <trkpt lat="47.310977" lon="11.197796">
        <ele>1140.25</ele>
        </trkpt>
      <trkpt lat="47.311268" lon="11.197736">
        <ele>1143.75</ele>
        </trkpt>
      <trkpt lat="47.31156" lon="11.197706">
        <ele>1147.25</ele>
        </trkpt>
      <trkpt lat="47.311796" lon="11.197655">
        <ele>1150.5</ele>
        </trkpt>
      <trkpt lat="47.312026" lon="11.197582">
        <ele>1154.75</ele>
        </trkpt>
      <trkpt lat="47.312074" lon="11.197534">
        <ele>1156</ele>
      </trkpt>
      <trkpt lat="47.312074" lon="11.197534">
        <ele>1156</ele>
        </trkpt>
      <trkpt lat="47.312078" lon="11.197531">
        <ele>1156</ele>
        </trkpt>
      <trkpt lat="47.31209" lon="11.197444">
        <ele>1157.25</ele>
        </trkpt>
      <trkpt lat="47.31208" lon="11.196876">
        <ele>1164.5</ele>
        </trkpt>
      <trkpt lat="47.312038" lon="11.196423">
        <ele>1169</ele>
        </trkpt>
      <trkpt lat="47.31205" lon="11.196279">
        <ele>1170.5</ele>
        </trkpt>
      <trkpt lat="47.312052" lon="11.196144">
        <ele>1171.75</ele>
        </trkpt>
      <trkpt lat="47.312053" lon="11.19608">
        <ele>1172.25</ele>
        </trkpt>
      <trkpt lat="47.312073" lon="11.195934">
        <ele>1173.75</ele>
        </trkpt>
      <trkpt lat="47.312111" lon="11.195889">
        <ele>1174.75</ele>
        </trkpt>
      <trkpt lat="47.312167" lon="11.195867">
        <ele>1175.5</ele>
        </trkpt>
      <trkpt lat="47.312249" lon="11.1959">
        <ele>1177.5</ele>
      </trkpt>
      <trkpt lat="47.31225" lon="11.195901">
        <ele>1177.5</ele>
        </trkpt>
      <trkpt lat="47.312249" lon="11.1959">
        <ele>1176</ele>
        </trkpt>
      <trkpt lat="47.312415" lon="11.195969">
        <ele>1177.5</ele>
        </trkpt>
      <trkpt lat="47.312606" lon="11.195922">
        <ele>1179.75</ele>
        </trkpt>
      <trkpt lat="47.312698" lon="11.195908">
        <ele>1180.5</ele>
        </trkpt>
      <trkpt lat="47.312796" lon="11.195921">
        <ele>1181</ele>
        </trkpt>
      <trkpt lat="47.31292" lon="11.195922">
        <ele>1181.75</ele>
        </trkpt>
      <trkpt lat="47.313235" lon="11.19587">
        <ele>1184</ele>
        </trkpt>
      <trkpt lat="47.313348" lon="11.195776">
        <ele>1185.25</ele>
        </trkpt>
      <trkpt lat="47.313275" lon="11.195739">
        <ele>1185</ele>
        </trkpt>
      <trkpt lat="47.313192" lon="11.195726">
        <ele>1184.5</ele>
        </trkpt>
      <trkpt lat="47.312897" lon="11.195728">
        <ele>1182.75</ele>
        </trkpt>
      <trkpt lat="47.312734" lon="11.19566">
        <ele>1182.25</ele>
        </trkpt>
      <trkpt lat="47.312598" lon="11.195533">
        <ele>1182.25</ele>
        </trkpt>
      <trkpt lat="47.312536" lon="11.195433">
        <ele>1182.5</ele>
        </trkpt>
      <trkpt lat="47.312445" lon="11.195229">
        <ele>1183</ele>
        </trkpt>
      <trkpt lat="47.312061" lon="11.193452">
        <ele>1195.25</ele>
        </trkpt>
      <trkpt lat="47.312088" lon="11.193321">
        <ele>1196.5</ele>
        </trkpt>
      <trkpt lat="47.312177" lon="11.19322">
        <ele>1197</ele>
        </trkpt>
      <trkpt lat="47.312756" lon="11.192835">
        <ele>1198.75</ele>
        </trkpt>
      <trkpt lat="47.312914" lon="11.192642">
        <ele>1200.25</ele>
        </trkpt>
      <trkpt lat="47.312942" lon="11.192564">
        <ele>1201.25</ele>
        </trkpt>
      <trkpt lat="47.312961" lon="11.192516">
        <ele>1201.25</ele>
        </trkpt>
      <trkpt lat="47.312952" lon="11.192215">
        <ele>1205</ele>
        </trkpt>
      <trkpt lat="47.312968" lon="11.191776">
        <ele>1210.25</ele>
        </trkpt>
      <trkpt lat="47.312965" lon="11.191601">
        <ele>1212.25</ele>
        </trkpt>
      <trkpt lat="47.312944" lon="11.191501">
        <ele>1213.25</ele>
        </trkpt>
      <trkpt lat="47.313185" lon="11.191497">
        <ele>1212.25</ele>
        </trkpt>
      <trkpt lat="47.313292" lon="11.191457">
        <ele>1212</ele>
        </trkpt>
      <trkpt lat="47.313361" lon="11.191356">
        <ele>1212.5</ele>
        </trkpt>
      <trkpt lat="47.313528" lon="11.190744">
        <ele>1218</ele>
        </trkpt>
      <trkpt lat="47.313601" lon="11.190588">
        <ele>1221.25</ele>
        </trkpt>
      <trkpt lat="47.313937" lon="11.190176">
        <ele>1228</ele>
        </trkpt>
      <trkpt lat="47.314186" lon="11.189679">
        <ele>1240</ele>
        </trkpt>
      <trkpt lat="47.314248" lon="11.189494">
        <ele>1245.25</ele>
        </trkpt>
      <trkpt lat="47.314698" lon="11.189193">
        <ele>1248.5</ele>
        </trkpt>
      <trkpt lat="47.314893" lon="11.189128">
        <ele>1247.75</ele>
        </trkpt>
      <trkpt lat="47.315072" lon="11.189">
        <ele>1251</ele>
        </trkpt>
      <trkpt lat="47.315209" lon="11.188844">
        <ele>1256.5</ele>
        </trkpt>
      <trkpt lat="47.315458" lon="11.188778">
        <ele>1258</ele>
        </trkpt>
      <trkpt lat="47.315617" lon="11.188679">
        <ele>1260.75</ele>
        </trkpt>
      <trkpt lat="47.315708" lon="11.18853">
        <ele>1265.75</ele>
        </trkpt>
      <trkpt lat="47.315784" lon="11.188353">
        <ele>1271.5</ele>
        </trkpt>
      <trkpt lat="47.316051" lon="11.187644">
        <ele>1281.5</ele>
        </trkpt>
      <trkpt lat="47.316158" lon="11.187434">
        <ele>1284.25</ele>
        </trkpt>
      <trkpt lat="47.317015" lon="11.186683">
        <ele>1292.25</ele>
        </trkpt>
      <trkpt lat="47.317255" lon="11.186556">
        <ele>1294</ele>
        </trkpt>
      <trkpt lat="47.317491" lon="11.186288">
        <ele>1299.25</ele>
        </trkpt>
      <trkpt lat="47.31765" lon="11.186245">
        <ele>1298</ele>
        </trkpt>
      <trkpt lat="47.317718" lon="11.186207">
        <ele>1298</ele>
        </trkpt>
      <trkpt lat="47.317775" lon="11.186128">
        <ele>1299.5</ele>
        </trkpt>
      <trkpt lat="47.317874" lon="11.185817">
        <ele>1307.25</ele>
        </trkpt>
      <trkpt lat="47.318062" lon="11.185647">
        <ele>1309.5</ele>
        </trkpt>
      <trkpt lat="47.318254" lon="11.185365">
        <ele>1315.25</ele>
        </trkpt>
      <trkpt lat="47.318455" lon="11.185253">
        <ele>1314.75</ele>
        </trkpt>
      <trkpt lat="47.318767" lon="11.184974">
        <ele>1317</ele>
        </trkpt>
      <trkpt lat="47.318949" lon="11.184872">
        <ele>1316.25</ele>
        </trkpt>
      <trkpt lat="47.319114" lon="11.184668">
        <ele>1319.25</ele>
        </trkpt>
      <trkpt lat="47.31935" lon="11.184488">
        <ele>1317.75</ele>
        </trkpt>
      <trkpt lat="47.319401" lon="11.184371">
        <ele>1319.5</ele>
        </trkpt>
      <trkpt lat="47.319445" lon="11.183745">
        <ele>1329</ele>
        </trkpt>
      <trkpt lat="47.319316" lon="11.182838">
        <ele>1344.25</ele>
        </trkpt>
      <trkpt lat="47.319287" lon="11.182719">
        <ele>1346.5</ele>
        </trkpt>
      <trkpt lat="47.319157" lon="11.182564">
        <ele>1352.75</ele>
        </trkpt>
      <trkpt lat="47.319145" lon="11.182503">
        <ele>1353.5</ele>
        </trkpt>
      <trkpt lat="47.319156" lon="11.182444">
        <ele>1353.5</ele>
        </trkpt>
      <trkpt lat="47.319176" lon="11.182405">
        <ele>1353</ele>
        </trkpt>
      <trkpt lat="47.319424" lon="11.182242">
        <ele>1345</ele>
        </trkpt>
      <trkpt lat="47.319467" lon="11.182188">
        <ele>1343.75</ele>
        </trkpt>
      <trkpt lat="47.319499" lon="11.182099">
        <ele>1343</ele>
        </trkpt>
      <trkpt lat="47.319513" lon="11.181892">
        <ele>1343.75</ele>
        </trkpt>
      <trkpt lat="47.319477" lon="11.181698">
        <ele>1346</ele>
        </trkpt>
      <trkpt lat="47.319419" lon="11.181504">
        <ele>1347</ele>
        </trkpt>
      <trkpt lat="47.319373" lon="11.181423">
        <ele>1348</ele>
        </trkpt>
      <trkpt lat="47.319328" lon="11.181313">
        <ele>1348.75</ele>
        </trkpt>
      <trkpt lat="47.319312" lon="11.181194">
        <ele>1348.5</ele>
        </trkpt>
      <trkpt lat="47.319282" lon="11.181087">
        <ele>1349</ele>
        </trkpt>
      <trkpt lat="47.319249" lon="11.181054">
        <ele>1350</ele>
        </trkpt>
      <trkpt lat="47.319222" lon="11.181064">
        <ele>1351.25</ele>
        </trkpt>
      <trkpt lat="47.319198" lon="11.181081">
        <ele>1352.25</ele>
        </trkpt>
      <trkpt lat="47.319177" lon="11.181117">
        <ele>1353.25</ele>
        </trkpt>
      <trkpt lat="47.31922" lon="11.181428">
        <ele>1353.5</ele>
        </trkpt>
      <trkpt lat="47.3192" lon="11.181574">
        <ele>1355.25</ele>
        </trkpt>
      <trkpt lat="47.319133" lon="11.181731">
        <ele>1357.5</ele>
        </trkpt>
      <trkpt lat="47.319078" lon="11.181798">
        <ele>1358.75</ele>
        </trkpt>
      <trkpt lat="47.319014" lon="11.181849">
        <ele>1360.5</ele>
        </trkpt>
      <trkpt lat="47.318919" lon="11.181892">
        <ele>1363</ele>
        </trkpt>
      <trkpt lat="47.318824" lon="11.181897">
        <ele>1366</ele>
        </trkpt>
      <trkpt lat="47.318476" lon="11.18176">
        <ele>1376.5</ele>
        </trkpt>
      <trkpt lat="47.318402" lon="11.181747">
        <ele>1378.75</ele>
        </trkpt>
      <trkpt lat="47.318339" lon="11.181781">
        <ele>1380.5</ele>
        </trkpt>
      <trkpt lat="47.318217" lon="11.181914">
        <ele>1383.75</ele>
        </trkpt>
      <trkpt lat="47.318147" lon="11.18208">
        <ele>1385.25</ele>
        </trkpt>
      <trkpt lat="47.318112" lon="11.182285">
        <ele>1386</ele>
        </trkpt>
      <trkpt lat="47.318142" lon="11.182713">
        <ele>1382.75</ele>
        </trkpt>
      <trkpt lat="47.318105" lon="11.18292">
        <ele>1382</ele>
        </trkpt>
      <trkpt lat="47.317986" lon="11.18311">
        <ele>1384.25</ele>
        </trkpt>
      <trkpt lat="47.317794" lon="11.183278">
        <ele>1388.75</ele>
        </trkpt>
      <trkpt lat="47.317623" lon="11.183485">
        <ele>1390</ele>
        </trkpt>
      <trkpt lat="47.317451" lon="11.183677">
        <ele>1389.5</ele>
        </trkpt>
      <trkpt lat="47.317288" lon="11.183721">
        <ele>1391.75</ele>
        </trkpt>
      <trkpt lat="47.317021" lon="11.183701">
        <ele>1398</ele>
        </trkpt>
      <trkpt lat="47.316825" lon="11.18373">
        <ele>1401.5</ele>
        </trkpt>
      <trkpt lat="47.316732" lon="11.183765">
        <ele>1402.5</ele>
        </trkpt>
      <trkpt lat="47.316691" lon="11.183767">
        <ele>1403.5</ele>
        </trkpt>
      <trkpt lat="47.316658" lon="11.183729">
        <ele>1405.25</ele>
        </trkpt>
      <trkpt lat="47.316651" lon="11.183677">
        <ele>1406.75</ele>
        </trkpt>
      <trkpt lat="47.316655" lon="11.183635">
        <ele>1407.75</ele>
        </trkpt>
      <trkpt lat="47.316764" lon="11.183502">
        <ele>1409.25</ele>
        </trkpt>
      <trkpt lat="47.317027" lon="11.183339">
        <ele>1408</ele>
        </trkpt>
      <trkpt lat="47.317054" lon="11.183252">
        <ele>1408.5</ele>
        </trkpt>
      <trkpt lat="47.317071" lon="11.182979">
        <ele>1411.25</ele>
        </trkpt>
      <trkpt lat="47.316893" lon="11.182151">
        <ele>1422.75</ele>
        </trkpt>
      <trkpt lat="47.31676" lon="11.181617">
        <ele>1428.75</ele>
        </trkpt>
      <trkpt lat="47.316568" lon="11.181256">
        <ele>1434</ele>
        </trkpt>
      <trkpt lat="47.316322" lon="11.180866">
        <ele>1437.75</ele>
        </trkpt>
      <trkpt lat="47.316213" lon="11.180727">
        <ele>1438.25</ele>
        </trkpt>
      <trkpt lat="47.316078" lon="11.180644">
        <ele>1439.5</ele>
        </trkpt>
      <trkpt lat="47.315851" lon="11.180522">
        <ele>1441.5</ele>
        </trkpt>
      <trkpt lat="47.315667" lon="11.180456">
        <ele>1443.5</ele>
        </trkpt>
      <trkpt lat="47.315629" lon="11.180392">
        <ele>1443.5</ele>
        </trkpt>
      <trkpt lat="47.315621" lon="11.180268">
        <ele>1442.5</ele>
        </trkpt>
      <trkpt lat="47.315661" lon="11.180149">
        <ele>1440.5</ele>
        </trkpt>
      <trkpt lat="47.315684" lon="11.179991">
        <ele>1438.25</ele>
        </trkpt>
      <trkpt lat="47.31567" lon="11.179914">
        <ele>1438.5</ele>
        </trkpt>
      <trkpt lat="47.315657" lon="11.179802">
        <ele>1439</ele>
        </trkpt>
      <trkpt lat="47.315592" lon="11.179391">
        <ele>1440.5</ele>
        </trkpt>
      <trkpt lat="47.315433" lon="11.178915">
        <ele>1446.75</ele>
        </trkpt>
      <trkpt lat="47.315361" lon="11.1786">
        <ele>1451.5</ele>
        </trkpt>
      <trkpt lat="47.315375" lon="11.178386">
        <ele>1453.5</ele>
        </trkpt>
      <trkpt lat="47.31539" lon="11.178326">
        <ele>1453.75</ele>
        </trkpt>
      <trkpt lat="47.315414" lon="11.178236">
        <ele>1454</ele>
        </trkpt>
      <trkpt lat="47.315428" lon="11.178221">
        <ele>1454</ele>
        </trkpt>
      <trkpt lat="47.315414" lon="11.178236">
        <ele>1454</ele>
        </trkpt>
      <trkpt lat="47.31539" lon="11.178326">
        <ele>1453.75</ele>
        </trkpt>
      <trkpt lat="47.315375" lon="11.178386">
        <ele>1453.5</ele>
        </trkpt>
      <trkpt lat="47.315361" lon="11.1786">
        <ele>1451.5</ele>
        </trkpt>
      <trkpt lat="47.315433" lon="11.178915">
        <ele>1446.75</ele>
        </trkpt>
      <trkpt lat="47.315592" lon="11.179391">
        <ele>1440.5</ele>
        </trkpt>
      <trkpt lat="47.315657" lon="11.179802">
        <ele>1439</ele>
        </trkpt>
      <trkpt lat="47.31567" lon="11.179914">
        <ele>1438.5</ele>
        </trkpt>
      <trkpt lat="47.315684" lon="11.179991">
        <ele>1438.25</ele>
        </trkpt>
      <trkpt lat="47.315661" lon="11.180149">
        <ele>1440.5</ele>
        </trkpt>
      <trkpt lat="47.315621" lon="11.180268">
        <ele>1442.5</ele>
        </trkpt>
      <trkpt lat="47.315629" lon="11.180392">
        <ele>1443.5</ele>
        </trkpt>
      <trkpt lat="47.315667" lon="11.180456">
        <ele>1443.5</ele>
        </trkpt>
      <trkpt lat="47.315851" lon="11.180522">
        <ele>1441.5</ele>
        </trkpt>
      <trkpt lat="47.315871" lon="11.180485">
        <ele>1440.75</ele>
        </trkpt>
      <trkpt lat="47.315889" lon="11.180328">
        <ele>1438.5</ele>
        </trkpt>
      <trkpt lat="47.315934" lon="11.180218">
        <ele>1436.25</ele>
        </trkpt>
      <trkpt lat="47.316539" lon="11.179972">
        <ele>1425.25</ele>
        </trkpt>
      <trkpt lat="47.316675" lon="11.180193">
        <ele>1425.5</ele>
        </trkpt>
      <trkpt lat="47.316838" lon="11.18007">
        <ele>1420</ele>
        </trkpt>
      <trkpt lat="47.317026" lon="11.180109">
        <ele>1415</ele>
        </trkpt>
      <trkpt lat="47.317132" lon="11.180025">
        <ele>1411.75</ele>
        </trkpt>
      <trkpt lat="47.317188" lon="11.180012">
        <ele>1410</ele>
        </trkpt>
      <trkpt lat="47.317194" lon="11.180011">
        <ele>1410</ele>
        </trkpt>
      <trkpt lat="47.317332" lon="11.180021">
        <ele>1406.5</ele>
        </trkpt>
      <trkpt lat="47.31765" lon="11.180132">
        <ele>1397.25</ele>
        </trkpt>
      <trkpt lat="47.317684" lon="11.180252">
        <ele>1396.25</ele>
        </trkpt>
      <trkpt lat="47.318084" lon="11.18068">
        <ele>1383.25</ele>
        </trkpt>
      <trkpt lat="47.318147" lon="11.180447">
        <ele>1381</ele>
        </trkpt>
      <trkpt lat="47.318262" lon="11.180699">
        <ele>1377.25</ele>
        </trkpt>
      <trkpt lat="47.318578" lon="11.180607">
        <ele>1367.75</ele>
        </trkpt>
      <trkpt lat="47.318588" lon="11.180713">
        <ele>1367.5</ele>
        </trkpt>
      <trkpt lat="47.318758" lon="11.180814">
        <ele>1363</ele>
        </trkpt>
      <trkpt lat="47.319039" lon="11.180981">
        <ele>1356.25</ele>
        </trkpt>
      <trkpt lat="47.319191" lon="11.180934">
        <ele>1351.5</ele>
        </trkpt>
      <trkpt lat="47.319237" lon="11.18092">
        <ele>1349.75</ele>
        </trkpt>
      <trkpt lat="47.3196" lon="11.181127">
        <ele>1337.25</ele>
        </trkpt>
      <trkpt lat="47.3197" lon="11.180881">
        <ele>1331.25</ele>
        </trkpt>
      <trkpt lat="47.319992" lon="11.181026">
        <ele>1321.25</ele>
        </trkpt>
      <trkpt lat="47.320146" lon="11.181059">
        <ele>1315.75</ele>
        </trkpt>
      <trkpt lat="47.320409" lon="11.181469">
        <ele>1311.25</ele>
        </trkpt>
      <trkpt lat="47.320522" lon="11.182964">
        <ele>1304</ele>
        </trkpt>
      <trkpt lat="47.320571" lon="11.183152">
        <ele>1301</ele>
        </trkpt>
      <trkpt lat="47.320603" lon="11.183185">
        <ele>1299.75</ele>
        </trkpt>
      <trkpt lat="47.320647" lon="11.183232">
        <ele>1298.5</ele>
        </trkpt>
      <trkpt lat="47.321045" lon="11.183328">
        <ele>1289</ele>
        </trkpt>
      <trkpt lat="47.321143" lon="11.183404">
        <ele>1286.25</ele>
        </trkpt>
      <trkpt lat="47.321247" lon="11.183398">
        <ele>1284</ele>
        </trkpt>
      <trkpt lat="47.321405" lon="11.183414">
        <ele>1280.25</ele>
        </trkpt>
      <trkpt lat="47.321531" lon="11.183611">
        <ele>1276</ele>
        </trkpt>
      <trkpt lat="47.321513" lon="11.183904">
        <ele>1274.25</ele>
        </trkpt>
      <trkpt lat="47.321596" lon="11.183928">
        <ele>1272.25</ele>
        </trkpt>
      <trkpt lat="47.321578" lon="11.184063">
        <ele>1271.5</ele>
        </trkpt>
      <trkpt lat="47.321773" lon="11.184137">
        <ele>1266.25</ele>
        </trkpt>
      <trkpt lat="47.321837" lon="11.184256">
        <ele>1263.75</ele>
        </trkpt>
      <trkpt lat="47.322023" lon="11.184368">
        <ele>1258.5</ele>
        </trkpt>
      <trkpt lat="47.32252" lon="11.184057">
        <ele>1246.5</ele>
        </trkpt>
      <trkpt lat="47.322642" lon="11.183908">
        <ele>1243.75</ele>
        </trkpt>
      <trkpt lat="47.322642" lon="11.183908">
        <ele>1243.75</ele>
        </trkpt>
      <trkpt lat="47.32276" lon="11.183766">
        <ele>1241.5</ele>
        </trkpt>
      <trkpt lat="47.322795" lon="11.183646">
        <ele>1240.75</ele>
        </trkpt>
      <trkpt lat="47.322822" lon="11.183516">
        <ele>1240.25</ele>
        </trkpt>
      <trkpt lat="47.322868" lon="11.183359">
        <ele>1239.25</ele>
        </trkpt>
      <trkpt lat="47.322948" lon="11.183266">
        <ele>1237.5</ele>
        </trkpt>
      <trkpt lat="47.323255" lon="11.18291">
        <ele>1229.25</ele>
        </trkpt>
      <trkpt lat="47.32328" lon="11.182862">
        <ele>1229.3363747289657</ele>
      </trkpt>
      <trkpt lat="47.3235970492191" lon="11.182613567430536">
        <ele>1222.4880494000865</ele>
      </trkpt>
      <trkpt lat="47.3237792541145" lon="11.182776259724847">
        <ele>1222.0599632909502</ele>
      </trkpt>
      <trkpt lat="47.32403338094605" lon="11.183066276422437">
        <ele>1222.4615352357755</ele>
      </trkpt>
      <trkpt lat="47.32446837914105" lon="11.183234296497421">
        <ele>1215.5953449512376</ele>
      </trkpt>
      <trkpt lat="47.32466935718247" lon="11.1833119252002">
        <ele>1211.1648596514954</ele>
      </trkpt>
      <trkpt lat="47.324566" lon="11.183731">
        <ele>1212.75</ele>
        </trkpt>
      <trkpt lat="47.324564" lon="11.183757">
        <ele>1213</ele>
        </trkpt>
      <trkpt lat="47.324571" lon="11.183865">
        <ele>1213</ele>
        </trkpt>
      <trkpt lat="47.324695" lon="11.184456">
        <ele>1210.25</ele>
        </trkpt>
      <trkpt lat="47.324692" lon="11.184552">
        <ele>1210</ele>
        </trkpt>
      <trkpt lat="47.324652" lon="11.184617">
        <ele>1210.5</ele>
        </trkpt>
      <trkpt lat="47.324657" lon="11.184807">
        <ele>1209.75</ele>
        </trkpt>
      <trkpt lat="47.324675" lon="11.184904">
        <ele>1209.25</ele>
        </trkpt>
      <trkpt lat="47.324686" lon="11.184961">
        <ele>1209</ele>
        </trkpt>
      <trkpt lat="47.324684" lon="11.185138">
        <ele>1208</ele>
        </trkpt>
      <trkpt lat="47.324661" lon="11.185228">
        <ele>1207.75</ele>
        </trkpt>
      <trkpt lat="47.324702" lon="11.185474">
        <ele>1205.25</ele>
        </trkpt>
      <trkpt lat="47.324666" lon="11.18557">
        <ele>1205.25</ele>
        </trkpt>
      <trkpt lat="47.32461" lon="11.185597">
        <ele>1206</ele>
        </trkpt>
      <trkpt lat="47.324514" lon="11.185593">
        <ele>1207.5</ele>
        </trkpt>
      <trkpt lat="47.324522" lon="11.185697">
        <ele>1206.75</ele>
        </trkpt>
      <trkpt lat="47.324554" lon="11.185737">
        <ele>1206</ele>
        </trkpt>
      <trkpt lat="47.324582" lon="11.18589">
        <ele>1204.25</ele>
        </trkpt>
      <trkpt lat="47.324736" lon="11.186215">
        <ele>1197.5</ele>
        </trkpt>
      <trkpt lat="47.324837" lon="11.186408">
        <ele>1193.5</ele>
        </trkpt>
      <trkpt lat="47.324892" lon="11.186573">
        <ele>1190.75</ele>
        </trkpt>
      <trkpt lat="47.324967" lon="11.186731">
        <ele>1187.75</ele>
        </trkpt>
      <trkpt lat="47.325016" lon="11.186816">
        <ele>1186.5</ele>
        </trkpt>
      <trkpt lat="47.325025" lon="11.186815">
        <ele>1186.5</ele>
        </trkpt>
      <trkpt lat="47.325044" lon="11.186813">
        <ele>1186.5</ele>
        </trkpt>
      <trkpt lat="47.325139" lon="11.18684">
        <ele>1186</ele>
        </trkpt>
      <trkpt lat="47.325096" lon="11.186845">
        <ele>1186</ele>
        </trkpt>
      <trkpt lat="47.325046" lon="11.18687">
        <ele>1186</ele>
        </trkpt>
      <trkpt lat="47.324787" lon="11.187153">
        <ele>1186</ele>
        </trkpt>
      <trkpt lat="47.324555" lon="11.187342">
        <ele>1186.5</ele>
        </trkpt>
      <trkpt lat="47.324436" lon="11.187441">
        <ele>1186.75</ele>
        </trkpt>
      <trkpt lat="47.323699" lon="11.188007">
        <ele>1186</ele>
        </trkpt>
      <trkpt lat="47.322874" lon="11.188785">
        <ele>1187.25</ele>
        </trkpt>
      <trkpt lat="47.322469" lon="11.189044">
        <ele>1187.75</ele>
        </trkpt>
      <trkpt lat="47.322437" lon="11.189065">
        <ele>1187.75</ele>
        </trkpt>
      <trkpt lat="47.322073" lon="11.189434">
        <ele>1187.5</ele>
        </trkpt>
      <trkpt lat="47.321282" lon="11.190144">
        <ele>1185.75</ele>
        </trkpt>
      <trkpt lat="47.321249" lon="11.190175">
        <ele>1185.75</ele>
        </trkpt>
      <trkpt lat="47.321162" lon="11.190243">
        <ele>1185.5</ele>
        </trkpt>
      <trkpt lat="47.321076" lon="11.190316">
        <ele>1185.25</ele>
        </trkpt>
      <trkpt lat="47.320986" lon="11.190364">
        <ele>1185</ele>
        </trkpt>
      <trkpt lat="47.320746" lon="11.190506">
        <ele>1185</ele>
        </trkpt>
      <trkpt lat="47.320642" lon="11.190611">
        <ele>1185.25</ele>
        </trkpt>
      <trkpt lat="47.320603" lon="11.190754">
        <ele>1184.5</ele>
        </trkpt>
      <trkpt lat="47.320513" lon="11.19126">
        <ele>1183</ele>
        </trkpt>
      <trkpt lat="47.320425" lon="11.1915">
        <ele>1183</ele>
        </trkpt>
      <trkpt lat="47.320211" lon="11.191568">
        <ele>1184.5</ele>
        </trkpt>
      <trkpt lat="47.320174" lon="11.191591">
        <ele>1184.75</ele>
        </trkpt>
      <trkpt lat="47.319981" lon="11.191892">
        <ele>1184.5</ele>
        </trkpt>
      <trkpt lat="47.319871" lon="11.192117">
        <ele>1184</ele>
        </trkpt>
      <trkpt lat="47.319764" lon="11.192173">
        <ele>1184.5</ele>
        </trkpt>
      <trkpt lat="47.319682" lon="11.192172">
        <ele>1185</ele>
        </trkpt>
      <trkpt lat="47.319563" lon="11.192312">
        <ele>1185.5</ele>
        </trkpt>
      <trkpt lat="47.319509" lon="11.192458">
        <ele>1185.75</ele>
        </trkpt>
      <trkpt lat="47.3194" lon="11.192454">
        <ele>1186.75</ele>
        </trkpt>
      <trkpt lat="47.319166" lon="11.192223">
        <ele>1188.5</ele>
        </trkpt>
      <trkpt lat="47.319094" lon="11.192218">
        <ele>1188.5</ele>
        </trkpt>
      <trkpt lat="47.319027" lon="11.19228">
        <ele>1188.5</ele>
        </trkpt>
      <trkpt lat="47.318953" lon="11.192434">
        <ele>1188.5</ele>
        </trkpt>
      <trkpt lat="47.318752" lon="11.192757">
        <ele>1189</ele>
        </trkpt>
      <trkpt lat="47.318672" lon="11.192813">
        <ele>1189</ele>
        </trkpt>
      <trkpt lat="47.318564" lon="11.192831">
        <ele>1189</ele>
        </trkpt>
      <trkpt lat="47.318502" lon="11.192813">
        <ele>1189</ele>
        </trkpt>
      <trkpt lat="47.318419" lon="11.19279">
        <ele>1189</ele>
        </trkpt>
      <trkpt lat="47.31826" lon="11.192662">
        <ele>1188.75</ele>
        </trkpt>
      <trkpt lat="47.318215" lon="11.192661">
        <ele>1188.75</ele>
        </trkpt>
      <trkpt lat="47.31817" lon="11.192674">
        <ele>1189</ele>
        </trkpt>
      <trkpt lat="47.318117" lon="11.192721">
        <ele>1189.25</ele>
        </trkpt>
      <trkpt lat="47.318064" lon="11.192785">
        <ele>1189.75</ele>
        </trkpt>
      <trkpt lat="47.317961" lon="11.193098">
        <ele>1191.25</ele>
        </trkpt>
      <trkpt lat="47.31793" lon="11.193652">
        <ele>1195</ele>
        </trkpt>
      <trkpt lat="47.317957" lon="11.193925">
        <ele>1197</ele>
        </trkpt>
      <trkpt lat="47.318048" lon="11.194329">
        <ele>1197.5</ele>
        </trkpt>
      <trkpt lat="47.318277" lon="11.19493">
        <ele>1192</ele>
        </trkpt>
      <trkpt lat="47.318275" lon="11.194945">
        <ele>1192</ele>
        </trkpt>
      <trkpt lat="47.317176" lon="11.19532">
        <ele>1195.25</ele>
        </trkpt>
      <trkpt lat="47.317029" lon="11.195334">
        <ele>1194.75</ele>
        </trkpt>
      <trkpt lat="47.316607" lon="11.195507">
        <ele>1192.75</ele>
        </trkpt>
      <trkpt lat="47.316582" lon="11.195518">
        <ele>1192.75</ele>
        </trkpt>
      <trkpt lat="47.316518" lon="11.195672">
        <ele>1191.75</ele>
        </trkpt>
      <trkpt lat="47.316384" lon="11.196046">
        <ele>1188.75</ele>
        </trkpt>
      <trkpt lat="47.316319" lon="11.196284">
        <ele>1186.5</ele>
        </trkpt>
      <trkpt lat="47.31626" lon="11.196447">
        <ele>1185</ele>
        </trkpt>
      <trkpt lat="47.316207" lon="11.196587">
        <ele>1183.75</ele>
        </trkpt>
      <trkpt lat="47.316149" lon="11.19669">
        <ele>1183</ele>
        </trkpt>
      <trkpt lat="47.316039" lon="11.196809">
        <ele>1183</ele>
        </trkpt>
      <trkpt lat="47.315962" lon="11.196909">
        <ele>1182.75</ele>
        </trkpt>
      <trkpt lat="47.315868" lon="11.197062">
        <ele>1182.5</ele>
        </trkpt>
      <trkpt lat="47.315764" lon="11.19735">
        <ele>1181.25</ele>
        </trkpt>
      <trkpt lat="47.315474" lon="11.19804">
        <ele>1179.25</ele>
        </trkpt>
      <trkpt lat="47.315386" lon="11.198152">
        <ele>1178.5</ele>
        </trkpt>
      <trkpt lat="47.315303" lon="11.198241">
        <ele>1178</ele>
        </trkpt>
      <trkpt lat="47.315328" lon="11.198445">
        <ele>1177.75</ele>
        </trkpt>
      <trkpt lat="47.315335" lon="11.198514">
        <ele>1177.5</ele>
        </trkpt>
      <trkpt lat="47.315224" lon="11.198553">
        <ele>1176.75</ele>
        </trkpt>
      <trkpt lat="47.315029" lon="11.19859">
        <ele>1175.5</ele>
        </trkpt>
      <trkpt lat="47.314827" lon="11.198621">
        <ele>1173.75</ele>
        </trkpt>
      <trkpt lat="47.314787" lon="11.198636">
        <ele>1173.5</ele>
        </trkpt>
      <trkpt lat="47.314706" lon="11.198686">
        <ele>1172.75</ele>
        </trkpt>
      <trkpt lat="47.314621" lon="11.19876">
        <ele>1172</ele>
        </trkpt>
      <trkpt lat="47.314588" lon="11.198799">
        <ele>1171.5</ele>
        </trkpt>
      <trkpt lat="47.314533" lon="11.198869">
        <ele>1170.75</ele>
        </trkpt>
      <trkpt lat="47.314478" lon="11.198996">
        <ele>1170</ele>
        </trkpt>
      <trkpt lat="47.314439" lon="11.199131">
        <ele>1169.25</ele>
        </trkpt>
      <trkpt lat="47.314435" lon="11.199151">
        <ele>1169.25</ele>
        </trkpt>
      <trkpt lat="47.314414" lon="11.199335">
        <ele>1168.75</ele>
        </trkpt>
      <trkpt lat="47.314417" lon="11.199497">
        <ele>1168.5</ele>
        </trkpt>
      <trkpt lat="47.314427" lon="11.199605">
        <ele>1168.5</ele>
        </trkpt>
      <trkpt lat="47.314504" lon="11.200123">
        <ele>1168.25</ele>
        </trkpt>
      <trkpt lat="47.314504" lon="11.200351">
        <ele>1167.5</ele>
        </trkpt>
      <trkpt lat="47.314519" lon="11.200547">
        <ele>1167</ele>
        </trkpt>
      <trkpt lat="47.314556" lon="11.200741">
        <ele>1166.75</ele>
        </trkpt>
      <trkpt lat="47.314573" lon="11.200788">
        <ele>1167</ele>
        </trkpt>
      <trkpt lat="47.314585" lon="11.200818">
        <ele>1167</ele>
        </trkpt>
      <trkpt lat="47.314616" lon="11.200864">
        <ele>1167.5</ele>
        </trkpt>
      <trkpt lat="47.314837" lon="11.200775">
        <ele>1170</ele>
        </trkpt>
      <trkpt lat="47.315067" lon="11.200663">
        <ele>1172.75</ele>
        </trkpt>
      <trkpt lat="47.315112" lon="11.200781">
        <ele>1173</ele>
        </trkpt>
      <trkpt lat="47.315323" lon="11.200771">
        <ele>1175</ele>
        </trkpt>
      <trkpt lat="47.315727" lon="11.200661">
        <ele>1179</ele>
        </trkpt>
      <trkpt lat="47.315836" lon="11.200651">
        <ele>1180</ele>
        </trkpt>
      <trkpt lat="47.315914" lon="11.200659">
        <ele>1181.25</ele>
        </trkpt>
      <trkpt lat="47.31642" lon="11.201078">
        <ele>1190</ele>
        </trkpt>
      <trkpt lat="47.316769" lon="11.201474">
        <ele>1193</ele>
        </trkpt>
      <trkpt lat="47.316921" lon="11.201586">
        <ele>1195</ele>
        </trkpt>
      <trkpt lat="47.316886" lon="11.201741">
        <ele>1194.5</ele>
        </trkpt>
      <trkpt lat="47.316857" lon="11.201826">
        <ele>1194.5</ele>
        </trkpt>
      <trkpt lat="47.316847" lon="11.201857">
        <ele>1194.5</ele>
        </trkpt>
      <trkpt lat="47.316812" lon="11.201909">
        <ele>1194.25</ele>
        </trkpt>
      <trkpt lat="47.316694" lon="11.202021">
        <ele>1193.25</ele>
        </trkpt>
      <trkpt lat="47.316555" lon="11.202044">
        <ele>1193.25</ele>
        </trkpt>
      <trkpt lat="47.316296" lon="11.202013">
        <ele>1193.5</ele>
        </trkpt>
      <trkpt lat="47.315963" lon="11.201646">
        <ele>1189.75</ele>
        </trkpt>
      <trkpt lat="47.315796" lon="11.201509">
        <ele>1187.5</ele>
        </trkpt>
      <trkpt lat="47.315694" lon="11.201476">
        <ele>1186.25</ele>
        </trkpt>
      <trkpt lat="47.315545" lon="11.201463">
        <ele>1184.75</ele>
        </trkpt>
      <trkpt lat="47.315375" lon="11.201372">
        <ele>1182</ele>
        </trkpt>
      <trkpt lat="47.315132" lon="11.201354">
        <ele>1179.5</ele>
        </trkpt>
      <trkpt lat="47.314999" lon="11.201414">
        <ele>1178.75</ele>
        </trkpt>
      <trkpt lat="47.314849" lon="11.201549">
        <ele>1178</ele>
        </trkpt>
      <trkpt lat="47.314703" lon="11.201764">
        <ele>1178.5</ele>
        </trkpt>
      <trkpt lat="47.314435" lon="11.201929">
        <ele>1176.75</ele>
        </trkpt>
      <trkpt lat="47.314185" lon="11.202198">
        <ele>1177</ele>
        </trkpt>
      <trkpt lat="47.314172" lon="11.202208">
        <ele>1177</ele>
        </trkpt>
      <trkpt lat="47.314085" lon="11.20228">
        <ele>1177.5</ele>
        </trkpt>
      <trkpt lat="47.313853" lon="11.202439">
        <ele>1178.25</ele>
        </trkpt>
      <trkpt lat="47.313635" lon="11.202621">
        <ele>1179</ele>
        </trkpt>
      <trkpt lat="47.313512" lon="11.202758">
        <ele>1179.75</ele>
        </trkpt>
      <trkpt lat="47.313282" lon="11.20303">
        <ele>1181.75</ele>
        </trkpt>
      <trkpt lat="47.313101" lon="11.203376">
        <ele>1184.75</ele>
        </trkpt>
      <trkpt lat="47.31294" lon="11.20361">
        <ele>1186</ele>
        </trkpt>
      <trkpt lat="47.312786" lon="11.203728">
        <ele>1186.25</ele>
        </trkpt>
      <trkpt lat="47.312664" lon="11.203779">
        <ele>1186.25</ele>
        </trkpt>
      <trkpt lat="47.312597" lon="11.203825">
        <ele>1186.5</ele>
        </trkpt>
      <trkpt lat="47.312577" lon="11.203838">
        <ele>1186.5</ele>
        </trkpt>
      <trkpt lat="47.312563" lon="11.203841">
        <ele>1186.5</ele>
        </trkpt>
      <trkpt lat="47.312528" lon="11.203815">
        <ele>1186.25</ele>
        </trkpt>
      <trkpt lat="47.312503" lon="11.20376">
        <ele>1185.5</ele>
        </trkpt>
      <trkpt lat="47.312407" lon="11.203295">
        <ele>1181</ele>
        </trkpt>
      <trkpt lat="47.312364" lon="11.203181">
        <ele>1180</ele>
        </trkpt>
      <trkpt lat="47.312303" lon="11.203127">
        <ele>1179.75</ele>
        </trkpt>
      <trkpt lat="47.312136" lon="11.203112">
        <ele>1180</ele>
        </trkpt>
      <trkpt lat="47.312036" lon="11.203119">
        <ele>1180.25</ele>
        </trkpt>
      <trkpt lat="47.31184" lon="11.203168">
        <ele>1181.25</ele>
        </trkpt>
      <trkpt lat="47.311564" lon="11.203222">
        <ele>1181.5</ele>
        </trkpt>
      <trkpt lat="47.311549" lon="11.203222">
        <ele>1181.25</ele>
        </trkpt>
      <trkpt lat="47.311549" lon="11.203222">
        <ele>1181.25</ele>
        </trkpt>
      <trkpt lat="47.311406" lon="11.203231">
        <ele>1180.25</ele>
        </trkpt>
      <trkpt lat="47.311288" lon="11.203184">
        <ele>1178.5</ele>
        </trkpt>
      <trkpt lat="47.310925" lon="11.202927">
        <ele>1171.5</ele>
        </trkpt>
      <trkpt lat="47.310676" lon="11.202799">
        <ele>1166.75</ele>
        </trkpt>
      <trkpt lat="47.310622" lon="11.202798">
        <ele>1166.25</ele>
        </trkpt>
      <trkpt lat="47.310493" lon="11.202839">
        <ele>1165.5</ele>
        </trkpt>
      <trkpt lat="47.310328" lon="11.202909">
        <ele>1164.75</ele>
        </trkpt>
      <trkpt lat="47.310137" lon="11.202959">
        <ele>1163.5</ele>
        </trkpt>
      <trkpt lat="47.309899" lon="11.202952">
        <ele>1162</ele>
        </trkpt>
      <trkpt lat="47.309831" lon="11.202962">
        <ele>1162.25</ele>
        </trkpt>
      <trkpt lat="47.309722" lon="11.203051">
        <ele>1164</ele>
        </trkpt>
      <trkpt lat="47.309663" lon="11.203133">
        <ele>1165.75</ele>
        </trkpt>
      <trkpt lat="47.309592" lon="11.203171">
        <ele>1166.5</ele>
        </trkpt>
      <trkpt lat="47.309509" lon="11.203141">
        <ele>1166</ele>
        </trkpt>
      <trkpt lat="47.309365" lon="11.202981">
        <ele>1162.75</ele>
        </trkpt>
      <trkpt lat="47.309232" lon="11.20291">
        <ele>1161.25</ele>
        </trkpt>
      <trkpt lat="47.309017" lon="11.202881">
        <ele>1160</ele>
        </trkpt>
      <trkpt lat="47.308821" lon="11.202839">
        <ele>1158.25</ele>
        </trkpt>
      <trkpt lat="47.308628" lon="11.202832">
        <ele>1157.25</ele>
        </trkpt>
      <trkpt lat="47.308332" lon="11.20285">
        <ele>1156.75</ele>
        </trkpt>
      <trkpt lat="47.308234" lon="11.202824">
        <ele>1157</ele>
        </trkpt>
      <trkpt lat="47.307992" lon="11.202792">
        <ele>1158.75</ele>
        </trkpt>
      <trkpt lat="47.30787" lon="11.20274">
        <ele>1158.5</ele>
        </trkpt>
      <trkpt lat="47.307788" lon="11.202725">
        <ele>1159</ele>
        </trkpt>
      <trkpt lat="47.30771" lon="11.202736">
        <ele>1160</ele>
        </trkpt>
      <trkpt lat="47.307647" lon="11.202771">
        <ele>1161.5</ele>
        </trkpt>
      <trkpt lat="47.307438" lon="11.202979">
        <ele>1169.25</ele>
        </trkpt>
      <trkpt lat="47.307262" lon="11.203093">
        <ele>1174.25</ele>
        </trkpt>
      <trkpt lat="47.307069" lon="11.20317">
        <ele>1178</ele>
        </trkpt>
      <trkpt lat="47.306874" lon="11.203234">
        <ele>1181.25</ele>
        </trkpt>
      <trkpt lat="47.306811" lon="11.203235">
        <ele>1181.75</ele>
        </trkpt>
      <trkpt lat="47.306676" lon="11.203183">
        <ele>1182.25</ele>
        </trkpt>
      <trkpt lat="47.306546" lon="11.203196">
        <ele>1183</ele>
        </trkpt>
      <trkpt lat="47.306452" lon="11.203222">
        <ele>1183.75</ele>
        </trkpt>
      <trkpt lat="47.306212" lon="11.203398">
        <ele>1187.5</ele>
        </trkpt>
      <trkpt lat="47.306069" lon="11.203471">
        <ele>1189.5</ele>
        </trkpt>
      <trkpt lat="47.305873" lon="11.203636">
        <ele>1194</ele>
        </trkpt>
      <trkpt lat="47.305817" lon="11.203664">
        <ele>1194.75</ele>
        </trkpt>
      <trkpt lat="47.305691" lon="11.203728">
        <ele>1196.75</ele>
        </trkpt>
      <trkpt lat="47.30549" lon="11.203832">
        <ele>1199.5</ele>
        </trkpt>
      <trkpt lat="47.305424" lon="11.20384">
        <ele>1200</ele>
        </trkpt>
      <trkpt lat="47.305403" lon="11.20382">
        <ele>1199.5</ele>
        </trkpt>
      <trkpt lat="47.305387" lon="11.203784">
        <ele>1198.75</ele>
        </trkpt>
      <trkpt lat="47.305332" lon="11.203721">
        <ele>1197.75</ele>
        </trkpt>
      <trkpt lat="47.305082" lon="11.203595">
        <ele>1196.5</ele>
        </trkpt>
      <trkpt lat="47.304707" lon="11.203515">
        <ele>1197.75</ele>
        </trkpt>
      <trkpt lat="47.304566" lon="11.203507">
        <ele>1198.5</ele>
        </trkpt>
      <trkpt lat="47.304434" lon="11.203542">
        <ele>1199.75</ele>
        </trkpt>
      <trkpt lat="47.304361" lon="11.203585">
        <ele>1201</ele>
        </trkpt>
      <trkpt lat="47.303883" lon="11.203973">
        <ele>1206.25</ele>
        </trkpt>
      <trkpt lat="47.303813" lon="11.204051">
        <ele>1207</ele>
        </trkpt>
      <trkpt lat="47.303788" lon="11.204121">
        <ele>1208</ele>
        </trkpt>
      <trkpt lat="47.30382" lon="11.204289">
        <ele>1210.5</ele>
        </trkpt>
      <trkpt lat="47.303833" lon="11.204419">
        <ele>1212.75</ele>
        </trkpt>
      <trkpt lat="47.303815" lon="11.204519">
        <ele>1214.25</ele>
        </trkpt>
      <trkpt lat="47.303779" lon="11.204607">
        <ele>1215.5</ele>
        </trkpt>
      <trkpt lat="47.303728" lon="11.204674">
        <ele>1216</ele>
        </trkpt>
      <trkpt lat="47.303668" lon="11.204732">
        <ele>1216.5</ele>
        </trkpt>
      <trkpt lat="47.303503" lon="11.204839">
        <ele>1216.5</ele>
        </trkpt>
      <trkpt lat="47.303336" lon="11.205001">
        <ele>1217</ele>
      </trkpt>
      <trkpt lat="47.303336" lon="11.205001">
        <ele>1216.75</ele>
        </trkpt>
      <trkpt lat="47.303257" lon="11.205079">
        <ele>1217</ele>
        </trkpt>
      <trkpt lat="47.303088" lon="11.205349">
        <ele>1219.5</ele>
        </trkpt>
      <trkpt lat="47.30287" lon="11.205657">
        <ele>1222</ele>
        </trkpt>
      <trkpt lat="47.3026" lon="11.206204">
        <ele>1229</ele>
        </trkpt>
      <trkpt lat="47.30251" lon="11.206425">
        <ele>1231.75</ele>
        </trkpt>
      <trkpt lat="47.302341" lon="11.206699">
        <ele>1234.75</ele>
        </trkpt>
      <trkpt lat="47.301858" lon="11.207387">
        <ele>1238.5</ele>
        </trkpt>
      <trkpt lat="47.301676" lon="11.207757">
        <ele>1241</ele>
        </trkpt>
      <trkpt lat="47.301595" lon="11.2081">
        <ele>1243.75</ele>
        </trkpt>
      <trkpt lat="47.301533" lon="11.208323">
        <ele>1245</ele>
        </trkpt>
      <trkpt lat="47.301418" lon="11.208596">
        <ele>1247</ele>
        </trkpt>
      <trkpt lat="47.3013" lon="11.208853">
        <ele>1247.5</ele>
        </trkpt>
      <trkpt lat="47.301248" lon="11.209152">
        <ele>1250</ele>
        </trkpt>
      <trkpt lat="47.301164" lon="11.209473">
        <ele>1251.25</ele>
        </trkpt>
      <trkpt lat="47.301102" lon="11.209638">
        <ele>1250.5</ele>
        </trkpt>
      <trkpt lat="47.301058" lon="11.209737">
        <ele>1249.75</ele>
        </trkpt>
      <trkpt lat="47.300747" lon="11.209629">
        <ele>1236.25</ele>
        </trkpt>
      <trkpt lat="47.300462" lon="11.210029">
        <ele>1229.75</ele>
        </trkpt>
      <trkpt lat="47.300623" lon="11.210473">
        <ele>1242.5</ele>
        </trkpt>
      <trkpt lat="47.300589" lon="11.210784">
        <ele>1247</ele>
        </trkpt>
      <trkpt lat="47.300512" lon="11.21083">
        <ele>1246.25</ele>
        </trkpt>
      <trkpt lat="47.300449" lon="11.210869">
        <ele>1245.75</ele>
        </trkpt>
      <trkpt lat="47.300441" lon="11.210874">
        <ele>1245.75</ele>
        </trkpt>
      <trkpt lat="47.300429" lon="11.210881">
        <ele>1245.5</ele>
        </trkpt>
      <trkpt lat="47.300249" lon="11.210845">
        <ele>1241.25</ele>
        </trkpt>
      <trkpt lat="47.300188" lon="11.210832">
        <ele>1239.75</ele>
        </trkpt>
      <trkpt lat="47.300171" lon="11.210809">
        <ele>1238.75</ele>
        </trkpt>
      <trkpt lat="47.300191" lon="11.21071">
        <ele>1237</ele>
        </trkpt>
      <trkpt lat="47.300189" lon="11.210537">
        <ele>1233</ele>
        </trkpt>
      <trkpt lat="47.300201" lon="11.210417">
        <ele>1230.5</ele>
        </trkpt>
      <trkpt lat="47.300189" lon="11.210268">
        <ele>1226.75</ele>
        </trkpt>
      <trkpt lat="47.300063" lon="11.210032">
        <ele>1217.5</ele>
        </trkpt>
      <trkpt lat="47.299984" lon="11.209853">
        <ele>1213.75</ele>
        </trkpt>
      <trkpt lat="47.29993" lon="11.209669">
        <ele>1211.75</ele>
        </trkpt>
      <trkpt lat="47.299849" lon="11.209587">
        <ele>1210</ele>
        </trkpt>
      <trkpt lat="47.299732" lon="11.209448">
        <ele>1207</ele>
        </trkpt>
      <trkpt lat="47.299678" lon="11.20941">
        <ele>1205.75</ele>
        </trkpt>
      <trkpt lat="47.299625" lon="11.209312">
        <ele>1203.25</ele>
        </trkpt>
      <trkpt lat="47.299567" lon="11.209312">
        <ele>1202.25</ele>
        </trkpt>
      <trkpt lat="47.299536" lon="11.209272">
        <ele>1201.25</ele>
        </trkpt>
      <trkpt lat="47.299454" lon="11.209201">
        <ele>1198.25</ele>
        </trkpt>
      <trkpt lat="47.299373" lon="11.20918">
        <ele>1196.25</ele>
        </trkpt>
      <trkpt lat="47.299268" lon="11.209114">
        <ele>1193.25</ele>
        </trkpt>
      <trkpt lat="47.299124" lon="11.208906">
        <ele>1187</ele>
        </trkpt>
      <trkpt lat="47.299095" lon="11.208797">
        <ele>1185</ele>
        </trkpt>
      <trkpt lat="47.298971" lon="11.208561">
        <ele>1179.25</ele>
        </trkpt>
      <trkpt lat="47.298912" lon="11.208537">
        <ele>1177.75</ele>
        </trkpt>
      <trkpt lat="47.29892" lon="11.208431">
        <ele>1176.25</ele>
        </trkpt>
      <trkpt lat="47.298858" lon="11.208296">
        <ele>1173.25</ele>
        </trkpt>
      <trkpt lat="47.298756" lon="11.20821">
        <ele>1170.25</ele>
        </trkpt>
      <trkpt lat="47.298681" lon="11.208167">
        <ele>1168</ele>
        </trkpt>
      <trkpt lat="47.298644" lon="11.208121">
        <ele>1166.5</ele>
        </trkpt>
      <trkpt lat="47.298597" lon="11.208025">
        <ele>1164</ele>
        </trkpt>
      <trkpt lat="47.298492" lon="11.207857">
        <ele>1158.25</ele>
        </trkpt>
      <trkpt lat="47.298478" lon="11.207797">
        <ele>1156.5</ele>
        </trkpt>
      <trkpt lat="47.298465" lon="11.207735">
        <ele>1155</ele>
        </trkpt>
      <trkpt lat="47.298506" lon="11.207684">
        <ele>1155.25</ele>
        </trkpt>
      <trkpt lat="47.298512" lon="11.207653">
        <ele>1154.75</ele>
        </trkpt>
      <trkpt lat="47.298519" lon="11.207646">
        <ele>1155</ele>
        </trkpt>
      <trkpt lat="47.29854" lon="11.207587">
        <ele>1154.5</ele>
        </trkpt>
      <trkpt lat="47.298524" lon="11.207451">
        <ele>1152</ele>
        </trkpt>
      <trkpt lat="47.29847" lon="11.207353">
        <ele>1150</ele>
        </trkpt>
      <trkpt lat="47.2984" lon="11.207282">
        <ele>1147.5</ele>
        </trkpt>
      <trkpt lat="47.29828" lon="11.207133">
        <ele>1143.75</ele>
        </trkpt>
      <trkpt lat="47.298175" lon="11.206957">
        <ele>1140.25</ele>
        </trkpt>
      <trkpt lat="47.29805" lon="11.206808">
        <ele>1136</ele>
        </trkpt>
      <trkpt lat="47.297963" lon="11.206678">
        <ele>1132.75</ele>
        </trkpt>
      <trkpt lat="47.297872" lon="11.206445">
        <ele>1128.75</ele>
        </trkpt>
      <trkpt lat="47.297848" lon="11.206339">
        <ele>1127.5</ele>
        </trkpt>
      <trkpt lat="47.297836" lon="11.206227">
        <ele>1126.5</ele>
        </trkpt>
      <trkpt lat="47.297835" lon="11.206107">
        <ele>1125.75</ele>
        </trkpt>
      <trkpt lat="47.297867" lon="11.205874">
        <ele>1125.25</ele>
        </trkpt>
      <trkpt lat="47.297887" lon="11.205741">
        <ele>1125</ele>
        </trkpt>
      <trkpt lat="47.297797" lon="11.205942">
        <ele>1124</ele>
        </trkpt>
      <trkpt lat="47.297735" lon="11.206175">
        <ele>1123.5</ele>
        </trkpt>
      <trkpt lat="47.297716" lon="11.206373">
        <ele>1124</ele>
        </trkpt>
      <trkpt lat="47.297717" lon="11.20657">
        <ele>1125</ele>
        </trkpt>
      <trkpt lat="47.297757" lon="11.206748">
        <ele>1127.25</ele>
        </trkpt>
      <trkpt lat="47.297892" lon="11.207063">
        <ele>1133.25</ele>
        </trkpt>
      <trkpt lat="47.297924" lon="11.207234">
        <ele>1135.25</ele>
        </trkpt>
      <trkpt lat="47.297913" lon="11.207352">
        <ele>1135.75</ele>
        </trkpt>
      <trkpt lat="47.297874" lon="11.207439">
        <ele>1135.5</ele>
        </trkpt>
      <trkpt lat="47.29781" lon="11.207506">
        <ele>1134.75</ele>
        </trkpt>
      <trkpt lat="47.297746" lon="11.207538">
        <ele>1134</ele>
        </trkpt>
      <trkpt lat="47.297669" lon="11.207551">
        <ele>1132.75</ele>
        </trkpt>
      <trkpt lat="47.297201" lon="11.207526">
        <ele>1124</ele>
        </trkpt>
      <trkpt lat="47.297065" lon="11.207523">
        <ele>1122</ele>
        </trkpt>
      <trkpt lat="47.296934" lon="11.207533">
        <ele>1120.25</ele>
        </trkpt>
      <trkpt lat="47.296815" lon="11.207566">
        <ele>1119</ele>
        </trkpt>
      <trkpt lat="47.296715" lon="11.207608">
        <ele>1118</ele>
        </trkpt>
      <trkpt lat="47.296687" lon="11.207714">
        <ele>1119</ele>
        </trkpt>
      <trkpt lat="47.296483" lon="11.207965">
        <ele>1118.75</ele>
        </trkpt>
      <trkpt lat="47.296359" lon="11.208228">
        <ele>1120</ele>
        </trkpt>
      <trkpt lat="47.296308" lon="11.20844">
        <ele>1122</ele>
        </trkpt>
      <trkpt lat="47.296282" lon="11.208536">
        <ele>1123</ele>
        </trkpt>
      <trkpt lat="47.296242" lon="11.208582">
        <ele>1122.75</ele>
        </trkpt>
      <trkpt lat="47.296039" lon="11.208623">
        <ele>1119</ele>
        </trkpt>
      <trkpt lat="47.296005" lon="11.208643">
        <ele>1118.5</ele>
        </trkpt>
      <trkpt lat="47.295985" lon="11.208685">
        <ele>1118.5</ele>
        </trkpt>
      <trkpt lat="47.295983" lon="11.208752">
        <ele>1119.25</ele>
        </trkpt>
      <trkpt lat="47.295995" lon="11.208805">
        <ele>1120.25</ele>
        </trkpt>
      <trkpt lat="47.296004" lon="11.208836">
        <ele>1120.75</ele>
        </trkpt>
      <trkpt lat="47.296089" lon="11.209126">
        <ele>1126.5</ele>
        </trkpt>
      <trkpt lat="47.2961" lon="11.209214">
        <ele>1128</ele>
        </trkpt>
      <trkpt lat="47.296085" lon="11.209297">
        <ele>1129</ele>
        </trkpt>
      <trkpt lat="47.296003" lon="11.209481">
        <ele>1130</ele>
        </trkpt>
      <trkpt lat="47.295752" lon="11.209803">
        <ele>1129.75</ele>
        </trkpt>
      <trkpt lat="47.295561" lon="11.210192">
        <ele>1133.25</ele>
        </trkpt>
      <trkpt lat="47.295516" lon="11.210311">
        <ele>1134.75</ele>
        </trkpt>
      <trkpt lat="47.295276" lon="11.210936">
        <ele>1142</ele>
        </trkpt>
      <trkpt lat="47.295131" lon="11.21131">
        <ele>1147</ele>
        </trkpt>
      <trkpt lat="47.295091" lon="11.211421">
        <ele>1148.5</ele>
        </trkpt>
      <trkpt lat="47.295051" lon="11.211562">
        <ele>1150.75</ele>
        </trkpt>
      <trkpt lat="47.29503" lon="11.211666">
        <ele>1152.5</ele>
        </trkpt>
      <trkpt lat="47.295014" lon="11.211772">
        <ele>1154.25</ele>
        </trkpt>
      <trkpt lat="47.294998" lon="11.212011">
        <ele>1158.5</ele>
        </trkpt>
      <trkpt lat="47.295002" lon="11.212051">
        <ele>1159.25</ele>
        </trkpt>
      <trkpt lat="47.294908" lon="11.212334">
        <ele>1160.75</ele>
        </trkpt>
      <trkpt lat="47.294879" lon="11.212492">
        <ele>1162.5</ele>
        </trkpt>
      <trkpt lat="47.294871" lon="11.212587">
        <ele>1163.5</ele>
        </trkpt>
      <trkpt lat="47.29482" lon="11.212926">
        <ele>1166.25</ele>
        </trkpt>
      <trkpt lat="47.294823" lon="11.21318">
        <ele>1170.25</ele>
        </trkpt>
      <trkpt lat="47.294852" lon="11.213404">
        <ele>1174.75</ele>
        </trkpt>
      <trkpt lat="47.294861" lon="11.213517">
        <ele>1176.5</ele>
        </trkpt>
      <trkpt lat="47.294857" lon="11.213629">
        <ele>1178</ele>
        </trkpt>
      <trkpt lat="47.294819" lon="11.213784">
        <ele>1178.75</ele>
        </trkpt>
      <trkpt lat="47.294774" lon="11.213903">
        <ele>1178.75</ele>
        </trkpt>
      <trkpt lat="47.294561" lon="11.214617">
        <ele>1182.25</ele>
        </trkpt>
      <trkpt lat="47.294513" lon="11.214865">
        <ele>1184.75</ele>
        </trkpt>
      <trkpt lat="47.294472" lon="11.215131">
        <ele>1187</ele>
        </trkpt>
      <trkpt lat="47.294454" lon="11.215249">
        <ele>1188</ele>
        </trkpt>
      <trkpt lat="47.294412" lon="11.215259">
        <ele>1186.5</ele>
        </trkpt>
      <trkpt lat="47.294117" lon="11.215577">
        <ele>1177.75</ele>
        </trkpt>
      <trkpt lat="47.293852" lon="11.21596">
        <ele>1171.75</ele>
        </trkpt>
      <trkpt lat="47.293562" lon="11.21628">
        <ele>1163.25</ele>
        </trkpt>
      <trkpt lat="47.293242" lon="11.217045">
        <ele>1158.75</ele>
        </trkpt>
      <trkpt lat="47.293084" lon="11.217312">
        <ele>1155</ele>
        </trkpt>
      <trkpt lat="47.292999" lon="11.217457">
        <ele>1153</ele>
        </trkpt>
      <trkpt lat="47.292732" lon="11.218003">
        <ele>1147.5</ele>
        </trkpt>
      <trkpt lat="47.292411" lon="11.219101">
        <ele>1135.75</ele>
        </trkpt>
      <trkpt lat="47.292374" lon="11.219445">
        <ele>1136</ele>
        </trkpt>
      <trkpt lat="47.292042" lon="11.219897">
        <ele>1120.25</ele>
        </trkpt>
      <trkpt lat="47.291832" lon="11.220229">
        <ele>1110</ele>
        </trkpt>
      <trkpt lat="47.291595" lon="11.220407">
        <ele>1096.75</ele>
        </trkpt>
      <trkpt lat="47.291483" lon="11.220439">
        <ele>1090.5</ele>
        </trkpt>
      <trkpt lat="47.291433" lon="11.220442">
        <ele>1087.75</ele>
        </trkpt>
      <trkpt lat="47.291375" lon="11.220446">
        <ele>1084.25</ele>
        </trkpt>
      <trkpt lat="47.291289" lon="11.220381">
        <ele>1079.25</ele>
        </trkpt>
      <trkpt lat="47.291227" lon="11.220354">
        <ele>1075.5</ele>
        </trkpt>
      <trkpt lat="47.291197" lon="11.220396">
        <ele>1074</ele>
        </trkpt>
      <trkpt lat="47.291184" lon="11.220427">
        <ele>1073.25</ele>
        </trkpt>
      <trkpt lat="47.291236" lon="11.220587">
        <ele>1076.75</ele>
        </trkpt>
      <trkpt lat="47.291247" lon="11.220712">
        <ele>1077.75</ele>
        </trkpt>
      <trkpt lat="47.2912" lon="11.220985">
        <ele>1077</ele>
        </trkpt>
      <trkpt lat="47.29114" lon="11.221027">
        <ele>1074</ele>
        </trkpt>
      <trkpt lat="47.291054" lon="11.221009">
        <ele>1069</ele>
        </trkpt>
      <trkpt lat="47.291039" lon="11.221004">
        <ele>1068</ele>
        </trkpt>
      <trkpt lat="47.29099" lon="11.22099">
        <ele>1065</ele>
        </trkpt>
      <trkpt lat="47.290885" lon="11.220957">
        <ele>1058.5</ele>
        </trkpt>
      <trkpt lat="47.290877" lon="11.220992">
        <ele>1058.5</ele>
        </trkpt>
      <trkpt lat="47.29086" lon="11.221327">
        <ele>1061.75</ele>
        </trkpt>
      <trkpt lat="47.290878" lon="11.221389">
        <ele>1063.75</ele>
        </trkpt>
      <trkpt lat="47.290894" lon="11.221403">
        <ele>1058.5622175083497</ele>
      </trkpt>
      <trkpt lat="47.29082992218164" lon="11.221725726029007">
        <ele>1061.2851975579058</ele>
      </trkpt>
      <trkpt lat="47.29074" lon="11.22184">
        <ele>1063</ele>
        </trkpt>
      <trkpt lat="47.290739" lon="11.221842">
        <ele>1063</ele>
        </trkpt>
      <trkpt lat="47.290628" lon="11.222004">
        <ele>1060</ele>
        </trkpt>
      <trkpt lat="47.290486" lon="11.222274">
        <ele>1056.5</ele>
        </trkpt>
      <trkpt lat="47.290301" lon="11.222832">
        <ele>1052.75</ele>
        </trkpt>
      <trkpt lat="47.290275" lon="11.22229">
        <ele>1047.5</ele>
        </trkpt>
      <trkpt lat="47.290255" lon="11.221665">
        <ele>1042</ele>
        </trkpt>
      <trkpt lat="47.29023" lon="11.221423">
        <ele>1039.25</ele>
        </trkpt>
      <trkpt lat="47.290229" lon="11.221413">
        <ele>1039</ele>
        </trkpt>
      <trkpt lat="47.290228" lon="11.221412">
        <ele>1039</ele>
        </trkpt>
      <trkpt lat="47.290227" lon="11.221395">
        <ele>1039</ele>
        </trkpt>
      <trkpt lat="47.29021" lon="11.221314">
        <ele>1037.75</ele>
        </trkpt>
      <trkpt lat="47.290099" lon="11.221087">
        <ele>1032.5</ele>
        </trkpt>
      <trkpt lat="47.289956" lon="11.220782">
        <ele>1026.5</ele>
        </trkpt>
      <trkpt lat="47.289871" lon="11.220539">
        <ele>1023.25</ele>
        </trkpt>
      <trkpt lat="47.289831" lon="11.220407">
        <ele>1021.75</ele>
        </trkpt>
      <trkpt lat="47.289817" lon="11.220249">
        <ele>1020.5</ele>
        </trkpt>
      <trkpt lat="47.289818" lon="11.220157">
        <ele>1020</ele>
        </trkpt>
      <trkpt lat="47.289829" lon="11.220069">
        <ele>1019.5</ele>
        </trkpt>
      <trkpt lat="47.289902" lon="11.219851">
        <ele>1020.5</ele>
        </trkpt>
      <trkpt lat="47.289991" lon="11.219643">
        <ele>1021.75</ele>
        </trkpt>
      <trkpt lat="47.290052" lon="11.219482">
        <ele>1024</ele>
        </trkpt>
      <trkpt lat="47.289993" lon="11.219443">
        <ele>1021.75</ele>
        </trkpt>
      <trkpt lat="47.289933" lon="11.219584">
        <ele>1021</ele>
        </trkpt>
      <trkpt lat="47.289803" lon="11.21983">
        <ele>1019</ele>
        </trkpt>
      <trkpt lat="47.289773" lon="11.219788">
        <ele>1018.75</ele>
        </trkpt>
      <trkpt lat="47.289734" lon="11.219734">
        <ele>1018.25</ele>
        </trkpt>
      <trkpt lat="47.289664" lon="11.219599">
        <ele>1017.75</ele>
        </trkpt>
      <trkpt lat="47.289647" lon="11.219548">
        <ele>1017.75</ele>
        </trkpt>
      <trkpt lat="47.289641" lon="11.219508">
        <ele>1017.75</ele>
        </trkpt>
      <trkpt lat="47.289647" lon="11.21947">
        <ele>1018</ele>
        </trkpt>
      <trkpt lat="47.289611" lon="11.219286">
        <ele>1018.25</ele>
        </trkpt>
      <trkpt lat="47.289588" lon="11.21907">
        <ele>1018.5</ele>
        </trkpt>
      <trkpt lat="47.289593" lon="11.218786">
        <ele>1019</ele>
        </trkpt>
      <trkpt lat="47.289644" lon="11.218398">
        <ele>1019.75</ele>
        </trkpt>
      <trkpt lat="47.289689" lon="11.218083">
        <ele>1018.25</ele>
        </trkpt>
      <trkpt lat="47.289707" lon="11.217776">
        <ele>1016.25</ele>
        </trkpt>
      <trkpt lat="47.289713" lon="11.217439">
        <ele>1014</ele>
        </trkpt>
      <trkpt lat="47.289691" lon="11.217111">
        <ele>1011.25</ele>
        </trkpt>
      <trkpt lat="47.289695" lon="11.216968">
        <ele>1010</ele>
        </trkpt>
      <trkpt lat="47.28971" lon="11.216896">
        <ele>1009.5</ele>
        </trkpt>
      <trkpt lat="47.289753" lon="11.216753">
        <ele>1008.5</ele>
        </trkpt>
      <trkpt lat="47.289851" lon="11.216475">
        <ele>1007.75</ele>
        </trkpt>
      <trkpt lat="47.290038" lon="11.215848">
        <ele>1007</ele>
        </trkpt>
      <trkpt lat="47.290245" lon="11.215119">
        <ele>1014</ele>
        </trkpt>
      <trkpt lat="47.290448" lon="11.214482">
        <ele>1017</ele>
        </trkpt>
      <trkpt lat="47.290476" lon="11.214374">
        <ele>1017</ele>
        </trkpt>
      <trkpt lat="47.290488" lon="11.214267">
        <ele>1017</ele>
        </trkpt>
      <trkpt lat="47.290445" lon="11.214191">
        <ele>1016.75</ele>
        </trkpt>
      <trkpt lat="47.29031" lon="11.214058">
        <ele>1015.25</ele>
        </trkpt>
      <trkpt lat="47.290178" lon="11.213907">
        <ele>1013.5</ele>
        </trkpt>
      <trkpt lat="47.290042" lon="11.213729">
        <ele>1011.75</ele>
        </trkpt>
      <trkpt lat="47.289913" lon="11.213543">
        <ele>1009.25</ele>
        </trkpt>
      <trkpt lat="47.289839" lon="11.213389">
        <ele>1007.25</ele>
        </trkpt>
      <trkpt lat="47.289803" lon="11.213277">
        <ele>1006</ele>
        </trkpt>
      <trkpt lat="47.289787" lon="11.213234">
        <ele>1005.5</ele>
        </trkpt>
      <trkpt lat="47.289767" lon="11.213151">
        <ele>1005</ele>
        </trkpt>
      <trkpt lat="47.28976" lon="11.213059">
        <ele>1004.5</ele>
        </trkpt>
      <trkpt lat="47.289772" lon="11.212929">
        <ele>1004</ele>
        </trkpt>
      <trkpt lat="47.289822" lon="11.212763">
        <ele>1004</ele>
        </trkpt>
      <trkpt lat="47.289986" lon="11.212445">
        <ele>1004.75</ele>
        </trkpt>
      <trkpt lat="47.290107" lon="11.212249">
        <ele>1007</ele>
        </trkpt>
      <trkpt lat="47.29016" lon="11.212183">
        <ele>1007.75</ele>
        </trkpt>
      <trkpt lat="47.290185" lon="11.211999">
        <ele>1008.5</ele>
        </trkpt>
      <trkpt lat="47.29019" lon="11.211939">
        <ele>1008.5</ele>
        </trkpt>
      <trkpt lat="47.290207" lon="11.211536">
        <ele>1009.25</ele>
        </trkpt>
      <trkpt lat="47.290199" lon="11.211327">
        <ele>1009.25</ele>
        </trkpt>
      <trkpt lat="47.290182" lon="11.211137">
        <ele>1009.25</ele>
        </trkpt>
      <trkpt lat="47.290144" lon="11.21093">
        <ele>1008.75</ele>
        </trkpt>
      <trkpt lat="47.290092" lon="11.210702">
        <ele>1008.5</ele>
        </trkpt>
      <trkpt lat="47.289975" lon="11.210416">
        <ele>1007.75</ele>
        </trkpt>
      <trkpt lat="47.289762" lon="11.210079">
        <ele>1008.25</ele>
        </trkpt>
      <trkpt lat="47.289552" lon="11.209731">
        <ele>1007</ele>
        </trkpt>
      <trkpt lat="47.28947" lon="11.209401">
        <ele>1005.5</ele>
        </trkpt>
      <trkpt lat="47.289367" lon="11.209066">
        <ele>1002.5</ele>
        </trkpt>
      <trkpt lat="47.289324" lon="11.208876">
        <ele>1000</ele>
        </trkpt>
      <trkpt lat="47.289315" lon="11.20876">
        <ele>998.75</ele>
        </trkpt>
      <trkpt lat="47.289333" lon="11.208624">
        <ele>998</ele>
        </trkpt>
      <trkpt lat="47.289371" lon="11.208491">
        <ele>997.5</ele>
        </trkpt>
      <trkpt lat="47.289416" lon="11.208335">
        <ele>997</ele>
        </trkpt>
      <trkpt lat="47.289432" lon="11.20828">
        <ele>997</ele>
        </trkpt>
      <trkpt lat="47.289502" lon="11.207872">
        <ele>996</ele>
      </trkpt>
      <trkpt lat="47.289512" lon="11.207817">
        <ele>987.07</ele>
      </trkpt>
      <trkpt lat="47.289461" lon="11.207757">
        <ele>986.19</ele>
      </trkpt>
      <trkpt lat="47.289407" lon="11.207725">
        <ele>985.39</ele>
      </trkpt>
      <trkpt lat="47.289361" lon="11.207737">
        <ele>984.73</ele>
      </trkpt>
      <trkpt lat="47.289338" lon="11.207714">
        <ele>984.28</ele>
      </trkpt>
      <trkpt lat="47.28932" lon="11.207648">
        <ele>983.84</ele>
      </trkpt>
      <trkpt lat="47.289221" lon="11.207696">
        <ele>981.61</ele>
      </trkpt>
      <trkpt lat="47.288877" lon="11.207943">
        <ele>969.4</ele>
      </trkpt>
      <trkpt lat="47.288813" lon="11.20796">
        <ele>966.7</ele>
      </trkpt>
      <trkpt lat="47.28875" lon="11.208007">
        <ele>964.49</ele>
      </trkpt>
      <trkpt lat="47.288682" lon="11.208108">
        <ele>963.12</ele>
      </trkpt>
      <trkpt lat="47.288516" lon="11.20827">
        <ele>958.75</ele>
      </trkpt>
      <trkpt lat="47.288433" lon="11.208362">
        <ele>956.62</ele>
      </trkpt>
      <trkpt lat="47.288383" lon="11.208388">
        <ele>954.65</ele>
      </trkpt>
      <trkpt lat="47.28822" lon="11.208414">
        <ele>945.94</ele>
      </trkpt>
      <trkpt lat="47.288175" lon="11.208431">
        <ele>943.34</ele>
      </trkpt>
      <trkpt lat="47.288152" lon="11.20845">
        <ele>942.15</ele>
      </trkpt>
      <trkpt lat="47.288141" lon="11.208473">
        <ele>941.82</ele>
      </trkpt>
      <trkpt lat="47.288066" lon="11.208817">
        <ele>942.88</ele>
      </trkpt>
      <trkpt lat="47.288003" lon="11.208961">
        <ele>940.98</ele>
      </trkpt>
      <trkpt lat="47.28796" lon="11.209085">
        <ele>940.15</ele>
      </trkpt>
      <trkpt lat="47.287818" lon="11.209349">
        <ele>935.22</ele>
      </trkpt>
      <trkpt lat="47.287809" lon="11.209396">
        <ele>935.71</ele>
      </trkpt>
      <trkpt lat="47.287775" lon="11.209459">
        <ele>934.89</ele>
      </trkpt>
      <trkpt lat="47.287703" lon="11.209554">
        <ele>932.37</ele>
      </trkpt>
      <trkpt lat="47.287615" lon="11.209651">
        <ele>928.98</ele>
      </trkpt>
      <trkpt lat="47.287507" lon="11.209739">
        <ele>924.06</ele>
      </trkpt>
      <trkpt lat="47.287416" lon="11.209921">
        <ele>922.06</ele>
      </trkpt>
      <trkpt lat="47.287371" lon="11.210031">
        <ele>920.7</ele>
      </trkpt>
      <trkpt lat="47.287338" lon="11.210193">
        <ele>919.92</ele>
      </trkpt>
      <trkpt lat="47.287306" lon="11.210293">
        <ele>918.2</ele>
      </trkpt>
      <trkpt lat="47.287311" lon="11.210359">
        <ele>918.77</ele>
      </trkpt>
      <trkpt lat="47.287138" lon="11.210896">
        <ele>910.49</ele>
      </trkpt>
      <trkpt lat="47.287107" lon="11.210953">
        <ele>909.35</ele>
      </trkpt>
      <trkpt lat="47.287067" lon="11.210973">
        <ele>907.24</ele>
      </trkpt>
      <trkpt lat="47.287051" lon="11.211029">
        <ele>907.16</ele>
      </trkpt>
      <trkpt lat="47.287071" lon="11.211178">
        <ele>910.75</ele>
      </trkpt>
      <trkpt lat="47.287069" lon="11.211248">
        <ele>911.84</ele>
      </trkpt>
      <trkpt lat="47.287036" lon="11.211308">
        <ele>911.21</ele>
      </trkpt>
      <trkpt lat="47.286892" lon="11.211359">
        <ele>905.02</ele>
      </trkpt>
      <trkpt lat="47.286831" lon="11.211393">
        <ele>902.81</ele>
      </trkpt>
      <trkpt lat="47.286802" lon="11.2114">
        <ele>901.56</ele>
      </trkpt>
      <trkpt lat="47.286783" lon="11.211423">
        <ele>901.22</ele>
      </trkpt>
      <trkpt lat="47.286775" lon="11.211465">
        <ele>901.88</ele>
      </trkpt>
      <trkpt lat="47.286737" lon="11.211511">
        <ele>901.27</ele>
      </trkpt>
      <trkpt lat="47.286671" lon="11.211523">
        <ele>898.54</ele>
      </trkpt>
      <trkpt lat="47.286536" lon="11.211637">
        <ele>895.72</ele>
      </trkpt>
      <trkpt lat="47.286298" lon="11.211794">
        <ele>890.88</ele>
      </trkpt>
      <trkpt lat="47.286052" lon="11.2119">
        <ele>884.9</ele>
      </trkpt>
      <trkpt lat="47.286001" lon="11.211935">
        <ele>884.05</ele>
      </trkpt>
      <trkpt lat="47.285954" lon="11.211985">
        <ele>883.9</ele>
      </trkpt>
      <trkpt lat="47.285898" lon="11.212069">
        <ele>884.57</ele>
      </trkpt>
      <trkpt lat="47.285826" lon="11.212207">
        <ele>886.26</ele>
      </trkpt>
      <trkpt lat="47.285784" lon="11.21241">
        <ele>890.96</ele>
      </trkpt>
      <trkpt lat="47.285754" lon="11.212431">
        <ele>890</ele>
      </trkpt>
      <trkpt lat="47.285706" lon="11.212428">
        <ele>887.22</ele>
      </trkpt>
      <trkpt lat="47.285678" lon="11.212459">
        <ele>886.51</ele>
      </trkpt>
      <trkpt lat="47.285581" lon="11.212643">
        <ele>885.16</ele>
      </trkpt>
      <trkpt lat="47.285581" lon="11.212643">
        <ele>883</ele>
        </trkpt>
      <trkpt lat="47.285515" lon="11.21281">
        <ele>883</ele>
        </trkpt>
      <trkpt lat="47.285473" lon="11.212984">
        <ele>884.75</ele>
        </trkpt>
      <trkpt lat="47.285419" lon="11.213094">
        <ele>884</ele>
        </trkpt>
      <trkpt lat="47.285389" lon="11.213437">
        <ele>889.5</ele>
        </trkpt>
      <trkpt lat="47.285307" lon="11.213731">
        <ele>886.5</ele>
        </trkpt>
      <trkpt lat="47.285226" lon="11.213962">
        <ele>882.75</ele>
        </trkpt>
      <trkpt lat="47.285194" lon="11.214034">
        <ele>881</ele>
        </trkpt>
      <trkpt lat="47.284988" lon="11.214596">
        <ele>875.75</ele>
        </trkpt>
      <trkpt lat="47.284942" lon="11.214753">
        <ele>876.25</ele>
        </trkpt>
      <trkpt lat="47.284836" lon="11.215006">
        <ele>874.5</ele>
        </trkpt>
      <trkpt lat="47.284806" lon="11.215101">
        <ele>874.5</ele>
        </trkpt>
      <trkpt lat="47.284781" lon="11.215214">
        <ele>875</ele>
        </trkpt>
      <trkpt lat="47.284746" lon="11.215292">
        <ele>874.25</ele>
        </trkpt>
      <trkpt lat="47.28472" lon="11.21538">
        <ele>874</ele>
        </trkpt>
      <trkpt lat="47.284686" lon="11.215429">
        <ele>872.5</ele>
        </trkpt>
      <trkpt lat="47.284672" lon="11.215611">
        <ele>874.75</ele>
        </trkpt>
      <trkpt lat="47.284659" lon="11.215687">
        <ele>875</ele>
        </trkpt>
      <trkpt lat="47.284634" lon="11.215702">
        <ele>873.5</ele>
        </trkpt>
      <trkpt lat="47.284604" lon="11.215701">
        <ele>871.25</ele>
        </trkpt>
      <trkpt lat="47.284585" lon="11.215722">
        <ele>870.25</ele>
        </trkpt>
      <trkpt lat="47.28457" lon="11.215752">
        <ele>869.5</ele>
        </trkpt>
      <trkpt lat="47.284521" lon="11.21597">
        <ele>869.5</ele>
        </trkpt>
      <trkpt lat="47.284463" lon="11.216036">
        <ele>865.75</ele>
        </trkpt>
      <trkpt lat="47.28443" lon="11.216137">
        <ele>864.5</ele>
        </trkpt>
      <trkpt lat="47.284405" lon="11.216183">
        <ele>863</ele>
        </trkpt>
      <trkpt lat="47.284408" lon="11.216261">
        <ele>864.5</ele>
        </trkpt>
      <trkpt lat="47.284376" lon="11.21634">
        <ele>862.75</ele>
        </trkpt>
      <trkpt lat="47.284334" lon="11.216505">
        <ele>861</ele>
        </trkpt>
      <trkpt lat="47.284323" lon="11.216585">
        <ele>861</ele>
        </trkpt>
      <trkpt lat="47.284284" lon="11.216729">
        <ele>859.5</ele>
        </trkpt>
      <trkpt lat="47.284255" lon="11.216783">
        <ele>858</ele>
        </trkpt>
      <trkpt lat="47.284238" lon="11.216854">
        <ele>857.75</ele>
        </trkpt>
      <trkpt lat="47.284213" lon="11.216899">
        <ele>856.25</ele>
        </trkpt>
      <trkpt lat="47.284203" lon="11.21698">
        <ele>857</ele>
        </trkpt>
      <trkpt lat="47.284176" lon="11.217028">
        <ele>855.5</ele>
        </trkpt>
      <trkpt lat="47.284113" lon="11.217324">
        <ele>857.25</ele>
        </trkpt>
      <trkpt lat="47.28405" lon="11.217472">
        <ele>856.25</ele>
        </trkpt>
      <trkpt lat="47.284018" lon="11.217524">
        <ele>855</ele>
        </trkpt>
      <trkpt lat="47.283946" lon="11.217719">
        <ele>855</ele>
        </trkpt>
      <trkpt lat="47.283917" lon="11.217812">
        <ele>855.25</ele>
        </trkpt>
      <trkpt lat="47.283892" lon="11.217929">
        <ele>856.5</ele>
        </trkpt>
      <trkpt lat="47.283878" lon="11.21803">
        <ele>858</ele>
        </trkpt>
      <trkpt lat="47.28384" lon="11.218102">
        <ele>857.25</ele>
        </trkpt>
      <trkpt lat="47.283807" lon="11.218202">
        <ele>857.25</ele>
        </trkpt>
      <trkpt lat="47.283691" lon="11.218359">
        <ele>852.5</ele>
        </trkpt>
      <trkpt lat="47.283621" lon="11.218507">
        <ele>850.25</ele>
        </trkpt>
      <trkpt lat="47.283553" lon="11.218698">
        <ele>848.75</ele>
        </trkpt>
      <trkpt lat="47.283522" lon="11.218867">
        <ele>849.75</ele>
        </trkpt>
      <trkpt lat="47.283527" lon="11.218985">
        <ele>852.25</ele>
        </trkpt>
      <trkpt lat="47.283493" lon="11.219101">
        <ele>851.75</ele>
        </trkpt>
      <trkpt lat="47.283477" lon="11.21923">
        <ele>852.5</ele>
        </trkpt>
      <trkpt lat="47.283486" lon="11.219372">
        <ele>855.75</ele>
        </trkpt>
      <trkpt lat="47.283476" lon="11.219547">
        <ele>857.75</ele>
        </trkpt>
      <trkpt lat="47.283385" lon="11.219716">
        <ele>852.75</ele>
        </trkpt>
      <trkpt lat="47.283329" lon="11.219789">
        <ele>849.25</ele>
        </trkpt>
      <trkpt lat="47.283296" lon="11.219871">
        <ele>848.25</ele>
        </trkpt>
      <trkpt lat="47.283297" lon="11.220013">
        <ele>850.75</ele>
        </trkpt>
      <trkpt lat="47.283283" lon="11.22009">
        <ele>851.25</ele>
        </trkpt>
      <trkpt lat="47.283267" lon="11.220137">
        <ele>851</ele>
        </trkpt>
      <trkpt lat="47.283237" lon="11.220176">
        <ele>849.75</ele>
        </trkpt>
      <trkpt lat="47.28319" lon="11.220214">
        <ele>847.25</ele>
        </trkpt>
      <trkpt lat="47.283162" lon="11.220291">
        <ele>846.75</ele>
        </trkpt>
      <trkpt lat="47.283148" lon="11.220411">
        <ele>848</ele>
        </trkpt>
      <trkpt lat="47.283124" lon="11.220523">
        <ele>848.25</ele>
        </trkpt>
      <trkpt lat="47.283089" lon="11.220601">
        <ele>847.25</ele>
        </trkpt>
      <trkpt lat="47.283043" lon="11.220662">
        <ele>845</ele>
        </trkpt>
      <trkpt lat="47.28302" lon="11.22072">
        <ele>844.25</ele>
        </trkpt>
      <trkpt lat="47.283019" lon="11.2208">
        <ele>845.5</ele>
        </trkpt>
      <trkpt lat="47.282998" lon="11.220904">
        <ele>845.75</ele>
        </trkpt>
      <trkpt lat="47.28295" lon="11.220959">
        <ele>843</ele>
        </trkpt>
      <trkpt lat="47.282946" lon="11.221024">
        <ele>843.75</ele>
        </trkpt>
      <trkpt lat="47.282932" lon="11.221098">
        <ele>843.75</ele>
        </trkpt>
      <trkpt lat="47.282895" lon="11.221157">
        <ele>842</ele>
        </trkpt>
      <trkpt lat="47.282827" lon="11.221292">
        <ele>838.75</ele>
        </trkpt>
      <trkpt lat="47.2828" lon="11.221414">
        <ele>838.75</ele>
        </trkpt>
      <trkpt lat="47.282726" lon="11.221803">
        <ele>840</ele>
        </trkpt>
      <trkpt lat="47.282718" lon="11.221893">
        <ele>841.75</ele>
        </trkpt>
      <trkpt lat="47.282697" lon="11.221935">
        <ele>841.25</ele>
        </trkpt>
      <trkpt lat="47.28266" lon="11.222074">
        <ele>841.75</ele>
        </trkpt>
      <trkpt lat="47.282532" lon="11.222384">
        <ele>840.25</ele>
        </trkpt>
      <trkpt lat="47.282461" lon="11.222516">
        <ele>838.75</ele>
        </trkpt>
      <trkpt lat="47.282383" lon="11.222638">
        <ele>835.75</ele>
        </trkpt>
      <trkpt lat="47.282258" lon="11.222874">
        <ele>832</ele>
        </trkpt>
      <trkpt lat="47.282082" lon="11.223235">
        <ele>828</ele>
        </trkpt>
      <trkpt lat="47.281942" lon="11.22354">
        <ele>824.5</ele>
        </trkpt>
      <trkpt lat="47.281851" lon="11.223721">
        <ele>821.5</ele>
        </trkpt>
      <trkpt lat="47.281797" lon="11.223845">
        <ele>820</ele>
        </trkpt>
      <trkpt lat="47.28158" lon="11.224193">
        <ele>812</ele>
        </trkpt>
      <trkpt lat="47.28154" lon="11.224237">
        <ele>810</ele>
        </trkpt>
      <trkpt lat="47.281415" lon="11.224374">
        <ele>804.25</ele>
        </trkpt>
      <trkpt lat="47.281333" lon="11.224563">
        <ele>802</ele>
        </trkpt>
      <trkpt lat="47.281244" lon="11.224703">
        <ele>799.25</ele>
        </trkpt>
      <trkpt lat="47.281181" lon="11.22486">
        <ele>798.5</ele>
        </trkpt>
      <trkpt lat="47.281034" lon="11.225297">
        <ele>797.5</ele>
        </trkpt>
      <trkpt lat="47.280947" lon="11.225524">
        <ele>796.5</ele>
        </trkpt>
      <trkpt lat="47.280896" lon="11.22577">
        <ele>797.75</ele>
        </trkpt>
      <trkpt lat="47.280778" lon="11.226171">
        <ele>795.25</ele>
        </trkpt>
      <trkpt lat="47.280739" lon="11.226365">
        <ele>794.5</ele>
        </trkpt>
      <trkpt lat="47.280708" lon="11.226727">
        <ele>796.25</ele>
        </trkpt>
      <trkpt lat="47.280688" lon="11.227122">
        <ele>797.5</ele>
        </trkpt>
      <trkpt lat="47.280668" lon="11.22733">
        <ele>797.75</ele>
        </trkpt>
      <trkpt lat="47.28063" lon="11.227585">
        <ele>797.25</ele>
        </trkpt>
      <trkpt lat="47.280601" lon="11.227731">
        <ele>796.5</ele>
        </trkpt>
      <trkpt lat="47.280597" lon="11.227795">
        <ele>796.5</ele>
        </trkpt>
      <trkpt lat="47.280622" lon="11.227861">
        <ele>798</ele>
        </trkpt>
      <trkpt lat="47.280556" lon="11.228098">
        <ele>795.5</ele>
        </trkpt>
      <trkpt lat="47.280511" lon="11.22829">
        <ele>794</ele>
        </trkpt>
      <trkpt lat="47.280436" lon="11.228718">
        <ele>793</ele>
        </trkpt>
      <trkpt lat="47.280389" lon="11.229041">
        <ele>792.75</ele>
        </trkpt>
      <trkpt lat="47.280337" lon="11.229333">
        <ele>792</ele>
        </trkpt>
      <trkpt lat="47.280286" lon="11.229557">
        <ele>790.75</ele>
        </trkpt>
      <trkpt lat="47.280212" lon="11.229776">
        <ele>788</ele>
        </trkpt>
      <trkpt lat="47.27993" lon="11.230468">
        <ele>775.25</ele>
        </trkpt>
      <trkpt lat="47.279848" lon="11.230713">
        <ele>772.25</ele>
        </trkpt>
      <trkpt lat="47.279726" lon="11.231133">
        <ele>770.5</ele>
        </trkpt>
      <trkpt lat="47.279665" lon="11.231312">
        <ele>769.25</ele>
        </trkpt>
      <trkpt lat="47.279572" lon="11.231575">
        <ele>767.25</ele>
        </trkpt>
      <trkpt lat="47.279401" lon="11.23201">
        <ele>763</ele>
        </trkpt>
      <trkpt lat="47.279225" lon="11.232357">
        <ele>757.25</ele>
        </trkpt>
      <trkpt lat="47.279138" lon="11.232495">
        <ele>754</ele>
        </trkpt>
      <trkpt lat="47.279015" lon="11.232664">
        <ele>750.5</ele>
        </trkpt>
      <trkpt lat="47.278874" lon="11.232819">
        <ele>745.5</ele>
        </trkpt>
      <trkpt lat="47.278386" lon="11.233248">
        <ele>726.75</ele>
        </trkpt>
      <trkpt lat="47.278315" lon="11.233333">
        <ele>724.5</ele>
        </trkpt>
      <trkpt lat="47.278242" lon="11.233443">
        <ele>720.75</ele>
        </trkpt>
      <trkpt lat="47.278048" lon="11.233782">
        <ele>711.75</ele>
        </trkpt>
      <trkpt lat="47.277837" lon="11.234165">
        <ele>702.5</ele>
        </trkpt>
      <trkpt lat="47.277758" lon="11.234318">
        <ele>697.25</ele>
        </trkpt>
      <trkpt lat="47.277702" lon="11.234477">
        <ele>693.25</ele>
        </trkpt>
      <trkpt lat="47.277666" lon="11.234709">
        <ele>690</ele>
        </trkpt>
      <trkpt lat="47.277646" lon="11.235114">
        <ele>687.5</ele>
        </trkpt>
      <trkpt lat="47.277637" lon="11.23569">
        <ele>686</ele>
        </trkpt>
      <trkpt lat="47.277643" lon="11.235874">
        <ele>686.25</ele>
        </trkpt>
      <trkpt lat="47.277657" lon="11.236056">
        <ele>687</ele>
        </trkpt>
      <trkpt lat="47.277756" lon="11.236691">
        <ele>694</ele>
        </trkpt>
      <trkpt lat="47.277791" lon="11.237056">
        <ele>694.75</ele>
        </trkpt>
      <trkpt lat="47.277803" lon="11.237393">
        <ele>693.75</ele>
        </trkpt>
      <trkpt lat="47.277799" lon="11.237599">
        <ele>693</ele>
        </trkpt>
      <trkpt lat="47.277781" lon="11.237805">
        <ele>691.75</ele>
        </trkpt>
      <trkpt lat="47.277722" lon="11.238261">
        <ele>688</ele>
        </trkpt>
      <trkpt lat="47.277669" lon="11.23858">
        <ele>687.25</ele>
        </trkpt>
      <trkpt lat="47.2776" lon="11.238966">
        <ele>688</ele>
        </trkpt>
      <trkpt lat="47.277525" lon="11.239084">
        <ele>685.75</ele>
        </trkpt>
      <trkpt lat="47.277426" lon="11.239416">
        <ele>684.25</ele>
        </trkpt>
      <trkpt lat="47.27737" lon="11.239649">
        <ele>683</ele>
        </trkpt>
      <trkpt lat="47.277321" lon="11.239897">
        <ele>682.25</ele>
        </trkpt>
      <trkpt lat="47.277271" lon="11.240253">
        <ele>680</ele>
        </trkpt>
      <trkpt lat="47.277229" lon="11.240504">
        <ele>677.75</ele>
        </trkpt>
      <trkpt lat="47.277212" lon="11.240557">
        <ele>677.25</ele>
        </trkpt>
      <trkpt lat="47.27717" lon="11.240639">
        <ele>675.75</ele>
        </trkpt>
      <trkpt lat="47.277064" lon="11.240771">
        <ele>672.75</ele>
        </trkpt>
      <trkpt lat="47.276742" lon="11.241128">
        <ele>663.25</ele>
        </trkpt>
      <trkpt lat="47.276708" lon="11.241168">
        <ele>662.25</ele>
        </trkpt>
      <trkpt lat="47.276507" lon="11.241396">
        <ele>659</ele>
        </trkpt>
      <trkpt lat="47.276404" lon="11.241482">
        <ele>658</ele>
        </trkpt>
      <trkpt lat="47.276257" lon="11.241581">
        <ele>656.5</ele>
        </trkpt>
      <trkpt lat="47.276032" lon="11.241588">
        <ele>655.25</ele>
        </trkpt>
      <trkpt lat="47.275923" lon="11.241593">
        <ele>654.5</ele>
        </trkpt>
      <trkpt lat="47.275849" lon="11.241596">
        <ele>654</ele>
        </trkpt>
      <trkpt lat="47.275308" lon="11.2416">
        <ele>645.25</ele>
        </trkpt>
      <trkpt lat="47.275114" lon="11.241575">
        <ele>642.25</ele>
        </trkpt>
      <trkpt lat="47.274885" lon="11.241529">
        <ele>640.25</ele>
        </trkpt>
      <trkpt lat="47.274694" lon="11.241493">
        <ele>639.25</ele>
        </trkpt>
      <trkpt lat="47.274471" lon="11.241463">
        <ele>637</ele>
        </trkpt>
      <trkpt lat="47.274469" lon="11.241463">
        <ele>638</ele>
        </trkpt>
      <trkpt lat="47.274269" lon="11.241437">
        <ele>637</ele>
        </trkpt>
      <trkpt lat="47.27421" lon="11.241436">
        <ele>636.75</ele>
        </trkpt>
      <trkpt lat="47.273967" lon="11.241427">
        <ele>634.75</ele>
        </trkpt>
      <trkpt lat="47.273799" lon="11.241389">
        <ele>633.25</ele>
        </trkpt>
      <trkpt lat="47.273709" lon="11.241369">
        <ele>632.25</ele>
        </trkpt>
      <trkpt lat="47.273644" lon="11.241341">
        <ele>631.75</ele>
        </trkpt>
      <trkpt lat="47.273638" lon="11.241367">
        <ele>631.75</ele>
        </trkpt>
      <trkpt lat="47.273638" lon="11.241367">
        <ele>631.75</ele>
        </trkpt>
      <trkpt lat="47.273636" lon="11.241379">
        <ele>631.75</ele>
        </trkpt>
      <trkpt lat="47.273606" lon="11.241468">
        <ele>631.25</ele>
        </trkpt>
      <trkpt lat="47.273585" lon="11.241534">
        <ele>631</ele>
        </trkpt>
      <trkpt lat="47.273512" lon="11.24173">
        <ele>630.75</ele>
        </trkpt>
      <trkpt lat="47.273414" lon="11.241964">
        <ele>631.25</ele>
        </trkpt>
      <trkpt lat="47.273352" lon="11.242057">
        <ele>631.25</ele>
        </trkpt>
      <trkpt lat="47.27325" lon="11.242217">
        <ele>631.75</ele>
        </trkpt>
      <trkpt lat="47.273192" lon="11.242191">
        <ele>631.5</ele>
        </trkpt>
      <trkpt lat="47.273134" lon="11.242185">
        <ele>631.25</ele>
        </trkpt>
      <trkpt lat="47.272764" lon="11.242202">
        <ele>630</ele>
        </trkpt>
      <trkpt lat="47.272703" lon="11.242201">
        <ele>629.75</ele>
        </trkpt>
      <trkpt lat="47.272286" lon="11.242194">
        <ele>628.5</ele>
        </trkpt>
      <trkpt lat="47.272171" lon="11.242193">
        <ele>628.5</ele>
        </trkpt>
      <trkpt lat="47.272029" lon="11.242175">
        <ele>628</ele>
        </trkpt>
      <trkpt lat="47.272" lon="11.242158">
        <ele>627.5</ele>
        </trkpt>
      <trkpt lat="47.271942" lon="11.242124">
        <ele>627.5</ele>
        </trkpt>
      <trkpt lat="47.271893" lon="11.242039">
        <ele>627</ele>
        </trkpt>
      <trkpt lat="47.271873" lon="11.241959">
        <ele>626.5</ele>
        </trkpt>
      <trkpt lat="47.27186" lon="11.241874">
        <ele>626.25</ele>
        </trkpt>
      <trkpt lat="47.271843" lon="11.241806">
        <ele>625.75</ele>
        </trkpt>
      <trkpt lat="47.271626" lon="11.241264">
        <ele>622.25</ele>
        </trkpt>
      <trkpt lat="47.271488" lon="11.240949">
        <ele>620</ele>
        </trkpt>
      <trkpt lat="47.271416" lon="11.240783">
        <ele>619</ele>
        </trkpt>
      <trkpt lat="47.271187" lon="11.240548">
        <ele>616.75</ele>
        </trkpt>
      <trkpt lat="47.271002" lon="11.240363">
        <ele>613.75</ele>
      </trkpt>
      <trkpt lat="47.271003" lon="11.240364">
        <ele>613.75</ele>
        </trkpt>
      <trkpt lat="47.270805" lon="11.240165">
        <ele>613.75</ele>
        </trkpt>
      <trkpt lat="47.270669" lon="11.240045">
        <ele>613</ele>
        </trkpt>
      <trkpt lat="47.270619" lon="11.24">
        <ele>612.5</ele>
        </trkpt>
      <trkpt lat="47.270459" lon="11.239862">
        <ele>611.75</ele>
        </trkpt>
      <trkpt lat="47.270276" lon="11.239727">
        <ele>610.75</ele>
        </trkpt>
      <trkpt lat="47.270113" lon="11.239609">
        <ele>609.5</ele>
        </trkpt>
      <trkpt lat="47.269958" lon="11.239438">
        <ele>607.75</ele>
        </trkpt>
      <trkpt lat="47.269858" lon="11.239324">
        <ele>607</ele>
        </trkpt>
      <trkpt lat="47.269842" lon="11.239308">
        <ele>606.75</ele>
        </trkpt>
      <trkpt lat="47.269739" lon="11.23919">
        <ele>606</ele>
        </trkpt>
      <trkpt lat="47.26967" lon="11.239107">
        <ele>605.75</ele>
        </trkpt>
      <trkpt lat="47.269556" lon="11.238977">
        <ele>605.25</ele>
        </trkpt>
      <trkpt lat="47.269533" lon="11.238951">
        <ele>605</ele>
        </trkpt>
      <trkpt lat="47.269443" lon="11.23883">
        <ele>604.5</ele>
        </trkpt>
      <trkpt lat="47.269408" lon="11.238779">
        <ele>604.25</ele>
        </trkpt>
      <trkpt lat="47.269324" lon="11.238636">
        <ele>603.5</ele>
        </trkpt>
      <trkpt lat="47.269179" lon="11.238338">
        <ele>602</ele>
        </trkpt>
      <trkpt lat="47.269022" lon="11.23795">
        <ele>601</ele>
        </trkpt>
      <trkpt lat="47.268927" lon="11.237709">
        <ele>600.25</ele>
        </trkpt>
      <trkpt lat="47.268886" lon="11.237599">
        <ele>599.75</ele>
        </trkpt>
      <trkpt lat="47.268829" lon="11.237446">
        <ele>599</ele>
        </trkpt>
      <trkpt lat="47.26876" lon="11.237223">
        <ele>598</ele>
        </trkpt>
      <trkpt lat="47.268729" lon="11.23712">
        <ele>597.5</ele>
        </trkpt>
      <trkpt lat="47.268729" lon="11.237119">
        <ele>597.5</ele>
        </trkpt>
      <trkpt lat="47.268667" lon="11.236911">
        <ele>596.5</ele>
        </trkpt>
      <trkpt lat="47.268505" lon="11.236324">
        <ele>594.5</ele>
        </trkpt>
      <trkpt lat="47.268219" lon="11.235313">
        <ele>595.5</ele>
        </trkpt>
      <trkpt lat="47.268166" lon="11.235136">
        <ele>596.5</ele>
        </trkpt>
      <trkpt lat="47.268081" lon="11.23484">
        <ele>597.5</ele>
        </trkpt>
      <trkpt lat="47.267926" lon="11.234297">
        <ele>599</ele>
        </trkpt>
      <trkpt lat="47.26783" lon="11.233957">
        <ele>599</ele>
        </trkpt>
      <trkpt lat="47.26782" lon="11.233918">
        <ele>599</ele>
        </trkpt>
      <trkpt lat="47.267602" lon="11.233162">
        <ele>598.25</ele>
        </trkpt>
      <trkpt lat="47.26758" lon="11.233085">
        <ele>598.25</ele>
        </trkpt>
      <trkpt lat="47.267402" lon="11.232464">
        <ele>597.75</ele>
        </trkpt>
      <trkpt lat="47.26734" lon="11.232246">
        <ele>597.25</ele>
        </trkpt>
      <trkpt lat="47.26733" lon="11.232169">
        <ele>597.25</ele>
        </trkpt>
      <trkpt lat="47.267262" lon="11.231622">
        <ele>596.25</ele>
        </trkpt>
      <trkpt lat="47.267274" lon="11.231404">
        <ele>596</ele>
        </trkpt>
      <trkpt lat="47.267164" lon="11.231367">
        <ele>595.75</ele>
        </trkpt>
      <trkpt lat="47.267088" lon="11.231203">
        <ele>595.5</ele>
        </trkpt>
      <trkpt lat="47.267048" lon="11.231115">
        <ele>595.5</ele>
        </trkpt>
      <trkpt lat="47.266981" lon="11.230921">
        <ele>595.5</ele>
        </trkpt>
      <trkpt lat="47.266835" lon="11.23039">
        <ele>596</ele>
        </trkpt>
      <trkpt lat="47.266781" lon="11.230111">
        <ele>596.5</ele>
        </trkpt>
      <trkpt lat="47.266706" lon="11.229651">
        <ele>596.5</ele>
        </trkpt>
      <trkpt lat="47.266458" lon="11.229689">
        <ele>596.75</ele>
        </trkpt>
      <trkpt lat="47.266401" lon="11.229716">
        <ele>596.75</ele>
        </trkpt>
      <trkpt lat="47.26634" lon="11.229766">
        <ele>597</ele>
        </trkpt>
      <trkpt lat="47.266297" lon="11.229816">
        <ele>597</ele>
        </trkpt>
      <trkpt lat="47.266266" lon="11.229865">
        <ele>597.25</ele>
        </trkpt>
      <trkpt lat="47.266181" lon="11.230035">
        <ele>597.5</ele>
        </trkpt>
      <trkpt lat="47.266131" lon="11.229992">
        <ele>597.5</ele>
        </trkpt>
      <trkpt lat="47.266021" lon="11.229897">
        <ele>597.5</ele>
        </trkpt>
      <trkpt lat="47.266044" lon="11.229835">
        <ele>597.5</ele>
      </trkpt>
    </trkseg>
  </trk>
</gpx>