<?xml version='1.0' encoding='utf-8'?>
<gpx creator="https://tiroltrailhead.com" version="1.1" schemaLocation="http://www.topografix.com/GPX/1/1 http://www.topografix.com/GPX/1/1/gpx.xsd">
  <metadata>
    <name>Moe_Te__Trailspotting</name>
    <desc>This file contains a Trailspotting-Route with bike ride segments. For the transfers between bike ride segments, public transport is available (train or local bus services). See this site for details: https://tiroltrailhead.com/webmaps/trailspotting

If your application is having issues with opening this gpx file (some apps might have issues with opening files that contain more than one track) - use one of the following apps instead:
Apple: https://apps.apple.com/de/app/gaia-gps-wander-app/id1201979492
Android: https://play.google.com/store/apps/details?id=menion.android.locus.pro
Web: https://gpx.studio/de/app#0/0/0</desc>
    <author>
      <name>tiroltrailhead.com</name>
      <link href="https://tiroltrailhead.com" />
    </author>
  </metadata>
  <trk>
    <name>Segment 1</name>
    <trkseg>
      <name>Segment 1</name>
      <desc>distance: 25.1km, elevation_gain: 1404m, elevation_loss: 1421m, est_duration_moving: 03:27, est_duration_incl_pauses: 04:02, avg_km_per_hour: 6.2, avg_km_hr_moving: 7.2</desc>
      <trkpt lat="47.275722" lon="10.96064">
        <ele>640.75</ele>
      </trkpt>
      <trkpt lat="47.275635" lon="10.960461">
        <ele>640.75</ele>
      </trkpt>
      <trkpt lat="47.275564" lon="10.960342">
        <ele>640.75</ele>
      </trkpt>
      <trkpt lat="47.275529" lon="10.960262">
        <ele>640.75</ele>
      </trkpt>
      <trkpt lat="47.275533" lon="10.960219">
        <ele>640.75</ele>
      </trkpt>
      <trkpt lat="47.275575" lon="10.960108">
        <ele>640.5</ele>
      </trkpt>
      <trkpt lat="47.275622" lon="10.960027">
        <ele>640.5</ele>
      </trkpt>
      <trkpt lat="47.27592" lon="10.959724">
        <ele>640.75</ele>
      </trkpt>
      <trkpt lat="47.275955" lon="10.959651">
        <ele>641</ele>
      </trkpt>
      <trkpt lat="47.275954" lon="10.959587">
        <ele>641.25</ele>
      </trkpt>
      <trkpt lat="47.276217" lon="10.959305">
        <ele>642.25</ele>
      </trkpt>
      <trkpt lat="47.276326" lon="10.959092">
        <ele>642.25</ele>
      </trkpt>
      <trkpt lat="47.276394" lon="10.959">
        <ele>642.25</ele>
      </trkpt>
      <trkpt lat="47.275962" lon="10.958693">
        <ele>642.25</ele>
      </trkpt>
      <trkpt lat="47.275842" lon="10.958593">
        <ele>642.5</ele>
      </trkpt>
      <trkpt lat="47.275803" lon="10.958552">
        <ele>642.5</ele>
      </trkpt>
      <trkpt lat="47.275767" lon="10.958494">
        <ele>642.75</ele>
      </trkpt>
      <trkpt lat="47.275735" lon="10.958419">
        <ele>642.75</ele>
      </trkpt>
      <trkpt lat="47.275729" lon="10.95836">
        <ele>642.75</ele>
      </trkpt>
      <trkpt lat="47.275728" lon="10.958306">
        <ele>642.75</ele>
      </trkpt>
      <trkpt lat="47.275753" lon="10.958195">
        <ele>642.25</ele>
      </trkpt>
      <trkpt lat="47.276066" lon="10.957048">
        <ele>640</ele>
      </trkpt>
      <trkpt lat="47.276067" lon="10.957047">
        <ele>640</ele>
      </trkpt>
      <trkpt lat="47.276136" lon="10.956804">
        <ele>640.5</ele>
      </trkpt>
      <trkpt lat="47.27618" lon="10.956693">
        <ele>640.75</ele>
      </trkpt>
      <trkpt lat="47.276239" lon="10.95659">
        <ele>641</ele>
      </trkpt>
      <trkpt lat="47.27631" lon="10.956504">
        <ele>641.25</ele>
      </trkpt>
      <trkpt lat="47.276378" lon="10.956458">
        <ele>641.5</ele>
      </trkpt>
      <trkpt lat="47.276461" lon="10.956431">
        <ele>641.5</ele>
      </trkpt>
      <trkpt lat="47.27662" lon="10.956438">
        <ele>641.5</ele>
      </trkpt>
      <trkpt lat="47.277016" lon="10.956493">
        <ele>641</ele>
      </trkpt>
      <trkpt lat="47.277434" lon="10.956529">
        <ele>641</ele>
      </trkpt>
      <trkpt lat="47.278081" lon="10.956613">
        <ele>643.75</ele>
      </trkpt>
      <trkpt lat="47.278288" lon="10.956642">
        <ele>644.75</ele>
      </trkpt>
      <trkpt lat="47.278968" lon="10.956703">
        <ele>646.25</ele>
      </trkpt>
      <trkpt lat="47.279338" lon="10.95672">
        <ele>647.5</ele>
      </trkpt>
      <trkpt lat="47.279877" lon="10.95654">
        <ele>650.25</ele>
      </trkpt>
      <trkpt lat="47.27997" lon="10.956512">
        <ele>650.75</ele>
      </trkpt>
      <trkpt lat="47.280385" lon="10.956265">
        <ele>651.25</ele>
      </trkpt>
      <trkpt lat="47.28076" lon="10.956018">
        <ele>651.75</ele>
      </trkpt>
      <trkpt lat="47.281317" lon="10.955657">
        <ele>653.75</ele>
      </trkpt>
      <trkpt lat="47.281451" lon="10.955584">
        <ele>654.25</ele>
      </trkpt>
      <trkpt lat="47.281593" lon="10.955494">
        <ele>654.75</ele>
      </trkpt>
      <trkpt lat="47.282051" lon="10.955409">
        <ele>657</ele>
      </trkpt>
      <trkpt lat="47.282113" lon="10.955372">
        <ele>657.25</ele>
      </trkpt>
      <trkpt lat="47.282386" lon="10.95521">
        <ele>658.5</ele>
      </trkpt>
      <trkpt lat="47.282867" lon="10.955123">
        <ele>661.5</ele>
      </trkpt>
      <trkpt lat="47.283329" lon="10.955075">
        <ele>664.25</ele>
      </trkpt>
      <trkpt lat="47.284085" lon="10.954996">
        <ele>665.75</ele>
      </trkpt>
      <trkpt lat="47.284588" lon="10.95486">
        <ele>671.5</ele>
      </trkpt>
      <trkpt lat="47.28555648159543" lon="10.954586428918157">
        <ele>684.2300427056938</ele>
      </trkpt>
      <trkpt lat="47.285558" lon="10.954586">
        <ele>684.25</ele>
      </trkpt>
      <trkpt lat="47.285608" lon="10.954572">
        <ele>684.75</ele>
      </trkpt>
      <trkpt lat="47.285936" lon="10.954593">
        <ele>685.5</ele>
      </trkpt>
      <trkpt lat="47.286368" lon="10.954699">
        <ele>685.25</ele>
      </trkpt>
      <trkpt lat="47.286577" lon="10.954706">
        <ele>686</ele>
      </trkpt>
      <trkpt lat="47.286893" lon="10.954631">
        <ele>689</ele>
      </trkpt>
      <trkpt lat="47.287189" lon="10.954526">
        <ele>691.25</ele>
      </trkpt>
      <trkpt lat="47.287454" lon="10.954344">
        <ele>693</ele>
      </trkpt>
      <trkpt lat="47.287738" lon="10.954238">
        <ele>694.25</ele>
      </trkpt>
      <trkpt lat="47.287761" lon="10.954281">
        <ele>694.25</ele>
      </trkpt>
      <trkpt lat="47.287841" lon="10.954438">
        <ele>693.5</ele>
      </trkpt>
      <trkpt lat="47.288234" lon="10.955356">
        <ele>691.75</ele>
      </trkpt>
      <trkpt lat="47.288285" lon="10.95559">
        <ele>692.75</ele>
      </trkpt>
      <trkpt lat="47.288329" lon="10.955707">
        <ele>693.25</ele>
      </trkpt>
      <trkpt lat="47.288529" lon="10.955986">
        <ele>695.25</ele>
      </trkpt>
      <trkpt lat="47.288583" lon="10.956131">
        <ele>696.75</ele>
      </trkpt>
      <trkpt lat="47.288584" lon="10.956174">
        <ele>697</ele>
      </trkpt>
      <trkpt lat="47.288586" lon="10.956199">
        <ele>697.5</ele>
      </trkpt>
      <trkpt lat="47.288581" lon="10.956261">
        <ele>698.25</ele>
      </trkpt>
      <trkpt lat="47.28854" lon="10.956342">
        <ele>699.25</ele>
      </trkpt>
      <trkpt lat="47.288666" lon="10.956756">
        <ele>703.75</ele>
      </trkpt>
      <trkpt lat="47.288684" lon="10.956868">
        <ele>704.75</ele>
      </trkpt>
      <trkpt lat="47.288686" lon="10.956995">
        <ele>706</ele>
      </trkpt>
      <trkpt lat="47.288673" lon="10.957313">
        <ele>709</ele>
      </trkpt>
      <trkpt lat="47.288575" lon="10.957494">
        <ele>711</ele>
      </trkpt>
      <trkpt lat="47.288515" lon="10.957582">
        <ele>713.5</ele>
      </trkpt>
      <trkpt lat="47.288502" lon="10.957677">
        <ele>716</ele>
      </trkpt>
      <trkpt lat="47.288504" lon="10.957718">
        <ele>717.25</ele>
      </trkpt>
      <trkpt lat="47.288527" lon="10.957762">
        <ele>718.25</ele>
      </trkpt>
      <trkpt lat="47.288824" lon="10.958062">
        <ele>722.25</ele>
      </trkpt>
      <trkpt lat="47.288965" lon="10.958132">
        <ele>721.75</ele>
      </trkpt>
      <trkpt lat="47.289113" lon="10.958269">
        <ele>721.75</ele>
      </trkpt>
      <trkpt lat="47.289164" lon="10.958315">
        <ele>721.75</ele>
      </trkpt>
      <trkpt lat="47.2893" lon="10.958475">
        <ele>726.25</ele>
      </trkpt>
      <trkpt lat="47.289544" lon="10.958811">
        <ele>736.25</ele>
      </trkpt>
      <trkpt lat="47.28965" lon="10.959031">
        <ele>742.75</ele>
      </trkpt>
      <trkpt lat="47.289817" lon="10.959243">
        <ele>747.75</ele>
      </trkpt>
      <trkpt lat="47.289962" lon="10.959275">
        <ele>746.75</ele>
      </trkpt>
      <trkpt lat="47.290024" lon="10.959344">
        <ele>748.5</ele>
      </trkpt>
      <trkpt lat="47.290112" lon="10.959495">
        <ele>753.25</ele>
      </trkpt>
      <trkpt lat="47.290488" lon="10.959763">
        <ele>758</ele>
      </trkpt>
      <trkpt lat="47.290808" lon="10.959827">
        <ele>755.5</ele>
      </trkpt>
      <trkpt lat="47.291092" lon="10.960117">
        <ele>763</ele>
      </trkpt>
      <trkpt lat="47.291472" lon="10.960364">
        <ele>767</ele>
      </trkpt>
      <trkpt lat="47.291602" lon="10.960428">
        <ele>767.5</ele>
      </trkpt>
      <trkpt lat="47.291622" lon="10.960511">
        <ele>770.25</ele>
      </trkpt>
      <trkpt lat="47.291687" lon="10.960669">
        <ele>775</ele>
      </trkpt>
      <trkpt lat="47.291815" lon="10.960793">
        <ele>777.75</ele>
      </trkpt>
      <trkpt lat="47.291904" lon="10.960922">
        <ele>780.75</ele>
      </trkpt>
      <trkpt lat="47.29207" lon="10.961086">
        <ele>784</ele>
      </trkpt>
      <trkpt lat="47.292728" lon="10.961539">
        <ele>791.5</ele>
      </trkpt>
      <trkpt lat="47.293018" lon="10.962232">
        <ele>805</ele>
      </trkpt>
      <trkpt lat="47.293577" lon="10.962351">
        <ele>806.5</ele>
      </trkpt>
      <trkpt lat="47.293989" lon="10.962369">
        <ele>808.75</ele>
      </trkpt>
      <trkpt lat="47.294426" lon="10.9628">
        <ele>813.75</ele>
      </trkpt>
      <trkpt lat="47.29491" lon="10.962926">
        <ele>815.25</ele>
      </trkpt>
      <trkpt lat="47.295161" lon="10.963332">
        <ele>816</ele>
      </trkpt>
      <trkpt lat="47.295435" lon="10.963717">
        <ele>819.25</ele>
      </trkpt>
      <trkpt lat="47.296331" lon="10.963617">
        <ele>819</ele>
      </trkpt>
      <trkpt lat="47.296744" lon="10.963514">
        <ele>819</ele>
      </trkpt>
      <trkpt lat="47.297363" lon="10.963488">
        <ele>821.25</ele>
      </trkpt>
      <trkpt lat="47.297746" lon="10.963241">
        <ele>826.25</ele>
      </trkpt>
      <trkpt lat="47.297846" lon="10.963118">
        <ele>828</ele>
      </trkpt>
      <trkpt lat="47.298103" lon="10.962805">
        <ele>832.75</ele>
      </trkpt>
      <trkpt lat="47.298156" lon="10.962777">
        <ele>833.5</ele>
      </trkpt>
      <trkpt lat="47.298438" lon="10.961746">
        <ele>838.25</ele>
      </trkpt>
      <trkpt lat="47.298796" lon="10.961371">
        <ele>840.25</ele>
      </trkpt>
      <trkpt lat="47.298842" lon="10.961085">
        <ele>840.75</ele>
      </trkpt>
      <trkpt lat="47.298751" lon="10.960126">
        <ele>843.75</ele>
      </trkpt>
      <trkpt lat="47.298827" lon="10.959706">
        <ele>843</ele>
      </trkpt>
      <trkpt lat="47.29876" lon="10.95917">
        <ele>841.25</ele>
      </trkpt>
      <trkpt lat="47.298743" lon="10.959033">
        <ele>838.75</ele>
      </trkpt>
      <trkpt lat="47.298793" lon="10.958888">
        <ele>836</ele>
      </trkpt>
      <trkpt lat="47.298964" lon="10.958888">
        <ele>835.5</ele>
      </trkpt>
      <trkpt lat="47.299189" lon="10.958836">
        <ele>835</ele>
      </trkpt>
      <trkpt lat="47.299321" lon="10.958562">
        <ele>834.25</ele>
      </trkpt>
      <trkpt lat="47.299667" lon="10.958478">
        <ele>840</ele>
      </trkpt>
      <trkpt lat="47.29986" lon="10.958096">
        <ele>840</ele>
      </trkpt>
      <trkpt lat="47.29995" lon="10.958059">
        <ele>842</ele>
      </trkpt>
      <trkpt lat="47.300377" lon="10.957889">
        <ele>852.75</ele>
      </trkpt>
      <trkpt lat="47.300372" lon="10.957689">
        <ele>851.75</ele>
      </trkpt>
      <trkpt lat="47.300229" lon="10.957478">
        <ele>846.5</ele>
      </trkpt>
      <trkpt lat="47.300387" lon="10.957174">
        <ele>858</ele>
      </trkpt>
      <trkpt lat="47.300083" lon="10.956838">
        <ele>859.25</ele>
      </trkpt>
      <trkpt lat="47.300027" lon="10.956545">
        <ele>865.25</ele>
      </trkpt>
      <trkpt lat="47.299851" lon="10.956484">
        <ele>864.75</ele>
      </trkpt>
      <trkpt lat="47.299391" lon="10.956685">
        <ele>859.5</ele>
      </trkpt>
      <trkpt lat="47.299409" lon="10.956303">
        <ele>861.5</ele>
      </trkpt>
      <trkpt lat="47.299419" lon="10.95612">
        <ele>862.75</ele>
      </trkpt>
      <trkpt lat="47.299533" lon="10.956084">
        <ele>865</ele>
      </trkpt>
      <trkpt lat="47.299794" lon="10.956064">
        <ele>869.5</ele>
      </trkpt>
      <trkpt lat="47.300079" lon="10.955729">
        <ele>878.5</ele>
      </trkpt>
      <trkpt lat="47.3003" lon="10.954939">
        <ele>885.75</ele>
      </trkpt>
      <trkpt lat="47.30032" lon="10.954349">
        <ele>889.75</ele>
      </trkpt>
      <trkpt lat="47.300322" lon="10.954297">
        <ele>890.25</ele>
      </trkpt>
      <trkpt lat="47.300316" lon="10.954176">
        <ele>891</ele>
      </trkpt>
      <trkpt lat="47.300287" lon="10.954039">
        <ele>891.75</ele>
      </trkpt>
      <trkpt lat="47.300283" lon="10.953879">
        <ele>892.75</ele>
      </trkpt>
      <trkpt lat="47.300336" lon="10.953784">
        <ele>893.25</ele>
      </trkpt>
      <trkpt lat="47.300435" lon="10.95366">
        <ele>894</ele>
      </trkpt>
      <trkpt lat="47.300377" lon="10.953548">
        <ele>894.75</ele>
      </trkpt>
      <trkpt lat="47.299906" lon="10.951385">
        <ele>903.25</ele>
      </trkpt>
      <trkpt lat="47.299821" lon="10.951164">
        <ele>900.75</ele>
      </trkpt>
      <trkpt lat="47.299653" lon="10.950954">
        <ele>894.75</ele>
      </trkpt>
      <trkpt lat="47.299591" lon="10.950783">
        <ele>891.75</ele>
      </trkpt>
      <trkpt lat="47.299528" lon="10.950626">
        <ele>889.25</ele>
      </trkpt>
      <trkpt lat="47.299519" lon="10.950481">
        <ele>888.75</ele>
      </trkpt>
      <trkpt lat="47.299578" lon="10.950186">
        <ele>891.25</ele>
      </trkpt>
      <trkpt lat="47.299544" lon="10.94995">
        <ele>889.5</ele>
      </trkpt>
      <trkpt lat="47.299587" lon="10.949809">
        <ele>891</ele>
      </trkpt>
      <trkpt lat="47.299574" lon="10.949607">
        <ele>890</ele>
      </trkpt>
      <trkpt lat="47.299423" lon="10.949446">
        <ele>883.5</ele>
      </trkpt>
      <trkpt lat="47.29941" lon="10.949288">
        <ele>882.75</ele>
      </trkpt>
      <trkpt lat="47.299439" lon="10.949194">
        <ele>883.75</ele>
      </trkpt>
      <trkpt lat="47.299455" lon="10.949147">
        <ele>884.5</ele>
      </trkpt>
      <trkpt lat="47.299505" lon="10.948925">
        <ele>888.75</ele>
      </trkpt>
      <trkpt lat="47.299508" lon="10.94873">
        <ele>891</ele>
      </trkpt>
      <trkpt lat="47.299485" lon="10.948612">
        <ele>891.5</ele>
      </trkpt>
      <trkpt lat="47.299416" lon="10.948538">
        <ele>890</ele>
      </trkpt>
      <trkpt lat="47.299223" lon="10.948565">
        <ele>883.25</ele>
      </trkpt>
      <trkpt lat="47.299104" lon="10.948488">
        <ele>881.5</ele>
      </trkpt>
      <trkpt lat="47.298983" lon="10.948531">
        <ele>878.75</ele>
      </trkpt>
      <trkpt lat="47.298963" lon="10.948625">
        <ele>877.5</ele>
      </trkpt>
      <trkpt lat="47.298817" lon="10.948747">
        <ele>874</ele>
      </trkpt>
      <trkpt lat="47.298756" lon="10.948552">
        <ele>874.5</ele>
      </trkpt>
      <trkpt lat="47.298592" lon="10.948017">
        <ele>876.75</ele>
      </trkpt>
      <trkpt lat="47.298574" lon="10.94794">
        <ele>877.25</ele>
      </trkpt>
      <trkpt lat="47.29853" lon="10.947993">
        <ele>875.5</ele>
      </trkpt>
      <trkpt lat="47.298574" lon="10.94794">
        <ele>877.25</ele>
      </trkpt>
      <trkpt lat="47.29827" lon="10.947452">
        <ele>875.25</ele>
      </trkpt>
      <trkpt lat="47.297961" lon="10.946913">
        <ele>883.75</ele>
      </trkpt>
      <trkpt lat="47.297913" lon="10.946667">
        <ele>886.25</ele>
      </trkpt>
      <trkpt lat="47.297949" lon="10.946369">
        <ele>891.25</ele>
      </trkpt>
      <trkpt lat="47.297947" lon="10.946245">
        <ele>893</ele>
      </trkpt>
      <trkpt lat="47.297911" lon="10.946126">
        <ele>894</ele>
      </trkpt>
      <trkpt lat="47.297799" lon="10.945953">
        <ele>894.25</ele>
      </trkpt>
      <trkpt lat="47.297764" lon="10.945798">
        <ele>895.75</ele>
      </trkpt>
      <trkpt lat="47.297386" lon="10.945312">
        <ele>899.75</ele>
      </trkpt>
      <trkpt lat="47.297295" lon="10.94502">
        <ele>903.25</ele>
      </trkpt>
      <trkpt lat="47.297272" lon="10.944944">
        <ele>904.25</ele>
      </trkpt>
      <trkpt lat="47.297239" lon="10.944673">
        <ele>905.5</ele>
      </trkpt>
      <trkpt lat="47.297285" lon="10.944494">
        <ele>906.75</ele>
      </trkpt>
      <trkpt lat="47.297437" lon="10.944039">
        <ele>909.75</ele>
      </trkpt>
      <trkpt lat="47.297539" lon="10.943284">
        <ele>909.5</ele>
      </trkpt>
      <trkpt lat="47.297538" lon="10.942028">
        <ele>914.5</ele>
      </trkpt>
      <trkpt lat="47.297471" lon="10.941369">
        <ele>917.25</ele>
      </trkpt>
      <trkpt lat="47.297489" lon="10.940821">
        <ele>920.75</ele>
      </trkpt>
      <trkpt lat="47.297545" lon="10.94063">
        <ele>925.75</ele>
      </trkpt>
      <trkpt lat="47.297427" lon="10.940404">
        <ele>925.75</ele>
      </trkpt>
      <trkpt lat="47.297291" lon="10.9398">
        <ele>931</ele>
      </trkpt>
      <trkpt lat="47.296976" lon="10.938518">
        <ele>937.25</ele>
      </trkpt>
      <trkpt lat="47.296974" lon="10.9385">
        <ele>937.25</ele>
      </trkpt>
      <trkpt lat="47.296976" lon="10.938518">
        <ele>937.25</ele>
      </trkpt>
      <trkpt lat="47.296904" lon="10.93847">
        <ele>935.5</ele>
      </trkpt>
      <trkpt lat="47.296847" lon="10.938354">
        <ele>934.75</ele>
      </trkpt>
      <trkpt lat="47.29666" lon="10.93802">
        <ele>931.25</ele>
      </trkpt>
      <trkpt lat="47.296617" lon="10.93799">
        <ele>932.75</ele>
      </trkpt>
      <trkpt lat="47.29659" lon="10.937967">
        <ele>933.75</ele>
      </trkpt>
      <trkpt lat="47.296602" lon="10.937543">
        <ele>935.25</ele>
      </trkpt>
      <trkpt lat="47.296629" lon="10.937206">
        <ele>936.5</ele>
      </trkpt>
      <trkpt lat="47.296829" lon="10.93693">
        <ele>938.25</ele>
      </trkpt>
      <trkpt lat="47.296864" lon="10.936727">
        <ele>939.25</ele>
      </trkpt>
      <trkpt lat="47.296748" lon="10.936392">
        <ele>939.25</ele>
      </trkpt>
      <trkpt lat="47.296636" lon="10.936127">
        <ele>940</ele>
      </trkpt>
      <trkpt lat="47.296498" lon="10.935529">
        <ele>943</ele>
      </trkpt>
      <trkpt lat="47.296297" lon="10.934999">
        <ele>943.75</ele>
      </trkpt>
      <trkpt lat="47.296131" lon="10.934678">
        <ele>947.75</ele>
      </trkpt>
      <trkpt lat="47.295679" lon="10.934168">
        <ele>951.25</ele>
      </trkpt>
      <trkpt lat="47.295295" lon="10.933633">
        <ele>956.25</ele>
      </trkpt>
      <trkpt lat="47.295222" lon="10.933414">
        <ele>954.5</ele>
      </trkpt>
      <trkpt lat="47.295285" lon="10.932884">
        <ele>956</ele>
      </trkpt>
      <trkpt lat="47.295271" lon="10.932288">
        <ele>959</ele>
      </trkpt>
      <trkpt lat="47.295212" lon="10.931839">
        <ele>960.25</ele>
      </trkpt>
      <trkpt lat="47.295213" lon="10.931536">
        <ele>960.5</ele>
      </trkpt>
      <trkpt lat="47.295222" lon="10.931279">
        <ele>959.75</ele>
      </trkpt>
      <trkpt lat="47.295251" lon="10.930774">
        <ele>959</ele>
      </trkpt>
      <trkpt lat="47.2952" lon="10.930125">
        <ele>960</ele>
      </trkpt>
      <trkpt lat="47.295125" lon="10.929845">
        <ele>960.25</ele>
      </trkpt>
      <trkpt lat="47.295094" lon="10.929786">
        <ele>960</ele>
      </trkpt>
      <trkpt lat="47.295092" lon="10.929694">
        <ele>960.25</ele>
      </trkpt>
      <trkpt lat="47.295127" lon="10.929741">
        <ele>960.5</ele>
      </trkpt>
      <trkpt lat="47.295178" lon="10.929719">
        <ele>960.75</ele>
      </trkpt>
      <trkpt lat="47.295205" lon="10.929708">
        <ele>960.75</ele>
      </trkpt>
      <trkpt lat="47.295312" lon="10.929868">
        <ele>961.25</ele>
      </trkpt>
      <trkpt lat="47.295336" lon="10.929922">
        <ele>961.25</ele>
      </trkpt>
      <trkpt lat="47.295312" lon="10.929868">
        <ele>961.25</ele>
      </trkpt>
      <trkpt lat="47.295205" lon="10.929708">
        <ele>960.75</ele>
      </trkpt>
      <trkpt lat="47.295178" lon="10.929719">
        <ele>960.75</ele>
      </trkpt>
      <trkpt lat="47.295127" lon="10.929741">
        <ele>960.5</ele>
      </trkpt>
      <trkpt lat="47.295092" lon="10.929694">
        <ele>960.25</ele>
      </trkpt>
      <trkpt lat="47.295068" lon="10.929599">
        <ele>960.5</ele>
      </trkpt>
      <trkpt lat="47.295065" lon="10.92924">
        <ele>961.5</ele>
      </trkpt>
      <trkpt lat="47.295058" lon="10.929091">
        <ele>961.75</ele>
      </trkpt>
      <trkpt lat="47.294899" lon="10.930605">
        <ele>960.25</ele>
      </trkpt>
      <trkpt lat="47.294842" lon="10.931288">
        <ele>962</ele>
      </trkpt>
      <trkpt lat="47.294792" lon="10.932085">
        <ele>962.25</ele>
      </trkpt>
      <trkpt lat="47.294685" lon="10.932462">
        <ele>963</ele>
      </trkpt>
      <trkpt lat="47.294429" lon="10.933249">
        <ele>963.5</ele>
      </trkpt>
      <trkpt lat="47.294235" lon="10.933526">
        <ele>967.25</ele>
      </trkpt>
      <trkpt lat="47.294067" lon="10.933516">
        <ele>968.25</ele>
      </trkpt>
      <trkpt lat="47.293865" lon="10.933353">
        <ele>968</ele>
      </trkpt>
      <trkpt lat="47.293489" lon="10.933021">
        <ele>969.25</ele>
      </trkpt>
      <trkpt lat="47.293157" lon="10.932714">
        <ele>970.25</ele>
      </trkpt>
      <trkpt lat="47.293053" lon="10.932645">
        <ele>970.75</ele>
      </trkpt>
      <trkpt lat="47.29296" lon="10.932662">
        <ele>971.5</ele>
      </trkpt>
      <trkpt lat="47.292898" lon="10.932699">
        <ele>971.75</ele>
      </trkpt>
      <trkpt lat="47.292943" lon="10.933008">
        <ele>972</ele>
      </trkpt>
      <trkpt lat="47.293009" lon="10.933325">
        <ele>972.25</ele>
      </trkpt>
      <trkpt lat="47.291655" lon="10.933833">
        <ele>977</ele>
      </trkpt>
      <trkpt lat="47.291485" lon="10.934041">
        <ele>978</ele>
      </trkpt>
      <trkpt lat="47.291494" lon="10.934426">
        <ele>975.75</ele>
      </trkpt>
      <trkpt lat="47.291306" lon="10.934594">
        <ele>976.75</ele>
      </trkpt>
      <trkpt lat="47.290965" lon="10.934722">
        <ele>979</ele>
      </trkpt>
      <trkpt lat="47.290655" lon="10.93482">
        <ele>982</ele>
      </trkpt>
      <trkpt lat="47.290524" lon="10.93488">
        <ele>983.25</ele>
      </trkpt>
      <trkpt lat="47.290345" lon="10.93513">
        <ele>983.25</ele>
      </trkpt>
      <trkpt lat="47.290339" lon="10.93514">
        <ele>983.25</ele>
      </trkpt>
      <trkpt lat="47.290181" lon="10.935268">
        <ele>983.75</ele>
      </trkpt>
      <trkpt lat="47.289991" lon="10.935115">
        <ele>988</ele>
      </trkpt>
      <trkpt lat="47.289611" lon="10.935054">
        <ele>982.5</ele>
      </trkpt>
      <trkpt lat="47.289544" lon="10.935068">
        <ele>981</ele>
      </trkpt>
      <trkpt lat="47.289468" lon="10.935085">
        <ele>979.75</ele>
      </trkpt>
      <trkpt lat="47.289428" lon="10.935004">
        <ele>980.25</ele>
      </trkpt>
      <trkpt lat="47.289392" lon="10.934883">
        <ele>980.75</ele>
      </trkpt>
      <trkpt lat="47.289367" lon="10.934721">
        <ele>982</ele>
      </trkpt>
      <trkpt lat="47.289351" lon="10.934474">
        <ele>984.25</ele>
      </trkpt>
      <trkpt lat="47.289327" lon="10.934279">
        <ele>985.75</ele>
      </trkpt>
      <trkpt lat="47.28929" lon="10.934106">
        <ele>987.75</ele>
      </trkpt>
      <trkpt lat="47.2892" lon="10.933906">
        <ele>990.5</ele>
      </trkpt>
      <trkpt lat="47.289088" lon="10.933689">
        <ele>994.25</ele>
      </trkpt>
      <trkpt lat="47.289001" lon="10.933569">
        <ele>996.25</ele>
      </trkpt>
      <trkpt lat="47.288924" lon="10.933535">
        <ele>996.25</ele>
      </trkpt>
      <trkpt lat="47.288832" lon="10.933512">
        <ele>996.25</ele>
      </trkpt>
      <trkpt lat="47.288787" lon="10.933475">
        <ele>996.75</ele>
      </trkpt>
      <trkpt lat="47.288746" lon="10.933399">
        <ele>997.75</ele>
      </trkpt>
      <trkpt lat="47.288633" lon="10.933136">
        <ele>1001.75</ele>
      </trkpt>
      <trkpt lat="47.28858" lon="10.933078">
        <ele>1002.5</ele>
      </trkpt>
      <trkpt lat="47.288568" lon="10.933076">
        <ele>1002.5</ele>
      </trkpt>
      <trkpt lat="47.288531" lon="10.933069">
        <ele>1002.5</ele>
      </trkpt>
      <trkpt lat="47.288484" lon="10.933118">
        <ele>1001.25</ele>
      </trkpt>
      <trkpt lat="47.288465" lon="10.933224">
        <ele>999</ele>
      </trkpt>
      <trkpt lat="47.288479" lon="10.933633">
        <ele>992.25</ele>
      </trkpt>
      <trkpt lat="47.288468" lon="10.93372">
        <ele>991</ele>
      </trkpt>
      <trkpt lat="47.288421" lon="10.933745">
        <ele>990.25</ele>
      </trkpt>
      <trkpt lat="47.288372" lon="10.933733">
        <ele>990.25</ele>
      </trkpt>
      <trkpt lat="47.288256" lon="10.933588">
        <ele>994</ele>
      </trkpt>
      <trkpt lat="47.288202" lon="10.933555">
        <ele>995.75</ele>
      </trkpt>
      <trkpt lat="47.288174" lon="10.933556">
        <ele>996.5</ele>
      </trkpt>
      <trkpt lat="47.288139" lon="10.933582">
        <ele>997</ele>
      </trkpt>
      <trkpt lat="47.288118" lon="10.933643">
        <ele>996.75</ele>
      </trkpt>
      <trkpt lat="47.288089" lon="10.933935">
        <ele>993.5</ele>
      </trkpt>
      <trkpt lat="47.288048" lon="10.934077">
        <ele>992.5</ele>
      </trkpt>
      <trkpt lat="47.288014" lon="10.934144">
        <ele>992.5</ele>
      </trkpt>
      <trkpt lat="47.287969" lon="10.934191">
        <ele>993.25</ele>
      </trkpt>
      <trkpt lat="47.287883" lon="10.934225">
        <ele>995</ele>
      </trkpt>
      <trkpt lat="47.28785" lon="10.934267">
        <ele>995.5</ele>
      </trkpt>
      <trkpt lat="47.287825" lon="10.93434">
        <ele>995.25</ele>
      </trkpt>
      <trkpt lat="47.287828" lon="10.934411">
        <ele>994.5</ele>
      </trkpt>
      <trkpt lat="47.287861" lon="10.934475">
        <ele>992.75</ele>
      </trkpt>
      <trkpt lat="47.287941" lon="10.934528">
        <ele>990.25</ele>
      </trkpt>
      <trkpt lat="47.287999" lon="10.934589">
        <ele>988</ele>
      </trkpt>
      <trkpt lat="47.288048" lon="10.934665">
        <ele>985.75</ele>
      </trkpt>
      <trkpt lat="47.288083" lon="10.93479">
        <ele>983.5</ele>
      </trkpt>
      <trkpt lat="47.288092" lon="10.934975">
        <ele>981.25</ele>
      </trkpt>
      <trkpt lat="47.288115" lon="10.935132">
        <ele>979</ele>
      </trkpt>
      <trkpt lat="47.288107" lon="10.935257">
        <ele>977.75</ele>
      </trkpt>
      <trkpt lat="47.28808" lon="10.93531">
        <ele>977.75</ele>
      </trkpt>
      <trkpt lat="47.288037" lon="10.935341">
        <ele>978.5</ele>
      </trkpt>
      <trkpt lat="47.287976" lon="10.935366">
        <ele>979.5</ele>
      </trkpt>
      <trkpt lat="47.287812" lon="10.935542">
        <ele>981.25</ele>
      </trkpt>
      <trkpt lat="47.287755" lon="10.93558">
        <ele>982.25</ele>
      </trkpt>
      <trkpt lat="47.287697" lon="10.935602">
        <ele>983.25</ele>
      </trkpt>
      <trkpt lat="47.287622" lon="10.935609">
        <ele>985</ele>
      </trkpt>
      <trkpt lat="47.287542" lon="10.935644">
        <ele>986.5</ele>
      </trkpt>
      <trkpt lat="47.287493" lon="10.935726">
        <ele>986.5</ele>
      </trkpt>
      <trkpt lat="47.287464" lon="10.93582">
        <ele>985.75</ele>
      </trkpt>
      <trkpt lat="47.287457" lon="10.935927">
        <ele>984.75</ele>
      </trkpt>
      <trkpt lat="47.287481" lon="10.936006">
        <ele>983.25</ele>
      </trkpt>
      <trkpt lat="47.287542" lon="10.936054">
        <ele>981.5</ele>
      </trkpt>
      <trkpt lat="47.287621" lon="10.936078">
        <ele>979.5</ele>
      </trkpt>
      <trkpt lat="47.287721" lon="10.936171">
        <ele>976.5</ele>
      </trkpt>
      <trkpt lat="47.287761" lon="10.936237">
        <ele>975</ele>
      </trkpt>
      <trkpt lat="47.287783" lon="10.936364">
        <ele>973.25</ele>
      </trkpt>
      <trkpt lat="47.287767" lon="10.936445">
        <ele>973</ele>
      </trkpt>
      <trkpt lat="47.287708" lon="10.93653">
        <ele>973.25</ele>
      </trkpt>
      <trkpt lat="47.287633" lon="10.936568">
        <ele>974.25</ele>
      </trkpt>
      <trkpt lat="47.287559" lon="10.936618">
        <ele>975.25</ele>
      </trkpt>
      <trkpt lat="47.287525" lon="10.936745">
        <ele>974.25</ele>
      </trkpt>
      <trkpt lat="47.287495" lon="10.936816">
        <ele>973.25</ele>
      </trkpt>
      <trkpt lat="47.287487" lon="10.936836">
        <ele>973.25</ele>
      </trkpt>
      <trkpt lat="47.287513" lon="10.936942">
        <ele>971.25</ele>
      </trkpt>
      <trkpt lat="47.287514" lon="10.937286">
        <ele>966</ele>
      </trkpt>
      <trkpt lat="47.287501" lon="10.937475">
        <ele>963.25</ele>
      </trkpt>
      <trkpt lat="47.287575" lon="10.937665">
        <ele>959</ele>
      </trkpt>
      <trkpt lat="47.287613" lon="10.937762">
        <ele>957</ele>
      </trkpt>
      <trkpt lat="47.287667" lon="10.937867">
        <ele>954.75</ele>
      </trkpt>
      <trkpt lat="47.287699" lon="10.938048">
        <ele>951.5</ele>
      </trkpt>
      <trkpt lat="47.287707" lon="10.938186">
        <ele>949.5</ele>
      </trkpt>
      <trkpt lat="47.287769" lon="10.938306">
        <ele>947</ele>
      </trkpt>
      <trkpt lat="47.287776" lon="10.938457">
        <ele>945</ele>
      </trkpt>
      <trkpt lat="47.287754" lon="10.938551">
        <ele>943.75</ele>
      </trkpt>
      <trkpt lat="47.287755" lon="10.938623">
        <ele>942.75</ele>
      </trkpt>
      <trkpt lat="47.287714" lon="10.938745">
        <ele>941.5</ele>
      </trkpt>
      <trkpt lat="47.287704" lon="10.938883">
        <ele>939.5</ele>
      </trkpt>
      <trkpt lat="47.287747" lon="10.939154">
        <ele>935.5</ele>
      </trkpt>
      <trkpt lat="47.287751" lon="10.939255">
        <ele>934.75</ele>
      </trkpt>
      <trkpt lat="47.287719" lon="10.939324">
        <ele>934.25</ele>
      </trkpt>
      <trkpt lat="47.287667" lon="10.939386">
        <ele>934</ele>
      </trkpt>
      <trkpt lat="47.28762" lon="10.93946">
        <ele>933.75</ele>
      </trkpt>
      <trkpt lat="47.287581" lon="10.939619">
        <ele>932.25</ele>
      </trkpt>
      <trkpt lat="47.287581" lon="10.939754">
        <ele>931.25</ele>
      </trkpt>
      <trkpt lat="47.287621" lon="10.939866">
        <ele>930.25</ele>
      </trkpt>
      <trkpt lat="47.28762" lon="10.939865">
        <ele>930.25</ele>
      </trkpt>
      <trkpt lat="47.287717" lon="10.940138">
        <ele>928.25</ele>
      </trkpt>
      <trkpt lat="47.287707" lon="10.940235">
        <ele>927.5</ele>
      </trkpt>
      <trkpt lat="47.287633" lon="10.940495">
        <ele>925</ele>
      </trkpt>
      <trkpt lat="47.287632" lon="10.94066">
        <ele>923.75</ele>
      </trkpt>
      <trkpt lat="47.287661" lon="10.940762">
        <ele>923.25</ele>
      </trkpt>
      <trkpt lat="47.287742" lon="10.940882">
        <ele>923</ele>
      </trkpt>
      <trkpt lat="47.287762" lon="10.940943">
        <ele>922.75</ele>
      </trkpt>
      <trkpt lat="47.287982" lon="10.941113">
        <ele>923.75</ele>
      </trkpt>
      <trkpt lat="47.288083" lon="10.941143">
        <ele>924.75</ele>
      </trkpt>
      <trkpt lat="47.288207" lon="10.941216">
        <ele>926</ele>
      </trkpt>
      <trkpt lat="47.288322" lon="10.941336">
        <ele>926.75</ele>
      </trkpt>
      <trkpt lat="47.288379" lon="10.941418">
        <ele>925.5</ele>
      </trkpt>
      <trkpt lat="47.288459" lon="10.941562">
        <ele>923.25</ele>
      </trkpt>
      <trkpt lat="47.288557" lon="10.941648">
        <ele>921.25</ele>
      </trkpt>
      <trkpt lat="47.288681" lon="10.941827">
        <ele>917.5</ele>
      </trkpt>
      <trkpt lat="47.288762" lon="10.941892">
        <ele>915.75</ele>
      </trkpt>
      <trkpt lat="47.288848" lon="10.942014">
        <ele>913.5</ele>
      </trkpt>
      <trkpt lat="47.288953" lon="10.942189">
        <ele>910.75</ele>
      </trkpt>
      <trkpt lat="47.28915" lon="10.942591">
        <ele>905.75</ele>
      </trkpt>
      <trkpt lat="47.289201" lon="10.942656">
        <ele>903.25</ele>
      </trkpt>
      <trkpt lat="47.289247" lon="10.942778">
        <ele>899.75</ele>
      </trkpt>
      <trkpt lat="47.289285" lon="10.943043">
        <ele>894.75</ele>
      </trkpt>
      <trkpt lat="47.289366" lon="10.943129">
        <ele>890.75</ele>
      </trkpt>
      <trkpt lat="47.28942" lon="10.943174">
        <ele>888.5</ele>
      </trkpt>
      <trkpt lat="47.289459" lon="10.943181">
        <ele>887</ele>
      </trkpt>
      <trkpt lat="47.28944" lon="10.943217">
        <ele>887.25</ele>
      </trkpt>
      <trkpt lat="47.289377" lon="10.943209">
        <ele>889.5</ele>
      </trkpt>
      <trkpt lat="47.289275" lon="10.943129">
        <ele>894</ele>
      </trkpt>
      <trkpt lat="47.289232" lon="10.943135">
        <ele>895.5</ele>
      </trkpt>
      <trkpt lat="47.28917" lon="10.943174">
        <ele>897</ele>
      </trkpt>
      <trkpt lat="47.289128" lon="10.94325">
        <ele>896.25</ele>
      </trkpt>
      <trkpt lat="47.289081" lon="10.943387">
        <ele>894.25</ele>
      </trkpt>
      <trkpt lat="47.289056" lon="10.943624">
        <ele>889.5</ele>
      </trkpt>
      <trkpt lat="47.289035" lon="10.943725">
        <ele>887.5</ele>
      </trkpt>
      <trkpt lat="47.289007" lon="10.94377">
        <ele>887</ele>
      </trkpt>
      <trkpt lat="47.288959" lon="10.943787">
        <ele>887</ele>
      </trkpt>
      <trkpt lat="47.288847" lon="10.943785">
        <ele>888</ele>
      </trkpt>
      <trkpt lat="47.288738" lon="10.943828">
        <ele>888.25</ele>
      </trkpt>
      <trkpt lat="47.288676" lon="10.943908">
        <ele>887.25</ele>
      </trkpt>
      <trkpt lat="47.288637" lon="10.944018">
        <ele>885.5</ele>
      </trkpt>
      <trkpt lat="47.288594" lon="10.944207">
        <ele>882.5</ele>
      </trkpt>
      <trkpt lat="47.288569" lon="10.944387">
        <ele>880.25</ele>
      </trkpt>
      <trkpt lat="47.28857" lon="10.944412">
        <ele>884.1012853327215</ele>
      </trkpt>
      <trkpt lat="47.288319664707245" lon="10.944821325878735">
        <ele>878.5878893185809</ele>
      </trkpt>
      <trkpt lat="47.288177469493476" lon="10.945450220141902">
        <ele>868.3714487031345</ele>
      </trkpt>
      <trkpt lat="47.288145158500896" lon="10.945593123671017">
        <ele>865.768395595851</ele>
      </trkpt>
      <trkpt lat="47.288145158500896" lon="10.946107655532046">
        <ele>860.1372582969068</ele>
      </trkpt>
      <trkpt lat="47.28801475363355" lon="10.946742076763298">
        <ele>851.4156015206136</ele>
      </trkpt>
      <trkpt lat="47.287970651718865" lon="10.946956633102985">
        <ele>849.2407030262902</ele>
      </trkpt>
      <trkpt lat="47.287761" lon="10.947372">
        <ele>843.75</ele>
      </trkpt>
      <trkpt lat="47.287711" lon="10.947389">
        <ele>843.5</ele>
      </trkpt>
      <trkpt lat="47.287765" lon="10.947533">
        <ele>842</ele>
      </trkpt>
      <trkpt lat="47.28768" lon="10.947911">
        <ele>836</ele>
      </trkpt>
      <trkpt lat="47.287626" lon="10.948076">
        <ele>833.25</ele>
      </trkpt>
      <trkpt lat="47.287559" lon="10.948235">
        <ele>830.5</ele>
      </trkpt>
      <trkpt lat="47.287535" lon="10.948393">
        <ele>828.5</ele>
      </trkpt>
      <trkpt lat="47.287552" lon="10.948492">
        <ele>827.5</ele>
      </trkpt>
      <trkpt lat="47.287535" lon="10.948583">
        <ele>826.25</ele>
      </trkpt>
      <trkpt lat="47.287497" lon="10.948724">
        <ele>824.75</ele>
      </trkpt>
      <trkpt lat="47.287511" lon="10.948817">
        <ele>823.75</ele>
      </trkpt>
      <trkpt lat="47.287499" lon="10.948922">
        <ele>822.5</ele>
      </trkpt>
      <trkpt lat="47.287544" lon="10.949238">
        <ele>819</ele>
      </trkpt>
      <trkpt lat="47.287509" lon="10.949497">
        <ele>815.5</ele>
      </trkpt>
      <trkpt lat="47.287519" lon="10.949724">
        <ele>812.5</ele>
      </trkpt>
      <trkpt lat="47.287484" lon="10.950043">
        <ele>808.5</ele>
      </trkpt>
      <trkpt lat="47.287431" lon="10.950192">
        <ele>806.75</ele>
      </trkpt>
      <trkpt lat="47.287398" lon="10.95026">
        <ele>805.75</ele>
      </trkpt>
      <trkpt lat="47.287379" lon="10.950301">
        <ele>805.5</ele>
      </trkpt>
      <trkpt lat="47.2873" lon="10.950415">
        <ele>803.75</ele>
      </trkpt>
      <trkpt lat="47.287236" lon="10.950537">
        <ele>801.75</ele>
      </trkpt>
      <trkpt lat="47.286981" lon="10.950811">
        <ele>796.25</ele>
      </trkpt>
      <trkpt lat="47.286849" lon="10.950833">
        <ele>795</ele>
      </trkpt>
      <trkpt lat="47.286782" lon="10.950934">
        <ele>793</ele>
      </trkpt>
      <trkpt lat="47.286749" lon="10.951087">
        <ele>790.75</ele>
      </trkpt>
      <trkpt lat="47.286703" lon="10.951237">
        <ele>788.5</ele>
      </trkpt>
      <trkpt lat="47.286644" lon="10.951316">
        <ele>787.5</ele>
      </trkpt>
      <trkpt lat="47.286441" lon="10.951631">
        <ele>782.75</ele>
      </trkpt>
      <trkpt lat="47.28631" lon="10.951863">
        <ele>777.75</ele>
      </trkpt>
      <trkpt lat="47.286206" lon="10.952048">
        <ele>774</ele>
      </trkpt>
      <trkpt lat="47.28607" lon="10.952205">
        <ele>770.75</ele>
      </trkpt>
      <trkpt lat="47.285988" lon="10.952317">
        <ele>768.5</ele>
      </trkpt>
      <trkpt lat="47.285911" lon="10.952301">
        <ele>768.75</ele>
      </trkpt>
      <trkpt lat="47.2858" lon="10.952439">
        <ele>765.5</ele>
      </trkpt>
      <trkpt lat="47.28573" lon="10.952504">
        <ele>763.25</ele>
      </trkpt>
      <trkpt lat="47.285669" lon="10.952549">
        <ele>760.75</ele>
      </trkpt>
      <trkpt lat="47.285577" lon="10.952578">
        <ele>758.5</ele>
      </trkpt>
      <trkpt lat="47.28549" lon="10.952592">
        <ele>757</ele>
      </trkpt>
      <trkpt lat="47.285427" lon="10.952597">
        <ele>756</ele>
      </trkpt>
      <trkpt lat="47.285365" lon="10.952589">
        <ele>755.25</ele>
      </trkpt>
      <trkpt lat="47.285257" lon="10.952538">
        <ele>755.5</ele>
      </trkpt>
      <trkpt lat="47.28516" lon="10.952475">
        <ele>755.75</ele>
      </trkpt>
      <trkpt lat="47.284803" lon="10.952162">
        <ele>754.5</ele>
      </trkpt>
      <trkpt lat="47.284367" lon="10.951816">
        <ele>748.25</ele>
      </trkpt>
      <trkpt lat="47.284321" lon="10.951779">
        <ele>747.75</ele>
      </trkpt>
      <trkpt lat="47.284273" lon="10.951765">
        <ele>746.5</ele>
      </trkpt>
      <trkpt lat="47.284217" lon="10.951774">
        <ele>744.75</ele>
      </trkpt>
      <trkpt lat="47.284181" lon="10.951807">
        <ele>741.7541785714415</ele>
      </trkpt>
      <trkpt lat="47.283988462406256" lon="10.951647762215174">
        <ele>734.3143986315378</ele>
      </trkpt>
      <trkpt lat="47.28386301508448" lon="10.951590861978303">
        <ele>729.3842426520813</ele>
      </trkpt>
      <trkpt lat="47.28376651694245" lon="10.951533961741347">
        <ele>726.1625737095728</ele>
      </trkpt>
      <trkpt lat="47.283718267805" lon="10.951491286562629">
        <ele>724.6046745483776</ele>
      </trkpt>
      <trkpt lat="47.28370861797251" lon="10.95129213573415">
        <ele>723.9997122742707</ele>
      </trkpt>
      <trkpt lat="47.283686" lon="10.950923">
        <ele>731.75</ele>
      </trkpt>
      <trkpt lat="47.283695" lon="10.950945">
        <ele>732</ele>
      </trkpt>
      <trkpt lat="47.283663" lon="10.951075">
        <ele>730</ele>
      </trkpt>
      <trkpt lat="47.283502" lon="10.951147">
        <ele>723.25</ele>
      </trkpt>
      <trkpt lat="47.283449" lon="10.951385">
        <ele>720.25</ele>
      </trkpt>
      <trkpt lat="47.28334" lon="10.951545">
        <ele>715.5</ele>
      </trkpt>
      <trkpt lat="47.283509" lon="10.951638">
        <ele>721.25</ele>
      </trkpt>
      <trkpt lat="47.283623" lon="10.951836">
        <ele>723.75</ele>
      </trkpt>
      <trkpt lat="47.283628" lon="10.951845">
        <ele>724</ele>
      </trkpt>
      <trkpt lat="47.283628" lon="10.952005">
        <ele>722.75</ele>
      </trkpt>
      <trkpt lat="47.283558" lon="10.952088">
        <ele>720</ele>
      </trkpt>
      <trkpt lat="47.283719" lon="10.952356">
        <ele>722.5</ele>
      </trkpt>
      <trkpt lat="47.283926" lon="10.952392">
        <ele>727.5</ele>
      </trkpt>
      <trkpt lat="47.283979" lon="10.952542">
        <ele>726.75</ele>
      </trkpt>
      <trkpt lat="47.284105" lon="10.952573">
        <ele>729</ele>
      </trkpt>
      <trkpt lat="47.284129" lon="10.952656">
        <ele>728</ele>
      </trkpt>
      <trkpt lat="47.284199" lon="10.952775">
        <ele>727.25</ele>
      </trkpt>
      <trkpt lat="47.284385" lon="10.952889">
        <ele>729</ele>
      </trkpt>
      <trkpt lat="47.284599" lon="10.95292">
        <ele>732.75</ele>
      </trkpt>
      <trkpt lat="47.28483" lon="10.953095">
        <ele>733.25</ele>
      </trkpt>
      <trkpt lat="47.285001" lon="10.953426">
        <ele>726</ele>
      </trkpt>
      <trkpt lat="47.284978" lon="10.953458">
        <ele>724.25</ele>
      </trkpt>
      <trkpt lat="47.28494" lon="10.953479">
        <ele>722.75</ele>
      </trkpt>
      <trkpt lat="47.284911" lon="10.953474">
        <ele>722.5</ele>
      </trkpt>
      <trkpt lat="47.284785" lon="10.953485">
        <ele>720.25</ele>
      </trkpt>
      <trkpt lat="47.28498" lon="10.953725">
        <ele>713.25</ele>
      </trkpt>
      <trkpt lat="47.285008" lon="10.95374">
        <ele>712.5</ele>
      </trkpt>
      <trkpt lat="47.28506" lon="10.953769">
        <ele>711.75</ele>
      </trkpt>
      <trkpt lat="47.284795" lon="10.953778">
        <ele>708.75</ele>
      </trkpt>
      <trkpt lat="47.284747" lon="10.953737">
        <ele>709.75</ele>
      </trkpt>
      <trkpt lat="47.284824" lon="10.953855">
        <ele>706</ele>
      </trkpt>
      <trkpt lat="47.284983" lon="10.953915">
        <ele>705.25</ele>
      </trkpt>
      <trkpt lat="47.284705" lon="10.953902">
        <ele>702.75</ele>
      </trkpt>
      <trkpt lat="47.2848" lon="10.953995">
        <ele>700</ele>
      </trkpt>
      <trkpt lat="47.284918" lon="10.954092">
        <ele>697.25</ele>
      </trkpt>
      <trkpt lat="47.284629" lon="10.954069">
        <ele>695.5</ele>
      </trkpt>
      <trkpt lat="47.284661" lon="10.954155">
        <ele>692.5</ele>
      </trkpt>
      <trkpt lat="47.284784" lon="10.954211">
        <ele>691.75</ele>
      </trkpt>
      <trkpt lat="47.284946" lon="10.954254">
        <ele>691.75</ele>
      </trkpt>
      <trkpt lat="47.285083" lon="10.954332">
        <ele>690</ele>
      </trkpt>
      <trkpt lat="47.285348" lon="10.954305">
        <ele>691.25</ele>
      </trkpt>
      <trkpt lat="47.285406" lon="10.954331">
        <ele>690.5</ele>
      </trkpt>
      <trkpt lat="47.285405" lon="10.95433">
        <ele>690.5</ele>
      </trkpt>
      <trkpt lat="47.285534" lon="10.954388">
        <ele>689.5</ele>
      </trkpt>
      <trkpt lat="47.285557" lon="10.95443">
        <ele>688.5</ele>
      </trkpt>
      <trkpt lat="47.285563" lon="10.954456">
        <ele>687.75</ele>
      </trkpt>
      <trkpt lat="47.285558" lon="10.954586">
        <ele>684.25</ele>
      </trkpt>
      <trkpt lat="47.284588" lon="10.95486">
        <ele>671.5</ele>
      </trkpt>
      <trkpt lat="47.284085" lon="10.954996">
        <ele>665.75</ele>
      </trkpt>
      <trkpt lat="47.283329" lon="10.955075">
        <ele>664.25</ele>
      </trkpt>
      <trkpt lat="47.282867" lon="10.955123">
        <ele>661.5</ele>
      </trkpt>
      <trkpt lat="47.282386" lon="10.95521">
        <ele>658.5</ele>
      </trkpt>
      <trkpt lat="47.282113" lon="10.955372">
        <ele>657.25</ele>
      </trkpt>
      <trkpt lat="47.282051" lon="10.955409">
        <ele>657</ele>
      </trkpt>
      <trkpt lat="47.281593" lon="10.955494">
        <ele>654.75</ele>
      </trkpt>
      <trkpt lat="47.281451" lon="10.955584">
        <ele>654.25</ele>
      </trkpt>
      <trkpt lat="47.28153" lon="10.955815">
        <ele>654.25</ele>
      </trkpt>
      <trkpt lat="47.281536" lon="10.955831">
        <ele>654.5</ele>
      </trkpt>
      <trkpt lat="47.281558" lon="10.955988">
        <ele>654.75</ele>
      </trkpt>
      <trkpt lat="47.281566" lon="10.956067">
        <ele>655</ele>
      </trkpt>
      <trkpt lat="47.281594" lon="10.956404">
        <ele>655.75</ele>
      </trkpt>
      <trkpt lat="47.281627" lon="10.956527">
        <ele>656.25</ele>
      </trkpt>
      <trkpt lat="47.281669" lon="10.956637">
        <ele>656.75</ele>
      </trkpt>
      <trkpt lat="47.281774" lon="10.956843">
        <ele>657.75</ele>
      </trkpt>
      <trkpt lat="47.281931" lon="10.957016">
        <ele>659.25</ele>
      </trkpt>
      <trkpt lat="47.282283" lon="10.957225">
        <ele>662.75</ele>
      </trkpt>
      <trkpt lat="47.282344" lon="10.957257">
        <ele>663.25</ele>
      </trkpt>
      <trkpt lat="47.282254" lon="10.957643">
        <ele>664.75</ele>
      </trkpt>
      <trkpt lat="47.282167" lon="10.958017">
        <ele>667.5</ele>
      </trkpt>
      <trkpt lat="47.282124" lon="10.958117">
        <ele>667.75</ele>
      </trkpt>
      <trkpt lat="47.282076" lon="10.958188">
        <ele>668</ele>
      </trkpt>
      <trkpt lat="47.282052" lon="10.958216">
        <ele>668</ele>
      </trkpt>
      <trkpt lat="47.281981" lon="10.958301">
        <ele>668</ele>
      </trkpt>
      <trkpt lat="47.281959" lon="10.958365">
        <ele>668.75</ele>
      </trkpt>
      <trkpt lat="47.28196" lon="10.958435">
        <ele>670.75</ele>
      </trkpt>
      <trkpt lat="47.281984" lon="10.958508">
        <ele>672.75</ele>
      </trkpt>
      <trkpt lat="47.282053" lon="10.95858">
        <ele>675.25</ele>
      </trkpt>
      <trkpt lat="47.282" lon="10.958714">
        <ele>678.25</ele>
      </trkpt>
      <trkpt lat="47.281969" lon="10.959041">
        <ele>686.75</ele>
      </trkpt>
      <trkpt lat="47.281899" lon="10.959082">
        <ele>688</ele>
      </trkpt>
      <trkpt lat="47.281857" lon="10.959083">
        <ele>688</ele>
      </trkpt>
      <trkpt lat="47.281502" lon="10.959017">
        <ele>686</ele>
      </trkpt>
      <trkpt lat="47.281073" lon="10.958957">
        <ele>683.75</ele>
      </trkpt>
      <trkpt lat="47.281007" lon="10.958948">
        <ele>683.5</ele>
      </trkpt>
      <trkpt lat="47.28084" lon="10.958986">
        <ele>684.5</ele>
      </trkpt>
      <trkpt lat="47.28071" lon="10.959077">
        <ele>684.25</ele>
      </trkpt>
      <trkpt lat="47.28057" lon="10.959389">
        <ele>687.5</ele>
      </trkpt>
      <trkpt lat="47.280494" lon="10.959736">
        <ele>692</ele>
      </trkpt>
      <trkpt lat="47.280518" lon="10.960064">
        <ele>698.25</ele>
      </trkpt>
      <trkpt lat="47.28069" lon="10.959779">
        <ele>700.75</ele>
      </trkpt>
      <trkpt lat="47.280761" lon="10.959762">
        <ele>703.25</ele>
      </trkpt>
      <trkpt lat="47.280827" lon="10.95971">
        <ele>704.5</ele>
      </trkpt>
      <trkpt lat="47.281032" lon="10.959672">
        <ele>706</ele>
      </trkpt>
      <trkpt lat="47.281053" lon="10.959777">
        <ele>709.5</ele>
      </trkpt>
      <trkpt lat="47.280961" lon="10.96006">
        <ele>713.75</ele>
      </trkpt>
      <trkpt lat="47.280905" lon="10.960233">
        <ele>716.5</ele>
      </trkpt>
      <trkpt lat="47.280809" lon="10.960434">
        <ele>715.25</ele>
      </trkpt>
      <trkpt lat="47.280793" lon="10.960582">
        <ele>715.5</ele>
      </trkpt>
      <trkpt lat="47.280848" lon="10.960699">
        <ele>719.25</ele>
      </trkpt>
      <trkpt lat="47.280848" lon="10.960841">
        <ele>720.5</ele>
      </trkpt>
      <trkpt lat="47.280908" lon="10.96081">
        <ele>722.5</ele>
      </trkpt>
      <trkpt lat="47.281065" lon="10.960586">
        <ele>725.25</ele>
      </trkpt>
      <trkpt lat="47.281524" lon="10.960401">
        <ele>735</ele>
      </trkpt>
      <trkpt lat="47.281514" lon="10.960527">
        <ele>738</ele>
      </trkpt>
      <trkpt lat="47.281478" lon="10.960653">
        <ele>739.25</ele>
      </trkpt>
      <trkpt lat="47.281396" lon="10.960953">
        <ele>742.75</ele>
      </trkpt>
      <trkpt lat="47.281225" lon="10.961143">
        <ele>736.5</ele>
      </trkpt>
      <trkpt lat="47.281235" lon="10.961255">
        <ele>737.75</ele>
      </trkpt>
      <trkpt lat="47.281405" lon="10.961412">
        <ele>747.75</ele>
      </trkpt>
      <trkpt lat="47.281445" lon="10.961774">
        <ele>752.25</ele>
      </trkpt>
      <trkpt lat="47.281573" lon="10.962095">
        <ele>759.5</ele>
      </trkpt>
      <trkpt lat="47.281781" lon="10.961684">
        <ele>768.5</ele>
      </trkpt>
      <trkpt lat="47.281908" lon="10.961716">
        <ele>770.5</ele>
      </trkpt>
      <trkpt lat="47.28198" lon="10.961826">
        <ele>772.25</ele>
      </trkpt>
      <trkpt lat="47.281983" lon="10.961937">
        <ele>773</ele>
      </trkpt>
      <trkpt lat="47.281854" lon="10.962403">
        <ele>771.75</ele>
      </trkpt>
      <trkpt lat="47.281914" lon="10.96265">
        <ele>771.5</ele>
      </trkpt>
      <trkpt lat="47.281934" lon="10.962668">
        <ele>772</ele>
      </trkpt>
      <trkpt lat="47.281967" lon="10.962656">
        <ele>773.5</ele>
      </trkpt>
      <trkpt lat="47.282061" lon="10.962519">
        <ele>778.75</ele>
      </trkpt>
      <trkpt lat="47.282096" lon="10.96249">
        <ele>780.25</ele>
      </trkpt>
      <trkpt lat="47.282139" lon="10.962488">
        <ele>781.5</ele>
      </trkpt>
      <trkpt lat="47.282173" lon="10.962567">
        <ele>782</ele>
      </trkpt>
      <trkpt lat="47.282252" lon="10.962716">
        <ele>783.25</ele>
      </trkpt>
      <trkpt lat="47.282355" lon="10.96284">
        <ele>786.25</ele>
      </trkpt>
      <trkpt lat="47.282346" lon="10.962821">
        <ele>786</ele>
      </trkpt>
      <trkpt lat="47.282355" lon="10.96284">
        <ele>786.25</ele>
      </trkpt>
      <trkpt lat="47.282448" lon="10.962972">
        <ele>789.25</ele>
      </trkpt>
      <trkpt lat="47.282467" lon="10.963016">
        <ele>790</ele>
      </trkpt>
      <trkpt lat="47.282599" lon="10.963457">
        <ele>790.25</ele>
      </trkpt>
      <trkpt lat="47.282637" lon="10.963537">
        <ele>790.25</ele>
      </trkpt>
      <trkpt lat="47.282714" lon="10.963673">
        <ele>790.75</ele>
      </trkpt>
      <trkpt lat="47.283002" lon="10.964025">
        <ele>795.5</ele>
      </trkpt>
      <trkpt lat="47.283206" lon="10.964262">
        <ele>801.25</ele>
      </trkpt>
      <trkpt lat="47.28325" lon="10.964313">
        <ele>803</ele>
      </trkpt>
      <trkpt lat="47.283145" lon="10.964662">
        <ele>800</ele>
      </trkpt>
      <trkpt lat="47.283113" lon="10.965023">
        <ele>798.75</ele>
      </trkpt>
      <trkpt lat="47.283072" lon="10.965133">
        <ele>795</ele>
      </trkpt>
      <trkpt lat="47.283064" lon="10.965305">
        <ele>792.25</ele>
      </trkpt>
      <trkpt lat="47.283104" lon="10.965616">
        <ele>790</ele>
      </trkpt>
      <trkpt lat="47.283077" lon="10.966009">
        <ele>780.25</ele>
      </trkpt>
      <trkpt lat="47.283119" lon="10.966182">
        <ele>777.5</ele>
      </trkpt>
      <trkpt lat="47.283163" lon="10.966431">
        <ele>773</ele>
      </trkpt>
      <trkpt lat="47.28321" lon="10.966544">
        <ele>772.75</ele>
      </trkpt>
      <trkpt lat="47.283257" lon="10.966699">
        <ele>771.25</ele>
      </trkpt>
      <trkpt lat="47.283348" lon="10.967076">
        <ele>767.75</ele>
      </trkpt>
      <trkpt lat="47.283362" lon="10.967134">
        <ele>767.25</ele>
      </trkpt>
      <trkpt lat="47.283368" lon="10.967317">
        <ele>763.25</ele>
      </trkpt>
      <trkpt lat="47.283364" lon="10.967529">
        <ele>758.25</ele>
      </trkpt>
      <trkpt lat="47.283297" lon="10.967869">
        <ele>746</ele>
      </trkpt>
      <trkpt lat="47.283292" lon="10.968154">
        <ele>739.5</ele>
      </trkpt>
      <trkpt lat="47.283253" lon="10.968462">
        <ele>730</ele>
      </trkpt>
      <trkpt lat="47.283242" lon="10.968555">
        <ele>727.25</ele>
      </trkpt>
      <trkpt lat="47.283254" lon="10.968641">
        <ele>726.75</ele>
      </trkpt>
      <trkpt lat="47.283275" lon="10.96869">
        <ele>727.25</ele>
      </trkpt>
      <trkpt lat="47.283288" lon="10.968748">
        <ele>727.25</ele>
      </trkpt>
      <trkpt lat="47.283304" lon="10.969156">
        <ele>720.75</ele>
      </trkpt>
      <trkpt lat="47.283356" lon="10.969462">
        <ele>720.5</ele>
      </trkpt>
      <trkpt lat="47.283378" lon="10.969666">
        <ele>719.25</ele>
      </trkpt>
      <trkpt lat="47.283504" lon="10.970119">
        <ele>721</ele>
      </trkpt>
      <trkpt lat="47.283654" lon="10.97058">
        <ele>719.75</ele>
      </trkpt>
      <trkpt lat="47.283725" lon="10.970769">
        <ele>719.75</ele>
      </trkpt>
      <trkpt lat="47.283826" lon="10.970862">
        <ele>724.25</ele>
      </trkpt>
      <trkpt lat="47.283918" lon="10.971136">
        <ele>719.5</ele>
      </trkpt>
      <trkpt lat="47.284199" lon="10.971335">
        <ele>730.75</ele>
      </trkpt>
      <trkpt lat="47.284353" lon="10.971609">
        <ele>729.75</ele>
      </trkpt>
      <trkpt lat="47.284422" lon="10.971781">
        <ele>729.25</ele>
      </trkpt>
      <trkpt lat="47.284475" lon="10.972013">
        <ele>726.25</ele>
      </trkpt>
      <trkpt lat="47.284476" lon="10.972145">
        <ele>722.5</ele>
      </trkpt>
      <trkpt lat="47.284523" lon="10.972446">
        <ele>717.25</ele>
      </trkpt>
      <trkpt lat="47.284532" lon="10.972613">
        <ele>713.5</ele>
      </trkpt>
      <trkpt lat="47.284522" lon="10.972778">
        <ele>708.5</ele>
      </trkpt>
      <trkpt lat="47.284556" lon="10.972973">
        <ele>706</ele>
      </trkpt>
      <trkpt lat="47.284579" lon="10.973035">
        <ele>706.25</ele>
      </trkpt>
      <trkpt lat="47.284585" lon="10.973116">
        <ele>704.5</ele>
      </trkpt>
      <trkpt lat="47.284676" lon="10.973378">
        <ele>705.25</ele>
      </trkpt>
      <trkpt lat="47.28469" lon="10.9737">
        <ele>698.25</ele>
      </trkpt>
      <trkpt lat="47.284716" lon="10.973754">
        <ele>699</ele>
      </trkpt>
      <trkpt lat="47.284786" lon="10.974097">
        <ele>695.25</ele>
      </trkpt>
      <trkpt lat="47.284901" lon="10.974505">
        <ele>690.5</ele>
      </trkpt>
      <trkpt lat="47.28498" lon="10.974631">
        <ele>691</ele>
      </trkpt>
      <trkpt lat="47.28507" lon="10.974889">
        <ele>689.75</ele>
      </trkpt>
      <trkpt lat="47.285138" lon="10.975187">
        <ele>689.25</ele>
      </trkpt>
      <trkpt lat="47.285184" lon="10.975313">
        <ele>691.25</ele>
      </trkpt>
      <trkpt lat="47.285209" lon="10.975417">
        <ele>691.5</ele>
      </trkpt>
      <trkpt lat="47.285229" lon="10.975686">
        <ele>687.75</ele>
      </trkpt>
      <trkpt lat="47.28529" lon="10.976186">
        <ele>684.5</ele>
      </trkpt>
      <trkpt lat="47.285226" lon="10.976112">
        <ele>680.5</ele>
      </trkpt>
      <trkpt lat="47.285381" lon="10.976906">
        <ele>680.75</ele>
      </trkpt>
      <trkpt lat="47.285464" lon="10.977252">
        <ele>682</ele>
      </trkpt>
      <trkpt lat="47.285481" lon="10.977441">
        <ele>680.5</ele>
      </trkpt>
      <trkpt lat="47.285556" lon="10.977846">
        <ele>679</ele>
      </trkpt>
      <trkpt lat="47.285601" lon="10.977966">
        <ele>680</ele>
      </trkpt>
      <trkpt lat="47.285612" lon="10.978084">
        <ele>678.5</ele>
      </trkpt>
      <trkpt lat="47.28569" lon="10.97827">
        <ele>680</ele>
      </trkpt>
      <trkpt lat="47.28578" lon="10.978682">
        <ele>677</ele>
      </trkpt>
      <trkpt lat="47.285787" lon="10.978737">
        <ele>676</ele>
      </trkpt>
      <trkpt lat="47.285899" lon="10.979">
        <ele>679.25</ele>
      </trkpt>
      <trkpt lat="47.285958" lon="10.979862">
        <ele>672</ele>
      </trkpt>
      <trkpt lat="47.285984" lon="10.980374">
        <ele>669.75</ele>
      </trkpt>
      <trkpt lat="47.285969" lon="10.980771">
        <ele>665.75</ele>
      </trkpt>
      <trkpt lat="47.285996" lon="10.981109">
        <ele>665.75</ele>
      </trkpt>
      <trkpt lat="47.286025" lon="10.981231">
        <ele>667.25</ele>
      </trkpt>
      <trkpt lat="47.286057" lon="10.981307">
        <ele>669.25</ele>
      </trkpt>
      <trkpt lat="47.286066" lon="10.981564">
        <ele>668.25</ele>
      </trkpt>
      <trkpt lat="47.286125" lon="10.981781">
        <ele>671.5</ele>
      </trkpt>
      <trkpt lat="47.28619" lon="10.981848">
        <ele>676.25</ele>
      </trkpt>
      <trkpt lat="47.286191" lon="10.981923">
        <ele>675.75</ele>
      </trkpt>
      <trkpt lat="47.286237" lon="10.982037">
        <ele>678.25</ele>
      </trkpt>
      <trkpt lat="47.286279" lon="10.982315">
        <ele>679</ele>
      </trkpt>
      <trkpt lat="47.286276" lon="10.982464">
        <ele>677.5</ele>
      </trkpt>
      <trkpt lat="47.286341" lon="10.982695">
        <ele>680.25</ele>
      </trkpt>
      <trkpt lat="47.286373" lon="10.982547">
        <ele>683.25</ele>
      </trkpt>
      <trkpt lat="47.286436" lon="10.982669">
        <ele>686.5</ele>
      </trkpt>
      <trkpt lat="47.28644" lon="10.982751">
        <ele>686.25</ele>
      </trkpt>
      <trkpt lat="47.286386" lon="10.982853">
        <ele>682.25</ele>
      </trkpt>
      <trkpt lat="47.286298" lon="10.982913">
        <ele>676.5</ele>
      </trkpt>
      <trkpt lat="47.286283" lon="10.983188">
        <ele>674.25</ele>
      </trkpt>
      <trkpt lat="47.286237" lon="10.983576">
        <ele>669</ele>
      </trkpt>
      <trkpt lat="47.286292" lon="10.983733">
        <ele>670.25</ele>
      </trkpt>
      <trkpt lat="47.28632" lon="10.983813">
        <ele>671.25</ele>
      </trkpt>
      <trkpt lat="47.28635" lon="10.984091">
        <ele>670</ele>
      </trkpt>
      <trkpt lat="47.286336" lon="10.984461">
        <ele>664.5</ele>
      </trkpt>
      <trkpt lat="47.286345" lon="10.984991">
        <ele>657.25</ele>
      </trkpt>
      <trkpt lat="47.286363" lon="10.985095">
        <ele>657</ele>
      </trkpt>
      <trkpt lat="47.286353" lon="10.985121">
        <ele>656.25</ele>
      </trkpt>
      <trkpt lat="47.286231" lon="10.985126">
        <ele>651.75</ele>
      </trkpt>
      <trkpt lat="47.285426" lon="10.985313">
        <ele>636.5</ele>
      </trkpt>
      <trkpt lat="47.285397" lon="10.985319">
        <ele>636.5</ele>
      </trkpt>
      <trkpt lat="47.285397" lon="10.985319">
        <ele>636.5</ele>
      </trkpt>
      <trkpt lat="47.285365" lon="10.985326">
        <ele>636.5</ele>
      </trkpt>
      <trkpt lat="47.285362" lon="10.985417">
        <ele>636.25</ele>
      </trkpt>
      <trkpt lat="47.285372" lon="10.985536">
        <ele>636.25</ele>
      </trkpt>
      <trkpt lat="47.285386" lon="10.985625">
        <ele>636</ele>
      </trkpt>
      <trkpt lat="47.28541" lon="10.985714">
        <ele>636</ele>
      </trkpt>
      <trkpt lat="47.285461" lon="10.985822">
        <ele>636</ele>
      </trkpt>
      <trkpt lat="47.285486" lon="10.986035">
        <ele>636</ele>
      </trkpt>
      <trkpt lat="47.28555" lon="10.986429">
        <ele>636</ele>
      </trkpt>
      <trkpt lat="47.285606" lon="10.98693">
        <ele>635</ele>
      </trkpt>
      <trkpt lat="47.286008" lon="10.98903">
        <ele>632.75</ele>
      </trkpt>
      <trkpt lat="47.286021" lon="10.989181">
        <ele>632.75</ele>
      </trkpt>
      <trkpt lat="47.286012" lon="10.989422">
        <ele>633.5</ele>
      </trkpt>
      <trkpt lat="47.286018" lon="10.989607">
        <ele>634</ele>
      </trkpt>
      <trkpt lat="47.286295" lon="10.991169">
        <ele>637.75</ele>
      </trkpt>
      <trkpt lat="47.286422" lon="10.991765">
        <ele>638.25</ele>
      </trkpt>
      <trkpt lat="47.286516" lon="10.992367">
        <ele>638</ele>
      </trkpt>
      <trkpt lat="47.286644" lon="10.993102">
        <ele>637.75</ele>
      </trkpt>
      <trkpt lat="47.286699" lon="10.993354">
        <ele>638</ele>
      </trkpt>
      <trkpt lat="47.286853" lon="10.993747">
        <ele>638</ele>
      </trkpt>
      <trkpt lat="47.286926" lon="10.993972">
        <ele>638.25</ele>
      </trkpt>
      <trkpt lat="47.287028" lon="10.99422">
        <ele>638.75</ele>
      </trkpt>
      <trkpt lat="47.28711" lon="10.994724">
        <ele>640.25</ele>
      </trkpt>
      <trkpt lat="47.287154" lon="10.99522">
        <ele>640.75</ele>
      </trkpt>
      <trkpt lat="47.287148" lon="10.995856">
        <ele>639.5</ele>
      </trkpt>
      <trkpt lat="47.287163" lon="10.996037">
        <ele>638.75</ele>
      </trkpt>
      <trkpt lat="47.287323" lon="10.996872">
        <ele>636.75</ele>
      </trkpt>
      <trkpt lat="47.287458" lon="10.997691">
        <ele>635.5</ele>
      </trkpt>
      <trkpt lat="47.287791" lon="10.999594">
        <ele>634.5</ele>
      </trkpt>
      <trkpt lat="47.287824" lon="10.999772">
        <ele>634.5</ele>
      </trkpt>
      <trkpt lat="47.28793" lon="10.999977">
        <ele>634.25</ele>
      </trkpt>
      <trkpt lat="47.288013" lon="11.000162">
        <ele>634.25</ele>
      </trkpt>
      <trkpt lat="47.288306" lon="11.001176">
        <ele>635.25</ele>
      </trkpt>
      <trkpt lat="47.288316" lon="11.001424">
        <ele>635.5</ele>
      </trkpt>
      <trkpt lat="47.288325" lon="11.001466">
        <ele>635.25</ele>
      </trkpt>
      <trkpt lat="47.2885" lon="11.002269">
        <ele>634.5</ele>
      </trkpt>
      <trkpt lat="47.288507" lon="11.00258">
        <ele>634.25</ele>
      </trkpt>
      <trkpt lat="47.288486" lon="11.002713">
        <ele>634</ele>
      </trkpt>
      <trkpt lat="47.28841" lon="11.002858">
        <ele>634.25</ele>
      </trkpt>
      <trkpt lat="47.288402" lon="11.003031">
        <ele>634</ele>
      </trkpt>
      <trkpt lat="47.289043" lon="11.006607">
        <ele>630.25</ele>
      </trkpt>
      <trkpt lat="47.289287" lon="11.007222">
        <ele>631.75</ele>
      </trkpt>
      <trkpt lat="47.289383" lon="11.007367">
        <ele>631.75</ele>
      </trkpt>
      <trkpt lat="47.28952" lon="11.007681">
        <ele>631.25</ele>
      </trkpt>
      <trkpt lat="47.289636" lon="11.007858">
        <ele>630.75</ele>
      </trkpt>
      <trkpt lat="47.289731" lon="11.008022">
        <ele>630.5</ele>
      </trkpt>
      <trkpt lat="47.289766" lon="11.008184">
        <ele>630.5</ele>
      </trkpt>
      <trkpt lat="47.289785" lon="11.008417">
        <ele>631</ele>
      </trkpt>
      <trkpt lat="47.289844" lon="11.009672">
        <ele>634</ele>
      </trkpt>
      <trkpt lat="47.289762" lon="11.009549">
        <ele>633.25</ele>
      </trkpt>
      <trkpt lat="47.289636" lon="11.008267">
        <ele>631.5</ele>
      </trkpt>
      <trkpt lat="47.289591" lon="11.008135">
        <ele>631.5</ele>
      </trkpt>
      <trkpt lat="47.289496" lon="11.008078">
        <ele>632</ele>
      </trkpt>
      <trkpt lat="47.28942" lon="11.008071">
        <ele>632.25</ele>
      </trkpt>
      <trkpt lat="47.288677" lon="11.00837">
        <ele>633.75</ele>
      </trkpt>
      <trkpt lat="47.288471" lon="11.008446">
        <ele>633.5</ele>
      </trkpt>
      <trkpt lat="47.288267" lon="11.008488">
        <ele>633.25</ele>
      </trkpt>
      <trkpt lat="47.288048" lon="11.008495">
        <ele>633.25</ele>
      </trkpt>
      <trkpt lat="47.28767" lon="11.008458">
        <ele>633</ele>
      </trkpt>
      <trkpt lat="47.28759" lon="11.008466">
        <ele>633</ele>
      </trkpt>
      <trkpt lat="47.287492" lon="11.008481">
        <ele>633.25</ele>
      </trkpt>
      <trkpt lat="47.287492" lon="11.008481">
        <ele>633.25</ele>
      </trkpt>
      <trkpt lat="47.28741" lon="11.008494">
        <ele>633.5</ele>
      </trkpt>
      <trkpt lat="47.287224" lon="11.008535">
        <ele>634.5</ele>
      </trkpt>
      <trkpt lat="47.287128" lon="11.008572">
        <ele>635</ele>
      </trkpt>
      <trkpt lat="47.287063" lon="11.008602">
        <ele>635.5</ele>
      </trkpt>
      <trkpt lat="47.286977" lon="11.00866">
        <ele>636</ele>
      </trkpt>
      <trkpt lat="47.286853" lon="11.008714">
        <ele>636.75</ele>
      </trkpt>
      <trkpt lat="47.286631" lon="11.00874">
        <ele>638.5</ele>
      </trkpt>
      <trkpt lat="47.286603" lon="11.00873">
        <ele>638.75</ele>
      </trkpt>
      <trkpt lat="47.286569" lon="11.008699">
        <ele>639.25</ele>
      </trkpt>
      <trkpt lat="47.286313" lon="11.008078">
        <ele>640.75</ele>
      </trkpt>
      <trkpt lat="47.286218" lon="11.007936">
        <ele>641</ele>
      </trkpt>
      <trkpt lat="47.286148" lon="11.007867">
        <ele>641.25</ele>
      </trkpt>
      <trkpt lat="47.286098" lon="11.007862">
        <ele>642</ele>
      </trkpt>
      <trkpt lat="47.286013" lon="11.007923">
        <ele>643.5</ele>
      </trkpt>
      <trkpt lat="47.285904" lon="11.008037">
        <ele>646</ele>
      </trkpt>
      <trkpt lat="47.285859" lon="11.0081">
        <ele>647.25</ele>
      </trkpt>
      <trkpt lat="47.285611" lon="11.008488">
        <ele>652</ele>
      </trkpt>
      <trkpt lat="47.285355" lon="11.008861">
        <ele>656.75</ele>
      </trkpt>
      <trkpt lat="47.285053" lon="11.009184">
        <ele>663.25</ele>
      </trkpt>
      <trkpt lat="47.284987" lon="11.009235">
        <ele>664.5</ele>
      </trkpt>
      <trkpt lat="47.284939" lon="11.009249">
        <ele>665</ele>
      </trkpt>
      <trkpt lat="47.284444" lon="11.009498">
        <ele>673.25</ele>
      </trkpt>
      <trkpt lat="47.284066" lon="11.009792">
        <ele>680.75</ele>
      </trkpt>
      <trkpt lat="47.28384" lon="11.010015">
        <ele>685.75</ele>
      </trkpt>
      <trkpt lat="47.283789" lon="11.010158">
        <ele>687.25</ele>
      </trkpt>
      <trkpt lat="47.283714" lon="11.010252">
        <ele>688.75</ele>
      </trkpt>
      <trkpt lat="47.283212" lon="11.010749">
        <ele>699</ele>
      </trkpt>
      <trkpt lat="47.282741" lon="11.011148">
        <ele>708.5</ele>
      </trkpt>
      <trkpt lat="47.282604" lon="11.01131">
        <ele>712</ele>
      </trkpt>
      <trkpt lat="47.282535" lon="11.011433">
        <ele>714.25</ele>
      </trkpt>
      <trkpt lat="47.282484" lon="11.01158">
        <ele>716.25</ele>
      </trkpt>
      <trkpt lat="47.282369" lon="11.011997">
        <ele>719.5</ele>
      </trkpt>
      <trkpt lat="47.28232" lon="11.012081">
        <ele>720.5</ele>
      </trkpt>
      <trkpt lat="47.282264" lon="11.012128">
        <ele>721.5</ele>
      </trkpt>
      <trkpt lat="47.281933" lon="11.012336">
        <ele>728</ele>
      </trkpt>
      <trkpt lat="47.281723" lon="11.01258">
        <ele>733.5</ele>
      </trkpt>
      <trkpt lat="47.281587" lon="11.012677">
        <ele>737</ele>
      </trkpt>
      <trkpt lat="47.281551" lon="11.012739">
        <ele>738.25</ele>
      </trkpt>
      <trkpt lat="47.281545" lon="11.012857">
        <ele>739.5</ele>
      </trkpt>
      <trkpt lat="47.281465" lon="11.013423">
        <ele>746.5</ele>
      </trkpt>
      <trkpt lat="47.281394" lon="11.013639">
        <ele>749.75</ele>
      </trkpt>
      <trkpt lat="47.281323" lon="11.013917">
        <ele>754</ele>
      </trkpt>
      <trkpt lat="47.281125" lon="11.014358">
        <ele>761.25</ele>
      </trkpt>
      <trkpt lat="47.281156" lon="11.0147">
        <ele>762.25</ele>
      </trkpt>
      <trkpt lat="47.281155" lon="11.014819">
        <ele>762.75</ele>
      </trkpt>
      <trkpt lat="47.281155" lon="11.014819">
        <ele>762.75</ele>
      </trkpt>
      <trkpt lat="47.281153" lon="11.015215">
        <ele>764.75</ele>
      </trkpt>
      <trkpt lat="47.281135" lon="11.015523">
        <ele>766.5</ele>
      </trkpt>
      <trkpt lat="47.281031" lon="11.01618">
        <ele>774.25</ele>
      </trkpt>
      <trkpt lat="47.28101" lon="11.016436">
        <ele>778</ele>
      </trkpt>
      <trkpt lat="47.281043" lon="11.016675">
        <ele>780.25</ele>
      </trkpt>
      <trkpt lat="47.281308" lon="11.017479">
        <ele>788.5</ele>
      </trkpt>
      <trkpt lat="47.281056" lon="11.018073">
        <ele>797.25</ele>
      </trkpt>
      <trkpt lat="47.280977" lon="11.018262">
        <ele>800.5</ele>
      </trkpt>
      <trkpt lat="47.280845" lon="11.01861">
        <ele>802.5</ele>
      </trkpt>
      <trkpt lat="47.280787" lon="11.018763">
        <ele>802.75</ele>
      </trkpt>
      <trkpt lat="47.280555" lon="11.019267">
        <ele>805.75</ele>
      </trkpt>
      <trkpt lat="47.280206" lon="11.019905">
        <ele>817.5</ele>
      </trkpt>
      <trkpt lat="47.280105" lon="11.020205">
        <ele>822.75</ele>
      </trkpt>
      <trkpt lat="47.280085" lon="11.020094">
        <ele>822.75</ele>
      </trkpt>
      <trkpt lat="47.280105" lon="11.020205">
        <ele>822.75</ele>
      </trkpt>
      <trkpt lat="47.280124" lon="11.020687">
        <ele>824</ele>
      </trkpt>
      <trkpt lat="47.280122" lon="11.02096">
        <ele>824</ele>
      </trkpt>
      <trkpt lat="47.280188" lon="11.021139">
        <ele>820.5</ele>
      </trkpt>
      <trkpt lat="47.280376" lon="11.021471">
        <ele>812.5</ele>
      </trkpt>
      <trkpt lat="47.280567" lon="11.021761">
        <ele>806.25</ele>
      </trkpt>
      <trkpt lat="47.280959" lon="11.022305">
        <ele>797.25</ele>
      </trkpt>
      <trkpt lat="47.281074" lon="11.022518">
        <ele>795</ele>
      </trkpt>
      <trkpt lat="47.281124" lon="11.022644">
        <ele>793.75</ele>
      </trkpt>
      <trkpt lat="47.281163" lon="11.022777">
        <ele>792.75</ele>
      </trkpt>
      <trkpt lat="47.281178" lon="11.022884">
        <ele>792.5</ele>
      </trkpt>
      <trkpt lat="47.281182" lon="11.022988">
        <ele>792.75</ele>
      </trkpt>
      <trkpt lat="47.281151" lon="11.023391">
        <ele>794.25</ele>
      </trkpt>
      <trkpt lat="47.281185" lon="11.023877">
        <ele>793.5</ele>
      </trkpt>
      <trkpt lat="47.281122" lon="11.024532">
        <ele>794.75</ele>
      </trkpt>
      <trkpt lat="47.281073" lon="11.024962">
        <ele>795.25</ele>
      </trkpt>
      <trkpt lat="47.280962" lon="11.025482">
        <ele>793.25</ele>
      </trkpt>
      <trkpt lat="47.280953" lon="11.025526">
        <ele>793.25</ele>
      </trkpt>
      <trkpt lat="47.28092" lon="11.025688">
        <ele>792.25</ele>
      </trkpt>
      <trkpt lat="47.280872" lon="11.025747">
        <ele>793</ele>
      </trkpt>
      <trkpt lat="47.28085" lon="11.02583">
        <ele>792.5</ele>
      </trkpt>
      <trkpt lat="47.280814" lon="11.026202">
        <ele>786.75</ele>
      </trkpt>
      <trkpt lat="47.280741" lon="11.02641">
        <ele>785.75</ele>
      </trkpt>
      <trkpt lat="47.280609" lon="11.026706">
        <ele>785.75</ele>
      </trkpt>
      <trkpt lat="47.280538" lon="11.026859">
        <ele>787</ele>
      </trkpt>
      <trkpt lat="47.280259" lon="11.027245">
        <ele>792.5</ele>
      </trkpt>
      <trkpt lat="47.280161" lon="11.027382">
        <ele>794.75</ele>
      </trkpt>
      <trkpt lat="47.279914" lon="11.027746">
        <ele>798</ele>
      </trkpt>
      <trkpt lat="47.279863" lon="11.027859">
        <ele>798.25</ele>
      </trkpt>
      <trkpt lat="47.279823" lon="11.028009">
        <ele>797.5</ele>
      </trkpt>
      <trkpt lat="47.27976" lon="11.028337">
        <ele>795.25</ele>
      </trkpt>
      <trkpt lat="47.279722" lon="11.028594">
        <ele>795.5</ele>
      </trkpt>
      <trkpt lat="47.279689" lon="11.028906">
        <ele>795.25</ele>
      </trkpt>
      <trkpt lat="47.279673" lon="11.02929">
        <ele>795.5</ele>
      </trkpt>
      <trkpt lat="47.279619" lon="11.029653">
        <ele>801.5</ele>
      </trkpt>
      <trkpt lat="47.279634" lon="11.029804">
        <ele>801.75</ele>
      </trkpt>
      <trkpt lat="47.279726" lon="11.030068">
        <ele>798.75</ele>
      </trkpt>
      <trkpt lat="47.279747" lon="11.03019">
        <ele>798.5</ele>
      </trkpt>
      <trkpt lat="47.279717" lon="11.030391">
        <ele>802.25</ele>
      </trkpt>
      <trkpt lat="47.279621" lon="11.030696">
        <ele>810.75</ele>
      </trkpt>
      <trkpt lat="47.279489" lon="11.031069">
        <ele>819.25</ele>
      </trkpt>
      <trkpt lat="47.279451" lon="11.031276">
        <ele>820.75</ele>
      </trkpt>
      <trkpt lat="47.279447" lon="11.031372">
        <ele>820.75</ele>
      </trkpt>
      <trkpt lat="47.279475" lon="11.031497">
        <ele>819</ele>
      </trkpt>
      <trkpt lat="47.279657" lon="11.032007">
        <ele>809.75</ele>
      </trkpt>
      <trkpt lat="47.279747" lon="11.032228">
        <ele>806.75</ele>
      </trkpt>
      <trkpt lat="47.279773" lon="11.032292">
        <ele>806</ele>
      </trkpt>
      <trkpt lat="47.279896" lon="11.032426">
        <ele>802.5</ele>
      </trkpt>
      <trkpt lat="47.280029" lon="11.032519">
        <ele>799.5</ele>
      </trkpt>
      <trkpt lat="47.279846" lon="11.03277">
        <ele>806.75</ele>
      </trkpt>
      <trkpt lat="47.27984" lon="11.032945">
        <ele>808.5</ele>
      </trkpt>
      <trkpt lat="47.27984" lon="11.032945">
        <ele>808.5</ele>
      </trkpt>
      <trkpt lat="47.279838" lon="11.033011">
        <ele>809.25</ele>
      </trkpt>
      <trkpt lat="47.279856" lon="11.034015">
        <ele>816</ele>
      </trkpt>
      <trkpt lat="47.279497" lon="11.034505">
        <ele>831.25</ele>
      </trkpt>
      <trkpt lat="47.279455" lon="11.034577">
        <ele>833.25</ele>
      </trkpt>
      <trkpt lat="47.279445" lon="11.034579">
        <ele>833.25</ele>
      </trkpt>
      <trkpt lat="47.278939" lon="11.034712">
        <ele>841</ele>
      </trkpt>
      <trkpt lat="47.278774" lon="11.034807">
        <ele>844</ele>
      </trkpt>
      <trkpt lat="47.278581" lon="11.034772">
        <ele>845.75</ele>
      </trkpt>
      <trkpt lat="47.278475" lon="11.034677">
        <ele>846.25</ele>
      </trkpt>
      <trkpt lat="47.278399" lon="11.034669">
        <ele>847</ele>
      </trkpt>
      <trkpt lat="47.278328" lon="11.034772">
        <ele>848.75</ele>
      </trkpt>
      <trkpt lat="47.278381" lon="11.035127">
        <ele>854.25</ele>
      </trkpt>
      <trkpt lat="47.278446" lon="11.0353">
        <ele>860.25</ele>
      </trkpt>
      <trkpt lat="47.278393" lon="11.035369">
        <ele>863.5</ele>
      </trkpt>
      <trkpt lat="47.278211" lon="11.035317">
        <ele>864.75</ele>
      </trkpt>
      <trkpt lat="47.278035" lon="11.035214">
        <ele>865.5</ele>
      </trkpt>
      <trkpt lat="47.277821" lon="11.03505">
        <ele>865.5</ele>
      </trkpt>
      <trkpt lat="47.277761" lon="11.035004">
        <ele>866</ele>
      </trkpt>
      <trkpt lat="47.27776" lon="11.035003">
        <ele>866</ele>
      </trkpt>
      <trkpt lat="47.277741" lon="11.034989">
        <ele>866.25</ele>
      </trkpt>
      <trkpt lat="47.27769" lon="11.034845">
        <ele>866.25</ele>
      </trkpt>
      <trkpt lat="47.277678" lon="11.034518">
        <ele>863.25</ele>
      </trkpt>
      <trkpt lat="47.277663" lon="11.034362">
        <ele>862</ele>
      </trkpt>
      <trkpt lat="47.277633" lon="11.03432">
        <ele>862.5</ele>
      </trkpt>
      <trkpt lat="47.27754" lon="11.03439">
        <ele>865.25</ele>
      </trkpt>
      <trkpt lat="47.277522" lon="11.034405">
        <ele>866</ele>
      </trkpt>
      <trkpt lat="47.277248" lon="11.034497">
        <ele>873.5</ele>
      </trkpt>
      <trkpt lat="47.277134" lon="11.034627">
        <ele>878.25</ele>
      </trkpt>
      <trkpt lat="47.277026" lon="11.034751">
        <ele>883.5</ele>
      </trkpt>
      <trkpt lat="47.277028" lon="11.034937">
        <ele>887</ele>
      </trkpt>
      <trkpt lat="47.277119" lon="11.035242">
        <ele>892.75</ele>
      </trkpt>
      <trkpt lat="47.277264" lon="11.035416">
        <ele>892.5</ele>
      </trkpt>
      <trkpt lat="47.27728" lon="11.035434">
        <ele>892.5</ele>
      </trkpt>
      <trkpt lat="47.277408" lon="11.035608">
        <ele>892.5</ele>
      </trkpt>
      <trkpt lat="47.277459" lon="11.035645">
        <ele>891.5</ele>
      </trkpt>
      <trkpt lat="47.277521" lon="11.035656">
        <ele>889.75</ele>
      </trkpt>
      <trkpt lat="47.277708" lon="11.035884">
        <ele>894</ele>
      </trkpt>
      <trkpt lat="47.277802" lon="11.036011">
        <ele>898.5</ele>
      </trkpt>
      <trkpt lat="47.277977" lon="11.036095">
        <ele>900</ele>
      </trkpt>
      <trkpt lat="47.278378" lon="11.036215">
        <ele>900</ele>
      </trkpt>
      <trkpt lat="47.278526" lon="11.036149">
        <ele>894.5</ele>
      </trkpt>
      <trkpt lat="47.278644" lon="11.036117">
        <ele>891.25</ele>
      </trkpt>
      <trkpt lat="47.278773" lon="11.036393">
        <ele>902</ele>
      </trkpt>
      <trkpt lat="47.278813" lon="11.03642">
        <ele>902.5</ele>
      </trkpt>
      <trkpt lat="47.278856" lon="11.03651">
        <ele>905.75</ele>
      </trkpt>
      <trkpt lat="47.278938" lon="11.036484">
        <ele>903.25</ele>
      </trkpt>
      <trkpt lat="47.279054" lon="11.036504">
        <ele>902</ele>
      </trkpt>
      <trkpt lat="47.279145" lon="11.036562">
        <ele>902.75</ele>
      </trkpt>
      <trkpt lat="47.2793" lon="11.036632">
        <ele>902</ele>
      </trkpt>
      <trkpt lat="47.279379" lon="11.036745">
        <ele>903.25</ele>
      </trkpt>
      <trkpt lat="47.279381" lon="11.03677">
        <ele>903.75</ele>
      </trkpt>
      <trkpt lat="47.279369" lon="11.036816">
        <ele>905.25</ele>
      </trkpt>
      <trkpt lat="47.279381" lon="11.03677">
        <ele>903.75</ele>
      </trkpt>
      <trkpt lat="47.279674" lon="11.036523">
        <ele>889.25</ele>
      </trkpt>
      <trkpt lat="47.279744" lon="11.036414">
        <ele>885.25</ele>
      </trkpt>
      <trkpt lat="47.279965" lon="11.036389">
        <ele>880.5</ele>
      </trkpt>
      <trkpt lat="47.280052" lon="11.036297">
        <ele>876.75</ele>
      </trkpt>
      <trkpt lat="47.280173" lon="11.036225">
        <ele>872.25</ele>
      </trkpt>
      <trkpt lat="47.280313" lon="11.036158">
        <ele>868</ele>
      </trkpt>
      <trkpt lat="47.280527" lon="11.036125">
        <ele>862.5</ele>
      </trkpt>
      <trkpt lat="47.28058" lon="11.03613">
        <ele>861</ele>
      </trkpt>
      <trkpt lat="47.28078" lon="11.036016">
        <ele>858</ele>
      </trkpt>
      <trkpt lat="47.281109" lon="11.035813">
        <ele>844.5</ele>
      </trkpt>
      <trkpt lat="47.281278" lon="11.03567">
        <ele>833.25</ele>
      </trkpt>
      <trkpt lat="47.281251" lon="11.03557">
        <ele>833.75</ele>
      </trkpt>
      <trkpt lat="47.281338" lon="11.035537">
        <ele>829.25</ele>
      </trkpt>
      <trkpt lat="47.281374" lon="11.035564">
        <ele>827.75</ele>
      </trkpt>
      <trkpt lat="47.281389" lon="11.035467">
        <ele>826.5</ele>
      </trkpt>
      <trkpt lat="47.281431" lon="11.035573">
        <ele>825</ele>
      </trkpt>
      <trkpt lat="47.28151" lon="11.035392">
        <ele>821.25</ele>
      </trkpt>
      <trkpt lat="47.281582" lon="11.03494">
        <ele>817.25</ele>
      </trkpt>
      <trkpt lat="47.281631" lon="11.035043">
        <ele>817.75</ele>
      </trkpt>
      <trkpt lat="47.281659" lon="11.034982">
        <ele>815.5</ele>
      </trkpt>
      <trkpt lat="47.281695" lon="11.034907">
        <ele>812.75</ele>
      </trkpt>
      <trkpt lat="47.281691" lon="11.034773">
        <ele>809</ele>
      </trkpt>
      <trkpt lat="47.28169" lon="11.034723">
        <ele>807.5</ele>
      </trkpt>
      <trkpt lat="47.281745" lon="11.034908">
        <ele>810.5</ele>
      </trkpt>
      <trkpt lat="47.281886" lon="11.034943">
        <ele>804.5</ele>
      </trkpt>
      <trkpt lat="47.282122" lon="11.034949">
        <ele>793.25</ele>
      </trkpt>
      <trkpt lat="47.281943" lon="11.035164">
        <ele>801.25</ele>
      </trkpt>
      <trkpt lat="47.282086" lon="11.035539">
        <ele>788.75</ele>
      </trkpt>
      <trkpt lat="47.282075" lon="11.036162">
        <ele>778.75</ele>
      </trkpt>
      <trkpt lat="47.281973" lon="11.036582">
        <ele>776.5</ele>
      </trkpt>
      <trkpt lat="47.281893" lon="11.037143">
        <ele>780.25</ele>
      </trkpt>
      <trkpt lat="47.281964" lon="11.03721">
        <ele>776.75</ele>
      </trkpt>
      <trkpt lat="47.282029" lon="11.037456">
        <ele>774.25</ele>
      </trkpt>
      <trkpt lat="47.28233" lon="11.037623">
        <ele>764.75</ele>
      </trkpt>
      <trkpt lat="47.282778" lon="11.037567">
        <ele>750</ele>
      </trkpt>
      <trkpt lat="47.283124" lon="11.037493">
        <ele>740.75</ele>
      </trkpt>
      <trkpt lat="47.283479" lon="11.037477">
        <ele>733.75</ele>
      </trkpt>
      <trkpt lat="47.283847" lon="11.037389">
        <ele>725.25</ele>
      </trkpt>
      <trkpt lat="47.284285" lon="11.037391">
        <ele>715.75</ele>
      </trkpt>
      <trkpt lat="47.284382" lon="11.037719">
        <ele>716.75</ele>
      </trkpt>
      <trkpt lat="47.284417" lon="11.037978">
        <ele>718.25</ele>
      </trkpt>
      <trkpt lat="47.284438" lon="11.038269">
        <ele>720.25</ele>
      </trkpt>
      <trkpt lat="47.284388" lon="11.038613">
        <ele>720.75</ele>
      </trkpt>
      <trkpt lat="47.284276" lon="11.038878">
        <ele>723.5</ele>
      </trkpt>
      <trkpt lat="47.284184" lon="11.038956">
        <ele>726.75</ele>
      </trkpt>
      <trkpt lat="47.283981" lon="11.039323">
        <ele>733.25</ele>
      </trkpt>
      <trkpt lat="47.283755" lon="11.039543">
        <ele>742.75</ele>
      </trkpt>
      <trkpt lat="47.283769" lon="11.039669">
        <ele>741.5</ele>
      </trkpt>
      <trkpt lat="47.283916" lon="11.039881">
        <ele>733.75</ele>
      </trkpt>
      <trkpt lat="47.284258" lon="11.040194">
        <ele>721.5</ele>
      </trkpt>
      <trkpt lat="47.28448" lon="11.04041">
        <ele>714.25</ele>
      </trkpt>
      <trkpt lat="47.284604" lon="11.040464">
        <ele>709</ele>
      </trkpt>
      <trkpt lat="47.2846" lon="11.040487">
        <ele>709.25</ele>
      </trkpt>
      <trkpt lat="47.2846" lon="11.040487">
        <ele>709.25</ele>
      </trkpt>
      <trkpt lat="47.284585" lon="11.040608">
        <ele>711.75</ele>
      </trkpt>
      <trkpt lat="47.284512" lon="11.04077">
        <ele>718</ele>
      </trkpt>
      <trkpt lat="47.284465" lon="11.041019">
        <ele>722.25</ele>
      </trkpt>
      <trkpt lat="47.284397" lon="11.041235">
        <ele>726.75</ele>
      </trkpt>
      <trkpt lat="47.284477" lon="11.04144">
        <ele>723.75</ele>
      </trkpt>
      <trkpt lat="47.284597" lon="11.041479">
        <ele>718</ele>
      </trkpt>
      <trkpt lat="47.284692" lon="11.04142">
        <ele>713</ele>
      </trkpt>
      <trkpt lat="47.284728" lon="11.041399">
        <ele>711.25</ele>
      </trkpt>
      <trkpt lat="47.284679" lon="11.041527">
        <ele>714.5</ele>
      </trkpt>
      <trkpt lat="47.284655" lon="11.041695">
        <ele>717</ele>
      </trkpt>
      <trkpt lat="47.284677" lon="11.041999">
        <ele>719.25</ele>
      </trkpt>
      <trkpt lat="47.284664" lon="11.042698">
        <ele>727.25</ele>
      </trkpt>
      <trkpt lat="47.284674" lon="11.043565">
        <ele>740.25</ele>
      </trkpt>
      <trkpt lat="47.284802" lon="11.04413">
        <ele>751.25</ele>
      </trkpt>
      <trkpt lat="47.284973" lon="11.04436">
        <ele>750.5</ele>
      </trkpt>
      <trkpt lat="47.28514" lon="11.044397">
        <ele>743.5</ele>
      </trkpt>
      <trkpt lat="47.28525" lon="11.044488">
        <ele>740.5</ele>
      </trkpt>
      <trkpt lat="47.285281" lon="11.044585">
        <ele>741.5</ele>
      </trkpt>
      <trkpt lat="47.285259" lon="11.044696">
        <ele>745.25</ele>
      </trkpt>
      <trkpt lat="47.285105" lon="11.044825">
        <ele>756.5</ele>
      </trkpt>
      <trkpt lat="47.285051" lon="11.044962">
        <ele>763</ele>
      </trkpt>
      <trkpt lat="47.28503" lon="11.045154">
        <ele>766.75</ele>
      </trkpt>
      <trkpt lat="47.28506" lon="11.045599">
        <ele>769</ele>
      </trkpt>
      <trkpt lat="47.285323" lon="11.046368">
        <ele>767.75</ele>
      </trkpt>
      <trkpt lat="47.285327" lon="11.046566">
        <ele>772.25</ele>
      </trkpt>
      <trkpt lat="47.285552" lon="11.047133">
        <ele>773.5</ele>
      </trkpt>
      <trkpt lat="47.285748" lon="11.047433">
        <ele>771.5</ele>
      </trkpt>
      <trkpt lat="47.285916" lon="11.047691">
        <ele>773.25</ele>
      </trkpt>
      <trkpt lat="47.286357" lon="11.04824">
        <ele>781.5</ele>
      </trkpt>
      <trkpt lat="47.286667" lon="11.048659">
        <ele>787.5</ele>
      </trkpt>
      <trkpt lat="47.286936" lon="11.049123">
        <ele>792.5</ele>
      </trkpt>
      <trkpt lat="47.287126" lon="11.049411">
        <ele>791.5</ele>
      </trkpt>
      <trkpt lat="47.287065" lon="11.050324">
        <ele>811.25</ele>
      </trkpt>
      <trkpt lat="47.287124" lon="11.051203">
        <ele>822.25</ele>
      </trkpt>
      <trkpt lat="47.287153" lon="11.051963">
        <ele>830</ele>
      </trkpt>
      <trkpt lat="47.287068" lon="11.052449">
        <ele>839.5</ele>
      </trkpt>
      <trkpt lat="47.287415" lon="11.05327">
        <ele>838</ele>
      </trkpt>
      <trkpt lat="47.287434" lon="11.054142">
        <ele>852.5</ele>
      </trkpt>
      <trkpt lat="47.287491" lon="11.054719">
        <ele>859.5</ele>
      </trkpt>
      <trkpt lat="47.287531" lon="11.054737">
        <ele>858</ele>
      </trkpt>
      <trkpt lat="47.288084" lon="11.054987">
        <ele>840.5</ele>
      </trkpt>
      <trkpt lat="47.2883" lon="11.055306">
        <ele>837.5</ele>
      </trkpt>
      <trkpt lat="47.288352" lon="11.055526">
        <ele>838.75</ele>
      </trkpt>
      <trkpt lat="47.288435" lon="11.055782">
        <ele>838.5</ele>
      </trkpt>
      <trkpt lat="47.288428" lon="11.055971">
        <ele>841.25</ele>
      </trkpt>
      <trkpt lat="47.288439" lon="11.056233">
        <ele>843.5</ele>
      </trkpt>
      <trkpt lat="47.288499" lon="11.056633">
        <ele>845.25</ele>
      </trkpt>
      <trkpt lat="47.288582" lon="11.0569">
        <ele>847.75</ele>
      </trkpt>
      <trkpt lat="47.288703" lon="11.057156">
        <ele>847.5</ele>
      </trkpt>
      <trkpt lat="47.288786" lon="11.05725">
        <ele>844.75</ele>
      </trkpt>
      <trkpt lat="47.288888" lon="11.057601">
        <ele>846.5</ele>
      </trkpt>
      <trkpt lat="47.28899" lon="11.057862">
        <ele>846</ele>
      </trkpt>
      <trkpt lat="47.289065" lon="11.058096">
        <ele>846.5</ele>
      </trkpt>
      <trkpt lat="47.289133" lon="11.058157">
        <ele>843.25</ele>
      </trkpt>
      <trkpt lat="47.289178" lon="11.058274">
        <ele>843</ele>
      </trkpt>
      <trkpt lat="47.28925" lon="11.058541">
        <ele>846.25</ele>
      </trkpt>
      <trkpt lat="47.289307" lon="11.058702">
        <ele>847.25</ele>
      </trkpt>
      <trkpt lat="47.289442" lon="11.058869">
        <ele>843.5</ele>
      </trkpt>
      <trkpt lat="47.289469" lon="11.058947">
        <ele>843.75</ele>
      </trkpt>
      <trkpt lat="47.289563" lon="11.059125">
        <ele>841.75</ele>
      </trkpt>
      <trkpt lat="47.28971" lon="11.059448">
        <ele>840.5</ele>
      </trkpt>
      <trkpt lat="47.289808" lon="11.059514">
        <ele>835.5</ele>
      </trkpt>
      <trkpt lat="47.290125" lon="11.059793">
        <ele>822</ele>
      </trkpt>
      <trkpt lat="47.290242" lon="11.059959">
        <ele>819.25</ele>
      </trkpt>
      <trkpt lat="47.290359" lon="11.060182">
        <ele>818.75</ele>
      </trkpt>
      <trkpt lat="47.290457" lon="11.06026">
        <ele>815.25</ele>
      </trkpt>
      <trkpt lat="47.290586" lon="11.060332">
        <ele>809.5</ele>
      </trkpt>
      <trkpt lat="47.29065" lon="11.060527">
        <ele>810.25</ele>
      </trkpt>
      <trkpt lat="47.291001" lon="11.06095">
        <ele>798</ele>
      </trkpt>
      <trkpt lat="47.291091" lon="11.061122">
        <ele>797</ele>
      </trkpt>
      <trkpt lat="47.291227" lon="11.061345">
        <ele>794</ele>
      </trkpt>
      <trkpt lat="47.291412" lon="11.061536">
        <ele>786.5</ele>
      </trkpt>
      <trkpt lat="47.291579" lon="11.061697">
        <ele>778.75</ele>
      </trkpt>
      <trkpt lat="47.291754" lon="11.061955">
        <ele>773.25</ele>
      </trkpt>
      <trkpt lat="47.292002" lon="11.062169">
        <ele>763</ele>
      </trkpt>
      <trkpt lat="47.292133" lon="11.062394">
        <ele>758.75</ele>
      </trkpt>
      <trkpt lat="47.292402" lon="11.062727">
        <ele>747.5</ele>
      </trkpt>
      <trkpt lat="47.292678" lon="11.063199">
        <ele>741</ele>
      </trkpt>
      <trkpt lat="47.292984" lon="11.063596">
        <ele>734.5</ele>
      </trkpt>
      <trkpt lat="47.293253" lon="11.063896">
        <ele>728.5</ele>
      </trkpt>
      <trkpt lat="47.293581" lon="11.064497">
        <ele>722.25</ele>
      </trkpt>
      <trkpt lat="47.29369" lon="11.064411">
        <ele>713.5</ele>
      </trkpt>
      <trkpt lat="47.294039" lon="11.064948">
        <ele>701.25</ele>
      </trkpt>
      <trkpt lat="47.2942" lon="11.065323">
        <ele>695.25</ele>
      </trkpt>
      <trkpt lat="47.294276" lon="11.065497">
        <ele>692.75</ele>
      </trkpt>
      <trkpt lat="47.294188" lon="11.065652">
        <ele>696.25</ele>
      </trkpt>
      <trkpt lat="47.294103" lon="11.065746">
        <ele>701</ele>
      </trkpt>
      <trkpt lat="47.294264" lon="11.065979">
        <ele>697</ele>
      </trkpt>
      <trkpt lat="47.294212" lon="11.066029">
        <ele>699.5</ele>
      </trkpt>
      <trkpt lat="47.294425" lon="11.066215">
        <ele>694.25</ele>
      </trkpt>
      <trkpt lat="47.29449" lon="11.066238">
        <ele>692</ele>
      </trkpt>
      <trkpt lat="47.294584" lon="11.066272">
        <ele>688.75</ele>
      </trkpt>
      <trkpt lat="47.294788" lon="11.066344">
        <ele>681.5</ele>
      </trkpt>
      <trkpt lat="47.295269" lon="11.067493">
        <ele>682.25</ele>
      </trkpt>
      <trkpt lat="47.295538" lon="11.0682">
        <ele>676.25</ele>
      </trkpt>
      <trkpt lat="47.296084" lon="11.069724">
        <ele>665.5</ele>
      </trkpt>
      <trkpt lat="47.296348" lon="11.070408">
        <ele>652.75</ele>
      </trkpt>
      <trkpt lat="47.296365" lon="11.070435">
        <ele>651.5</ele>
      </trkpt>
      <trkpt lat="47.296364" lon="11.070434">
        <ele>651.5</ele>
      </trkpt>
      <trkpt lat="47.296446" lon="11.070566">
        <ele>646.5</ele>
      </trkpt>
      <trkpt lat="47.296503" lon="11.070626">
        <ele>642.75</ele>
      </trkpt>
      <trkpt lat="47.296577" lon="11.070642">
        <ele>637.75</ele>
      </trkpt>
      <trkpt lat="47.296683" lon="11.070788">
        <ele>631.5</ele>
      </trkpt>
      <trkpt lat="47.296749" lon="11.070959">
        <ele>632.25</ele>
      </trkpt>
      <trkpt lat="47.296948" lon="11.071282">
        <ele>631.75</ele>
      </trkpt>
      <trkpt lat="47.297163" lon="11.071582">
        <ele>629</ele>
      </trkpt>
      <trkpt lat="47.297289" lon="11.072238">
        <ele>627.75</ele>
      </trkpt>
      <trkpt lat="47.297315" lon="11.072331">
        <ele>627</ele>
      </trkpt>
      <trkpt lat="47.297335" lon="11.072383">
        <ele>626.25</ele>
      </trkpt>
      <trkpt lat="47.297348" lon="11.072414">
        <ele>626</ele>
      </trkpt>
      <trkpt lat="47.297424" lon="11.072483">
        <ele>623.5</ele>
      </trkpt>
      <trkpt lat="47.297527" lon="11.072534">
        <ele>621</ele>
      </trkpt>
      <trkpt lat="47.298067" lon="11.072543">
        <ele>621</ele>
      </trkpt>
      <trkpt lat="47.298046" lon="11.072678">
        <ele>621.75</ele>
      </trkpt>
      <trkpt lat="47.298034" lon="11.073105">
        <ele>624.25</ele>
      </trkpt>
      <trkpt lat="47.298048" lon="11.073289">
        <ele>625.25</ele>
      </trkpt>
      <trkpt lat="47.298061" lon="11.07348">
        <ele>625.75</ele>
      </trkpt>
      <trkpt lat="47.298132" lon="11.07396">
        <ele>625.5</ele>
      </trkpt>
      <trkpt lat="47.29821" lon="11.07436">
        <ele>625</ele>
      </trkpt>
      <trkpt lat="47.29823" lon="11.074464">
        <ele>625</ele>
      </trkpt>
      <trkpt lat="47.298294" lon="11.074957">
        <ele>623.75</ele>
      </trkpt>
      <trkpt lat="47.29833" lon="11.075088">
        <ele>623.25</ele>
      </trkpt>
      <trkpt lat="47.298335" lon="11.075222">
        <ele>623.5</ele>
      </trkpt>
      <trkpt lat="47.298412" lon="11.075682">
        <ele>624.5</ele>
      </trkpt>
      <trkpt lat="47.298555" lon="11.076201">
        <ele>626.5</ele>
      </trkpt>
      <trkpt lat="47.29858" lon="11.076291">
        <ele>626.75</ele>
      </trkpt>
      <trkpt lat="47.29867" lon="11.07679">
        <ele>628.5</ele>
      </trkpt>
      <trkpt lat="47.29881" lon="11.077162">
        <ele>629.5</ele>
      </trkpt>
      <trkpt lat="47.29903" lon="11.077522">
        <ele>628.25</ele>
      </trkpt>
      <trkpt lat="47.299323" lon="11.078026">
        <ele>626.5</ele>
      </trkpt>
      <trkpt lat="47.299366" lon="11.078134">
        <ele>626.5</ele>
      </trkpt>
      <trkpt lat="47.299412" lon="11.078208">
        <ele>626.5</ele>
      </trkpt>
      <trkpt lat="47.299508" lon="11.078241">
        <ele>626</ele>
      </trkpt>
      <trkpt lat="47.299506" lon="11.078434">
        <ele>626.5</ele>
      </trkpt>
      <trkpt lat="47.299504" lon="11.07869">
        <ele>627</ele>
      </trkpt>
      <trkpt lat="47.30011" lon="11.078703">
        <ele>624.75</ele>
      </trkpt>
      <trkpt lat="47.300117" lon="11.078886">
        <ele>625</ele>
      </trkpt>
      <trkpt lat="47.30024" lon="11.078879">
        <ele>625</ele>
      </trkpt>
      <trkpt lat="47.3004" lon="11.078912">
        <ele>625</ele>
      </trkpt>
      <trkpt lat="47.300496" lon="11.078899">
        <ele>624.75</ele>
      </trkpt>
      <trkpt lat="47.300488" lon="11.078633">
        <ele>623.75</ele>
      </trkpt>
    </trkseg>
  </trk>
</gpx>